{"type":"FeatureCollection","features":[{"type":"Feature","properties":{"territoryId":"cliopatria-q41137-f5e3aefc73","name":"Assyria","name_ko":"아시리아","color":"#e13378","colorFamily":3,"startYear":-1399,"endYear":-1300,"source_name":"Cliopatria v0.2.0","source_url":"https://github.com/Seshat-Global-History-Databank/cliopatria","license":"CC BY 4.0","attribution":"Seshat Global History Databank, Cliopatria contributors"},"geometry":{"type":"Polygon","coordinates":[[[43.4108,35.4514],[43.4451,35.1297],[44.3968,34.7436],[44.3795,34.615],[44.5934,34.4863],[44.4736,34.1647],[45.5508,34.1647],[45.6453,34.2933],[45.5002,34.3577],[45.5356,34.615],[45.6898,34.615],[45.7168,34.8079],[45.8801,34.8723],[45.8893,34.9366],[45.7623,35.1297],[45.5305,35.1297],[45.5396,35.194],[45.4033,35.3227],[45.4216,35.4514],[45.2761,35.5158],[45.2945,35.6445],[45.1489,35.7089],[45.1673,35.8377],[44.9626,36.0308],[44.8076,36.0308],[44.6026,36.224],[44.6211,36.3528],[44.4659,36.3528],[44.3384,36.546],[44.3477,36.6105],[43.5939,36.224],[43.4369,35.6445],[43.5143,35.6445],[43.4108,35.4514]]]}},{"type":"Feature","properties":{"territoryId":"cliopatria-q47690-5e1dd28d70","name":"Babylonia","name_ko":"바빌로니아","color":"#758ff0","colorFamily":0,"startYear":-1399,"endYear":-1300,"source_name":"Cliopatria v0.2.0","source_url":"https://github.com/Seshat-Global-History-Databank/cliopatria","license":"CC BY 4.0","attribution":"Seshat Global History Databank, Cliopatria contributors"},"geometry":{"type":"MultiPolygon","coordinates":[[[[40.0482,34.4863],[40.4183,34.3577],[40.4728,34.1647],[40.8499,34.1004],[40.9117,33.9718],[42.0031,33.4574],[42.0645,33.3288],[42.3636,33.2645],[42.7085,32.943],[43.1526,32.8145],[44.459,31.5933],[44.5814,31.3362],[44.9546,31.2719],[45.7705,30.4364],[46.5906,30.3079],[46.6151,29.858],[46.8497,29.9223],[46.994,29.858],[46.9794,29.7294],[47.2897,29.7937],[47.8662,29.5366],[48.1734,29.5734],[47.9956,29.8277],[47.9348,30.1071],[47.969,30.0041],[48.1192,30.045],[48.434,29.9365],[48.5304,29.9564],[48.4766,29.984],[48.6587,29.9836],[48.6433,30.0554],[48.8904,30.0308],[48.9417,30.1651],[48.8623,30.3456],[49.0194,30.4558],[48.953,30.5002],[49.2705,30.5007],[49.2867,30.6292],[48.2528,31.4647],[48.1516,32.4288],[47.931,32.4931],[47.966,32.7502],[47.6185,33.0073],[47.6362,33.1359],[46.6835,33.4574],[46.7868,33.6502],[46.2845,33.9075],[46.3792,34.0361],[46.1485,34.0361],[46.1752,34.229],[45.8711,34.8079],[45.8801,34.8723],[45.7168,34.8079],[45.6898,34.615],[45.5356,34.615],[45.5002,34.3577],[45.6453,34.2933],[45.5508,34.1647],[44.4736,34.1647],[44.5934,34.4863],[44.3795,34.615],[44.3968,34.7436],[43.4451,35.1297],[43.4108,35.4514],[43.5143,35.6445],[43.4369,35.6445],[42.9468,35.4514],[42.8105,35.001],[41.9533,34.9366],[41.2825,35.1297],[40.9343,34.8079],[40.0557,34.5506],[40.0482,34.4863]],[[48.1351,30.4429],[48.1409,30.4419],[48.1705,30.4067],[48.1351,30.4429]],[[48.291,30.32],[48.2964,30.3198],[48.3014,30.3149],[48.291,30.32]],[[48.3292,30.2876],[48.397,30.221],[48.4026,30.2088],[48.3292,30.2876]],[[48.3811,30.1453],[48.3832,30.1481],[48.3831,30.1424],[48.3811,30.1453]],[[48.4082,30.1885],[48.4085,30.1961],[48.4106,30.1915],[48.4082,30.1885]],[[48.4239,30.0836],[48.4618,29.9949],[48.4531,30.0014],[48.4239,30.0836]]],[[[48.0108,29.9805],[48.0311,29.971],[48.0789,30.0041],[48.1061,30.0176],[48.1092,30.028],[48.0547,30.0245],[48.0108,29.9805]]],[[[48.0461,29.8005],[48.1858,29.6039],[48.3527,29.7098],[48.3445,29.7906],[48.1621,29.9957],[48.1227,29.9697],[48.1974,29.9254],[48.0951,29.8947],[48.1133,29.8391],[48.0461,29.8005]]],[[[48.9212,30.3808],[48.972,30.3642],[48.9893,30.3977],[48.9486,30.4011],[48.9318,30.3972],[48.9212,30.3808]]]]}},{"type":"Feature","properties":{"territoryId":"cliopatria-q128904-1175fc4c43","name":"Elam","name_ko":"엘람","color":"#f0b875","colorFamily":1,"startYear":-1399,"endYear":-1300,"source_name":"Cliopatria v0.2.0","source_url":"https://github.com/Seshat-Global-History-Databank/cliopatria","license":"CC BY 4.0","attribution":"Seshat Global History Databank, Cliopatria contributors"},"geometry":{"type":"MultiPolygon","coordinates":[[[[47.6185,33.0073],[47.966,32.7502],[47.931,32.4931],[48.1516,32.4288],[48.2528,31.4647],[49.2867,30.6292],[49.2705,30.5007],[49.213,30.5007],[49.2283,30.4544],[49.2638,30.4497],[49.2029,30.3466],[49.0852,30.4009],[49.0187,30.3079],[49.1646,30.2252],[49.2092,30.2715],[49.2364,30.1846],[49.283,30.1581],[49.4798,30.1561],[49.5041,30.0587],[49.5645,30.0168],[49.9146,30.2039],[49.9883,30.2199],[50.0734,30.1957],[50.1277,30.1207],[50.1613,29.9263],[50.2438,29.8668],[50.397,29.6547],[50.4561,29.6341],[50.6553,29.4491],[50.6615,29.3188],[50.6895,29.2908],[50.6826,29.2431],[50.6675,29.2573],[50.6358,29.2077],[50.6435,29.1458],[50.8403,29.1406],[50.8508,29.1055],[50.915,29.0867],[50.929,29.0097],[50.8887,28.9414],[50.867,28.9702],[50.8345,28.8914],[50.8762,28.832],[50.9787,28.8166],[51.0588,28.7359],[51.0725,28.5653],[51.1092,28.472],[51.5567,28.7652],[51.8588,28.7652],[51.882,28.9581],[52.208,29.1509],[52.2402,29.4081],[51.7083,29.9865],[51.7251,30.1151],[51.5143,30.2436],[51.4724,30.5007],[51.1012,30.565],[50.9663,30.6935],[50.9835,30.822],[50.7052,31.0148],[50.7225,31.1434],[50.3856,31.4647],[50.4795,31.5933],[50.1659,31.529],[50.2864,31.8503],[50.0171,32.1074],[50.0352,32.236],[49.8241,32.3645],[49.8515,32.5574],[49.7169,32.6859],[49.2488,32.6216],[49.2761,32.8145],[49.0464,32.8145],[48.9881,32.943],[48.6818,32.943],[48.5467,33.0716],[47.6362,33.1359],[47.6185,33.0073]]],[[[49.1303,30.5007],[49.134,30.4975],[49.1433,30.5007],[49.1303,30.5007]]],[[[49.1682,30.477],[49.203,30.5007],[49.1727,30.5007],[49.1751,30.4975],[49.1682,30.477]]],[[[50.4618,31.4647],[50.538,31.4647],[50.5468,31.529],[50.4706,31.529],[50.4618,31.4647]]]]}},{"type":"Feature","properties":{"territoryId":"cliopatria-q5406-15e349ca3a","name":"Hittites","name_ko":"히타이트","color":"#33e1c7","colorFamily":2,"startYear":-1399,"endYear":-1300,"source_name":"Cliopatria v0.2.0","source_url":"https://github.com/Seshat-Global-History-Databank/cliopatria","license":"CC BY 4.0","attribution":"Seshat Global History Databank, Cliopatria contributors"},"geometry":{"type":"Polygon","coordinates":[[[31.6592,38.868],[31.7377,38.868],[31.7648,38.3515],[31.8432,38.3515],[31.8179,38.0933],[31.8962,38.0933],[31.8712,37.8352],[31.9494,37.8352],[31.9246,37.5773],[32.0562,37.3193],[31.9661,37.1904],[32.0978,36.9326],[32.3192,36.8037],[32.373,36.546],[32.5223,36.4816],[32.5529,36.098],[32.6639,36.05],[33.824,36.2603],[33.8711,36.3149],[33.9347,36.2804],[33.9791,36.2884],[34.2507,36.6749],[34.5816,36.8682],[34.8929,36.8682],[34.9352,36.726],[35.021,36.7029],[35.1127,36.7393],[35.3323,36.6105],[35.4875,36.6105],[35.8336,36.9326],[35.9044,36.8682],[36.0105,36.9233],[36.0814,37.0615],[36.3856,36.9971],[36.6634,37.3838],[37.5992,37.3838],[37.7708,37.5128],[37.7864,37.6417],[37.6381,37.7062],[37.6698,37.9643],[37.8503,38.1578],[37.8584,38.2224],[37.656,38.4806],[37.2802,38.6097],[37.3832,38.8034],[36.9907,38.8034],[37.0151,38.9972],[36.8039,39.1911],[36.8121,39.2557],[36.1446,39.5789],[36.0363,39.967],[35.9574,39.967],[35.9824,40.1612],[35.579,40.0964],[35.5248,40.2906],[35.1294,40.2906],[35.097,40.0317],[34.789,40.0964],[34.3629,39.8376],[34.078,40.0964],[33.446,40.0964],[33.3372,39.8376],[33.086,39.7083],[32.2048,39.5789],[31.8176,39.6436],[31.7252,39.5143],[31.8294,38.9972],[31.6592,38.868]]]}},{"type":"Feature","properties":{"territoryId":"cliopatria-q178665-63a666b869","name":"Mitanni","name_ko":"미탄니","color":"#e7b97e","colorFamily":1,"startYear":-1399,"endYear":-1300,"source_name":"Cliopatria v0.2.0","source_url":"https://github.com/Seshat-Global-History-Databank/cliopatria","license":"CC BY 4.0","attribution":"Seshat Global History Databank, Cliopatria contributors"},"geometry":{"type":"Polygon","coordinates":[[[36.0105,36.9233],[36.0966,36.896],[36.1449,36.9326],[36.272,36.6749],[36.2649,36.6105],[36.632,36.4172],[36.6179,36.2884],[36.4556,36.224],[36.2621,35.1297],[36.3393,35.1297],[36.293,34.6793],[36.6389,34.2933],[36.7159,34.2933],[36.652,34.422],[36.8193,34.5506],[38.0032,34.8079],[38.1787,35.001],[38.4175,35.0653],[38.8036,35.0653],[39.0904,34.8723],[39.2521,34.9366],[39.9787,34.5506],[40.0557,34.5506],[40.9343,34.8079],[41.2825,35.1297],[41.9533,34.9366],[42.8105,35.001],[42.9468,35.4514],[43.4369,35.6445],[43.5939,36.224],[44.3477,36.6105],[44.3571,36.6749],[44.2981,36.8037],[43.8499,36.9326],[43.7908,37.0615],[43.5572,37.0615],[43.6072,36.8682],[43.1586,36.9971],[43.0535,36.8037],[42.5868,36.8037],[42.6047,36.9326],[42.458,36.9971],[42.4071,37.1904],[40.8487,37.1904],[40.3644,37.0615],[40.2422,37.3193],[39.9304,37.3193],[39.0439,37.7062],[38.9823,37.8352],[38.6698,37.8352],[37.9285,38.1578],[37.8503,38.1578],[37.6698,37.9643],[37.6381,37.7062],[37.7864,37.6417],[37.7708,37.5128],[37.5992,37.3838],[36.6634,37.3838],[36.3856,36.9971],[36.0814,37.0615],[36.0105,36.9233]],[[36.6665,36.2657],[36.6691,36.2599],[36.6681,36.2532],[36.6665,36.2657]]]}},{"type":"Feature","properties":{"territoryId":"cliopatria-q181264-b30e51fb1f","name":"Mycenaean Greece","name_ko":"미케네 문명","color":"#ebc87a","colorFamily":1,"startYear":-1399,"endYear":-1300,"source_name":"Cliopatria v0.2.0","source_url":"https://github.com/Seshat-Global-History-Databank/cliopatria","license":"CC BY 4.0","attribution":"Seshat Global History Databank, Cliopatria contributors"},"geometry":{"type":"MultiPolygon","coordinates":[[[[23.6154,35.5158],[23.6792,35.2584],[24.4484,35.194],[24.7574,35.194],[24.8237,35.001],[26.1401,35.0653],[26.2253,35.194],[25.8469,35.1493],[25.7953,35.1151],[25.6806,35.1297],[25.6923,35.3227],[25.4536,35.2941],[25.3991,35.3227],[24.301,35.3227],[24.1499,35.3871],[24.1541,35.465],[24.0669,35.507],[24.1569,35.5158],[23.6154,35.5158]]],[[[22.9016,36.3383],[22.9292,36.178],[23.0533,36.1596],[23.0584,36.2165],[23.1039,36.2372],[23.0769,36.2707],[22.9446,36.3894],[22.9016,36.3383]]],[[[24.2754,37.5317],[24.3958,37.6247],[24.3728,37.6852],[24.2893,37.6453],[24.2754,37.5317]]],[[[24.6878,37.9287],[24.7162,37.8791],[24.7385,37.8918],[24.9118,37.7283],[24.9944,37.7541],[24.9575,37.7744],[24.9849,37.816],[24.9434,37.8433],[24.9538,37.8707],[24.8484,37.9149],[24.7937,37.9941],[24.6936,37.9658],[24.6878,37.9287]]],[[[21.2436,37.8352],[21.6966,37.5128],[21.6664,37.4088],[21.6958,37.3164],[21.6031,37.1904],[21.681,37.1904],[21.7435,36.8682],[21.8992,36.8682],[21.9085,37.0615],[22.22,37.0615],[22.3356,36.7337],[22.388,36.7062],[22.3757,36.6749],[22.5118,36.6749],[22.5994,36.8682],[22.8328,36.8682],[23.0332,36.6946],[22.8532,37.2549],[22.7007,37.3193],[22.7144,37.5773],[22.7783,37.5969],[22.9486,37.5773],[23.1756,37.4483],[23.1685,37.3193],[23.278,37.3498],[23.2302,37.3846],[23.3849,37.4134],[23.36,37.5475],[23.3367,37.5355],[23.1686,37.6142],[23.1626,37.6417],[23.1083,37.6417],[23.0586,37.8427],[23.0125,37.8476],[22.9951,37.8821],[23.0151,37.9252],[23.0941,37.911],[23.2044,37.963],[23.2082,38.0288],[23.5746,38.0468],[23.5979,38.0211],[23.5597,37.9866],[23.9786,37.8352],[24.0021,38.2224],[24.0361,38.2224],[23.951,38.2909],[23.6729,38.3564],[23.5735,38.4534],[23.5929,38.4806],[23.3126,38.4806],[23.1826,38.6538],[23.1045,38.6384],[23.0698,38.7015],[22.9356,38.7389],[22.9149,38.7756],[22.8672,38.7551],[22.7481,38.7992],[22.7026,38.8507],[22.5934,38.8302],[22.5539,38.8481],[22.5729,38.8643],[22.5251,38.8581],[22.5251,38.8854],[22.6216,38.9145],[22.689,38.878],[22.792,38.878],[22.8465,38.9264],[22.9845,38.9543],[23.0731,39.0363],[22.9639,39.009],[22.9981,39.0493],[22.9767,39.0983],[22.7973,39.0618],[22.8163,39.385],[23.1318,39.4489],[22.9395,39.5806],[22.8358,39.7083],[22.5992,39.7083],[21.9397,39.1911],[21.7859,39.2557],[21.8541,39.0618],[21.3661,38.7389],[21.2716,38.416],[21.3401,38.4065],[21.3533,38.4329],[21.3225,38.4963],[21.3601,38.4677],[21.3769,38.4015],[21.7163,38.3579],[21.7625,38.3284],[21.8312,38.3967],[21.8792,38.378],[21.9876,38.4106],[22.1326,38.3727],[22.1892,38.3231],[22.2249,38.3601],[22.3823,38.3427],[22.4016,38.4534],[22.4684,38.4211],[22.5625,38.2935],[22.6003,38.3026],[22.5872,38.3367],[22.6462,38.3618],[22.6268,38.3715],[22.6465,38.39],[22.6965,38.3169],[22.7988,38.2821],[22.7648,38.248],[22.8057,38.227],[22.895,38.2412],[22.9087,38.1928],[22.9695,38.1928],[22.9224,38.207],[22.9519,38.2253],[23.0667,38.1832],[23.1227,38.2081],[23.1489,38.1859],[23.1284,38.1723],[23.2234,38.1592],[23.1755,38.145],[23.2166,38.1033],[23.0686,38.0589],[22.9429,38.0835],[22.854,38.0351],[22.9754,37.979],[22.9463,37.9462],[22.8672,37.9395],[22.6804,38.0666],[22.3312,38.1789],[22.2185,38.1882],[22.0204,38.3132],[21.8495,38.3413],[21.7333,38.2514],[21.7286,38.1578],[21.4156,38.1578],[21.2436,37.8352]]],[[[22.833,38.8227],[22.9415,38.8412],[22.9694,38.8891],[23.1825,38.9326],[23.1787,38.868],[23.4888,38.8034],[23.3435,38.9972],[23.1116,38.9972],[23.0868,38.9543],[22.8748,38.8749],[22.833,38.8227]]],[[[23.0356,36.6926],[23.0463,36.6833],[23.0517,36.6872],[23.0498,36.6926],[23.0356,36.6926]]],[[[23.052,39.0977],[23.1132,39.0886],[23.1146,39.1106],[23.052,39.0977]]],[[[23.3122,37.6174],[23.3406,37.6003],[23.3536,37.5821],[23.3442,37.6327],[23.3122,37.6174]]],[[[23.4014,37.3193],[23.4024,37.3193],[23.4023,37.3198],[23.4014,37.3193]]],[[[23.5634,38.7389],[23.6355,38.5286],[23.594,38.4534],[23.6144,38.4609],[23.6492,38.4057],[24.0422,38.4015],[24.0669,38.351],[24.0254,38.3305],[24.1216,38.3095],[24.1094,38.2563],[24.1617,38.2698],[24.1789,38.5451],[24.0302,38.6743],[23.5634,38.7389]]],[[[24.1275,38.2224],[24.1591,38.2287],[24.1614,38.2661],[24.1275,38.2224]]],[[[23.4849,38.7389],[23.5634,38.7389],[23.5668,38.7946],[23.4888,38.8034],[23.4849,38.7389]]],[[[24.4362,38.878],[24.557,38.8457],[24.574,38.8098],[24.5368,38.7918],[24.6643,38.7732],[24.6673,38.8185],[24.5786,38.8756],[24.574,38.9326],[24.523,38.9643],[24.4611,38.9677],[24.4362,38.878]]],[[[27.708,36.1688],[27.714,36.1225],[27.7571,36.0844],[27.7311,35.9907],[27.7519,35.905],[27.8638,35.9413],[27.9934,36.062],[28.0896,36.0551],[28.0964,36.1035],[28.0617,36.1165],[28.1634,36.2377],[28.2311,36.4498],[27.8997,36.3402],[27.8032,36.2702],[27.772,36.1978],[27.708,36.1688]]],[[[25.3418,37.083],[25.3936,36.9971],[25.5644,36.9971],[25.5727,37.126],[25.4128,37.126],[25.3418,37.083]]],[[[24.9955,37.6789],[25.0113,37.6323],[25.1255,37.5559],[25.216,37.5329],[25.2593,37.59],[25.2456,37.6242],[24.9955,37.6789]]],[[[25.99,37.5165],[26.2306,37.5714],[26.3083,37.6267],[26.312,37.6796],[26.1974,37.6323],[26.0742,37.6379],[25.99,37.5165]]],[[[26.5861,37.7489],[26.6229,37.6789],[26.7083,37.7136],[26.7874,37.6472],[26.8693,37.6447],[27.017,37.7094],[27.0222,37.7803],[26.9451,37.7887],[26.9661,37.7477],[26.8064,37.8145],[26.6581,37.7928],[26.5861,37.7489]]],[[[27.0115,37.6657],[27.0137,37.6651],[27.0142,37.6717],[27.0115,37.6657]]],[[[25.8407,38.5224],[25.9439,38.4534],[25.9507,38.4057],[25.989,38.3793],[25.9644,38.3026],[25.885,38.2794],[25.8898,38.2206],[26.0115,38.1578],[26.0401,38.2002],[26.1121,38.2226],[26.1022,38.2617],[26.1581,38.329],[26.1541,38.4673],[26.1219,38.4875],[26.1636,38.5428],[26.1307,38.5672],[26.1082,38.5428],[26.0159,38.602],[25.8696,38.5831],[25.8407,38.5224]]]]}},{"type":"Feature","properties":{"territoryId":"cliopatria-q180568-878902576f","name":"New Kingdom of Egypt","name_ko":"이집트 신왕국","color":"#458de3","colorFamily":0,"startYear":-1399,"endYear":-1300,"source_name":"Cliopatria v0.2.0","source_url":"https://github.com/Seshat-Global-History-Databank/cliopatria","license":"CC BY 4.0","attribution":"Seshat Global History Databank, Cliopatria contributors"},"geometry":{"type":"MultiPolygon","coordinates":[[[[27.7091,25.6793],[27.854,25.5507],[27.8444,25.2936],[27.9917,25.2293],[27.987,25.1007],[28.4217,24.7149],[29.1572,24.3935],[29.5026,23.622],[29.6495,23.5577],[29.9251,22.9148],[30.0718,22.8506],[30.4916,22.0791],[30.4128,21.9505],[30.4872,21.9505],[30.4585,21.1148],[30.5327,21.1148],[30.5227,18.7362],[30.5967,18.7362],[30.6517,18.2219],[30.8685,18.0933],[31.2378,18.0933],[31.8361,18.2862],[31.915,18.4148],[32.2895,18.5434],[32.8302,19.1219],[33.1313,19.2505],[33.5779,19.3148],[33.6386,18.9934],[34.1591,19.0577],[33.755,20.022],[33.781,20.6648],[33.3536,21.1148],[33.3713,21.5648],[33.2252,21.6291],[33.2328,21.822],[33.1585,21.822],[33.2198,21.9662],[31.4355,21.9954],[33.2322,21.9955],[33.0274,22.272],[33.0351,22.4648],[32.8913,22.5934],[32.7603,23.0434],[32.3955,23.2363],[32.4437,24.3935],[32.369,24.3935],[32.3803,24.6506],[34.1755,26.1294],[34.2696,26.1294],[34.014,26.6116],[33.9414,26.6535],[33.9961,26.8966],[33.8368,27.1208],[33.8384,27.2426],[33.6917,27.3419],[33.4963,27.6466],[33.5877,27.651],[33.5579,27.7599],[33.4735,27.8232],[33.5921,27.7912],[33.5544,27.8965],[33.2494,28.1429],[33.0029,28.4895],[32.8689,28.5789],[32.8069,28.7781],[32.6255,28.9727],[32.6528,29.081],[32.5623,29.3863],[32.3377,29.5925],[32.5095,29.8668],[32.4769,29.9322],[32.5715,29.9426],[32.5778,30.0114],[32.6045,29.8242],[32.6907,29.7336],[32.7239,29.4705],[32.8172,29.414],[32.8856,29.2431],[33.1779,28.9896],[33.2287,28.5694],[33.5538,28.3153],[33.8794,27.9346],[34.2201,27.7731],[34.4281,27.9859],[34.4553,28.1749],[34.4102,28.32],[34.6245,28.736],[34.7366,29.3113],[34.9199,29.5024],[34.9367,29.7294],[34.861,29.7294],[34.8755,29.9223],[34.7997,29.9223],[34.8143,30.1151],[34.6725,30.2436],[34.5555,30.6935],[34.804,30.9506],[35.1082,30.9506],[35.331,30.8863],[35.3153,30.6935],[35.4568,30.565],[35.7553,30.5007],[35.9991,30.6935],[36.1457,30.6292],[36.1564,30.7578],[36.4009,30.9506],[36.2709,31.2076],[36.4231,31.2076],[36.3866,31.6575],[36.4629,31.6575],[36.4919,31.9789],[36.6564,32.1074],[36.5155,32.236],[36.7507,32.3002],[36.7168,32.7502],[36.9966,33.2645],[36.8686,33.5217],[36.9009,33.8432],[36.6324,34.229],[36.6389,34.2933],[36.293,34.6793],[36.3393,35.1297],[36.2621,35.1297],[36.4556,36.224],[36.6179,36.2884],[36.632,36.4172],[36.1884,36.61],[35.8417,36.2884],[35.9901,36.224],[35.9767,36.001],[35.8449,35.5802],[35.9929,35.5158],[35.9153,35.2879],[35.9624,35.1979],[35.927,34.8723],[36.0682,34.7436],[36.0488,34.5506],[35.7921,34.2933],[35.6652,34.3113],[35.6838,33.9718],[35.4705,33.9021],[35.4993,33.6502],[35.3944,33.65],[35.3984,33.3931],[35.2154,33.0716],[35.089,33.0205],[35.0218,32.6216],[34.8851,32.4821],[34.7926,32.161],[34.813,31.9789],[34.6909,31.9134],[34.6028,31.7558],[34.6334,31.6575],[34.3076,31.4005],[34.2972,31.2719],[33.7493,31.0791],[32.8317,31.0148],[32.8055,31.0655],[32.6665,31.0523],[32.7907,31.0941],[32.6016,31.061],[32.2915,31.1839],[32.3039,31.0791],[32.1065,31.0534],[31.9996,31.0791],[31.9063,31.2516],[31.7806,31.2076],[31.8077,31.2812],[31.7691,31.2988],[31.8741,31.4647],[31.2658,31.4647],[31.1215,31.5275],[31.0291,31.5185],[30.9807,31.4365],[30.7985,31.4465],[30.7344,31.3881],[30.5427,31.395],[30.6916,31.4647],[30.352,31.4647],[30.3019,31.3422],[30.3388,31.2719],[30.2887,31.2379],[29.9904,31.2719],[29.8315,31.1513],[29.8696,31.0791],[29.6332,30.9506],[29.5543,30.9848],[29.4481,30.9336],[29.3971,30.822],[28.865,30.822],[28.5686,30.9506],[28.3199,29.2152],[28.2442,29.2152],[28.2212,28.7652],[28.1457,28.7652],[28.2115,28.5724],[28.1361,28.5724],[27.9396,27.6081],[27.7891,27.6081],[27.8614,27.5438],[27.7091,25.6793]],[[35.4529,31.4008],[35.4585,31.4916],[35.4587,31.4916],[35.4593,31.4958],[35.4529,31.4008]],[[35.552,32.3679],[35.5533,32.3691],[35.5656,32.3134],[35.552,32.3679]],[[35.5568,32.3724],[35.5594,32.3748],[35.5656,32.3679],[35.5568,32.3724]],[[35.5585,32.5191],[35.5614,32.5192],[35.5674,32.5102],[35.5585,32.5191]],[[35.5594,32.4704],[35.5626,32.4747],[35.5725,32.4567],[35.5594,32.4704]],[[35.5688,32.4829],[35.5778,32.4948],[35.58,32.4915],[35.5688,32.4829]],[[35.7716,32.7467],[35.7749,32.7473],[35.7882,32.7344],[35.7716,32.7467]],[[36.2318,33.8525],[36.3178,33.8272],[36.3006,33.8287],[36.2318,33.8525]],[[36.2672,33.9104],[36.2886,33.9465],[36.2691,33.9073],[36.2672,33.9104]],[[36.2699,33.906],[36.3111,33.872],[36.2753,33.8972],[36.2699,33.906]],[[36.6896,32.3197],[36.7069,32.3283],[36.7231,32.3266],[36.6896,32.3197]]],[[[30.1795,31.2714],[30.1849,31.2719],[30.1795,31.2719],[30.1795,31.2714]]],[[[30.2409,31.2653],[30.2648,31.2719],[30.2479,31.2719],[30.2409,31.2653]]],[[[30.9691,31.5785],[30.9739,31.5799],[30.9739,31.5867],[30.9695,31.5854],[30.9691,31.5785]]],[[[30.978,31.5843],[31.119,31.5305],[31.1608,31.5935],[30.978,31.5843]]],[[[33.1811,21.9954],[33.2198,21.9662],[33.2322,21.9954],[33.1811,21.9954]]],[[[33.9551,26.79],[34.0036,26.7082],[34.0029,26.7316],[33.9756,26.79],[33.9551,26.79]]],[[[34.2319,27.7697],[34.2509,27.7642],[34.2573,27.7695],[34.2319,27.7697]]]]}},{"type":"Feature","properties":{"territoryId":"cliopatria-q128938-8ea5fa90fd","name":"Shang Dynasty","name_ko":"상나라","color":"#4b9bdd","colorFamily":0,"startYear":-1599,"endYear":-1240,"source_name":"Cliopatria v0.2.0","source_url":"https://github.com/Seshat-Global-History-Databank/cliopatria","license":"CC BY 4.0","attribution":"Seshat Global History Databank, Cliopatria contributors"},"geometry":{"type":"Polygon","coordinates":[[[110.0746,35.0653],[110.8206,35.001],[111.1047,35.1297],[112.4712,35.2584],[114.3759,35.194],[114.8348,35.001],[114.8542,34.6793],[115.1089,34.5506],[115.183,34.3577],[115.4378,34.229],[116.0032,34.2933],[116.4234,34.7436],[117.0519,35.1297],[117.0586,35.3227],[117.2696,35.4514],[117.7117,36.0952],[118.3065,36.546],[118.4572,36.8682],[118.3151,37.0615],[116.8151,37.5128],[116.8459,37.5773],[116.5646,37.6417],[116.4704,37.7707],[116.3923,37.7707],[116.2827,38.0288],[116.1262,38.0288],[116.0326,38.1578],[116.0959,38.2869],[115.6335,38.9326],[115.0836,38.9326],[114.3889,38.4806],[114.2491,38.0288],[114.3273,38.0288],[113.9761,37.4483],[113.7888,36.8682],[113.2981,36.2884],[111.5228,35.5802],[110.8771,35.5158],[110.6693,35.3871],[110.5411,35.4514],[110.0746,35.0653]]]}}]}
