{"type":"FeatureCollection","features":[{"type":"Feature","properties":{"territoryId":"cliopatria-q41137-f5e3aefc73","name":"Assyria","name_ko":"아시리아","color":"#e13378","colorFamily":3,"startYear":-1699,"endYear":-1500,"source_name":"Cliopatria v0.2.0","source_url":"https://github.com/Seshat-Global-History-Databank/cliopatria","license":"CC BY 4.0","attribution":"Seshat Global History Databank, Cliopatria contributors"},"geometry":{"type":"MultiPolygon","coordinates":[[[[42.4328,35.0653],[42.4364,34.4863],[42.7283,34.3577],[42.8904,34.422],[42.9187,34.0361],[43.1251,33.8432],[43.2788,33.8432],[43.477,33.5859],[44.0748,33.4574],[44.1352,33.3288],[44.2119,33.3288],[44.3735,33.3931],[44.4231,33.7789],[44.4999,33.7789],[44.3714,33.9718],[44.3967,34.1647],[45.6277,34.1647],[45.6542,34.3577],[45.509,34.422],[45.5356,34.615],[45.7669,34.615],[45.7168,34.8079],[45.8801,34.8723],[45.8984,35.001],[45.5396,35.194],[45.5488,35.2584],[45.1489,35.7089],[45.1673,35.8377],[44.6026,36.224],[44.6211,36.3528],[44.3975,36.4172],[44.3571,36.6749],[44.2793,36.6749],[43.6029,36.2884],[43.4121,36.0308],[43.4456,35.7089],[43.1273,35.6445],[42.861,35.3871],[42.8961,35.0653],[42.4328,35.0653]]],[[[27.5202,40.9874],[27.5242,40.9892],[27.6005,40.9976],[27.601,41.0032],[27.5216,41.0032],[27.5202,40.9874]]],[[[27.601,41.0032],[27.7604,41.0097],[27.7657,41.068],[27.6069,41.068],[27.601,41.0032]]]]}},{"type":"Feature","properties":{"territoryId":"cliopatria-q47690-5e1dd28d70","name":"Babylonia","name_ko":"바빌로니아","color":"#758ff0","colorFamily":0,"startYear":-1699,"endYear":-1600,"source_name":"Cliopatria v0.2.0","source_url":"https://github.com/Seshat-Global-History-Databank/cliopatria","license":"CC BY 4.0","attribution":"Seshat Global History Databank, Cliopatria contributors"},"geometry":{"type":"Polygon","coordinates":[[[43.4202,32.4931],[44.459,31.5933],[44.5814,31.3362],[44.9546,31.2719],[45.7705,30.4364],[46.5906,30.3079],[46.6205,30.565],[47.4792,30.7578],[47.4871,30.822],[48.2552,30.8863],[49.1429,30.6935],[48.7442,31.1434],[48.592,31.1434],[48.2528,31.4647],[48.1516,32.4288],[47.931,32.4931],[47.966,32.7502],[47.6185,33.0073],[47.6362,33.1359],[47.5596,33.1359],[46.7515,33.3931],[46.6923,33.5217],[46.7868,33.6502],[46.6332,33.6502],[46.6421,33.7146],[46.2845,33.9075],[46.3792,34.0361],[45.6189,34.1004],[45.6277,34.1647],[44.3967,34.1647],[44.3714,33.9718],[44.4999,33.7789],[44.4231,33.7789],[44.3735,33.3931],[44.2119,33.3288],[44.2038,33.2645],[43.9738,33.2645],[43.8811,33.1359],[44.103,33.0716],[44.2163,32.7502],[43.918,32.8145],[43.8258,32.6859],[43.4356,32.6216],[43.4202,32.4931]]]}},{"type":"Feature","properties":{"territoryId":"cliopatria-q47690-5e1dd28d70","name":"Babylonia","name_ko":"바빌로니아","color":"#758ff0","colorFamily":0,"startYear":-1599,"endYear":-1500,"source_name":"Cliopatria v0.2.0","source_url":"https://github.com/Seshat-Global-History-Databank/cliopatria","license":"CC BY 4.0","attribution":"Seshat Global History Databank, Cliopatria contributors"},"geometry":{"type":"Polygon","coordinates":[[[43.4202,32.4931],[44.459,31.5933],[44.5814,31.3362],[44.9546,31.2719],[45.7705,30.4364],[46.5906,30.3079],[46.6205,30.565],[47.799,30.8863],[48.0951,30.822],[48.1031,30.8863],[49.1429,30.6935],[48.7442,31.1434],[48.592,31.1434],[48.2528,31.4647],[48.1516,32.4288],[47.931,32.4931],[47.966,32.7502],[47.6185,33.0073],[47.6362,33.1359],[47.5596,33.1359],[46.7515,33.3931],[46.6923,33.5217],[46.7868,33.6502],[46.6332,33.6502],[46.6421,33.7146],[46.2845,33.9075],[46.3792,34.0361],[45.6189,34.1004],[45.6277,34.1647],[44.3967,34.1647],[44.3714,33.9718],[44.4999,33.7789],[44.4231,33.7789],[44.3735,33.3931],[44.2119,33.3288],[44.2038,33.2645],[43.9738,33.2645],[43.8811,33.1359],[44.103,33.0716],[44.2163,32.7502],[43.918,32.8145],[43.8258,32.6859],[43.4356,32.6216],[43.4202,32.4931]]]}},{"type":"Feature","properties":{"territoryId":"cliopatria-q128904-1175fc4c43","name":"Elam","name_ko":"엘람","color":"#f0b875","colorFamily":1,"startYear":-1759,"endYear":-1600,"source_name":"Cliopatria v0.2.0","source_url":"https://github.com/Seshat-Global-History-Databank/cliopatria","license":"CC BY 4.0","attribution":"Seshat Global History Databank, Cliopatria contributors"},"geometry":{"type":"MultiPolygon","coordinates":[[[[47.6185,33.0073],[47.966,32.7502],[47.931,32.4931],[48.1516,32.4288],[48.2528,31.4647],[48.592,31.1434],[48.7442,31.1434],[49.1429,30.6935],[49.1348,30.6292],[49.2867,30.6292],[49.1267,30.565],[49.134,30.4975],[49.1668,30.5088],[49.1682,30.477],[49.2112,30.5063],[49.224,30.4673],[49.3464,30.5007],[50.0734,30.1957],[50.1277,30.1207],[50.1613,29.9263],[50.2438,29.8668],[50.397,29.6547],[50.4561,29.6341],[50.6553,29.4491],[50.6615,29.3188],[50.6895,29.2908],[50.6826,29.2431],[50.6675,29.2573],[50.6358,29.2077],[50.6435,29.1458],[50.8403,29.1406],[50.8508,29.1055],[50.915,29.0867],[50.929,29.0097],[50.8887,28.9414],[50.867,28.9702],[50.8345,28.8914],[50.8762,28.832],[50.9787,28.8166],[51.0588,28.7359],[51.0725,28.5653],[51.1092,28.472],[51.5567,28.7652],[51.8588,28.7652],[51.882,28.9581],[52.208,29.1509],[52.2402,29.4081],[51.7083,29.9865],[51.7251,30.1151],[51.5143,30.2436],[51.4724,30.5007],[51.1012,30.565],[50.9663,30.6935],[50.9835,30.822],[50.7052,31.0148],[50.7225,31.1434],[50.3856,31.4647],[50.4795,31.5933],[50.1659,31.529],[50.2864,31.8503],[50.0171,32.1074],[50.0352,32.236],[49.8241,32.3645],[49.8515,32.5574],[49.7169,32.6859],[49.2488,32.6216],[49.2761,32.8145],[49.0464,32.8145],[48.9881,32.943],[48.6818,32.943],[48.5467,33.0716],[47.6362,33.1359],[47.6185,33.0073]]],[[[50.4618,31.4647],[50.538,31.4647],[50.5468,31.529],[50.4706,31.529],[50.4618,31.4647]]]]}},{"type":"Feature","properties":{"territoryId":"cliopatria-q128904-1175fc4c43","name":"Elam","name_ko":"엘람","color":"#f0b875","colorFamily":1,"startYear":-1599,"endYear":-1400,"source_name":"Cliopatria v0.2.0","source_url":"https://github.com/Seshat-Global-History-Databank/cliopatria","license":"CC BY 4.0","attribution":"Seshat Global History Databank, Cliopatria contributors"},"geometry":{"type":"MultiPolygon","coordinates":[[[[47.6185,33.0073],[47.966,32.7502],[47.931,32.4931],[48.1516,32.4288],[48.2528,31.4647],[48.592,31.1434],[48.7442,31.1434],[49.1429,30.6935],[49.1348,30.6292],[49.2867,30.6292],[49.1267,30.565],[49.134,30.4975],[49.1668,30.5088],[49.1682,30.477],[49.2112,30.5063],[49.224,30.4673],[49.3464,30.5007],[50.0734,30.1957],[50.1277,30.1207],[50.1613,29.9263],[50.2438,29.8668],[50.397,29.6547],[50.4561,29.6341],[50.6553,29.4491],[50.6615,29.3188],[50.6895,29.2908],[50.6826,29.2431],[50.6675,29.2573],[50.6358,29.2077],[50.6435,29.1458],[50.8403,29.1406],[50.8508,29.1055],[50.915,29.0867],[50.929,29.0097],[50.8887,28.9414],[50.867,28.9702],[50.8345,28.8914],[50.8762,28.832],[50.9787,28.8166],[51.0588,28.7359],[51.0725,28.5653],[51.1092,28.472],[51.5567,28.7652],[51.8588,28.7652],[51.882,28.9581],[52.208,29.1509],[52.2402,29.4081],[51.7083,29.9865],[51.7251,30.1151],[51.5143,30.2436],[51.4724,30.5007],[51.1012,30.565],[50.9663,30.6935],[50.9835,30.822],[50.7052,31.0148],[50.7225,31.1434],[50.3856,31.4647],[50.4795,31.5933],[50.1659,31.529],[50.2864,31.8503],[50.0171,32.1074],[50.0352,32.236],[49.8241,32.3645],[49.8515,32.5574],[49.7169,32.6859],[49.2488,32.6216],[49.2761,32.8145],[49.0464,32.8145],[48.9881,32.943],[48.6818,32.943],[48.5467,33.0716],[47.6362,33.1359],[47.6185,33.0073]]],[[[50.4618,31.4647],[50.538,31.4647],[50.5468,31.529],[50.4706,31.529],[50.4618,31.4647]]]]}},{"type":"Feature","properties":{"territoryId":"cliopatria-q728479-104edbb4f4","name":"Fifteenth Dynasty of Egypt","name_ko":"이집트 제15왕조","color":"#2c3fe8","colorFamily":0,"startYear":-1599,"endYear":-1500,"source_name":"Cliopatria v0.2.0","source_url":"https://github.com/Seshat-Global-History-Databank/cliopatria","license":"CC BY 4.0","attribution":"Seshat Global History Databank, Cliopatria contributors"},"geometry":{"type":"MultiPolygon","coordinates":[[[[29.4972,30.9456],[29.5026,30.5028],[30.1157,30.0669],[30.3751,29.7202],[30.3853,29.4221],[30.0292,29.186],[29.946,28.915],[30.0521,28.7733],[30.4484,28.7109],[30.6001,27.6594],[31.0031,27.6581],[30.9309,28.0335],[31.0018,28.51],[31.3284,29.2323],[30.8835,29.2329],[30.6264,29.366],[30.8062,29.6776],[30.931,30.2896],[30.6571,30.0869],[30.8067,30.7964],[30.9497,30.8633],[31.0532,31.1828],[31.4337,31.2459],[31.5253,31.4478],[31.0983,31.6017],[30.9823,31.5842],[31.1111,31.5397],[31.1265,31.4967],[30.9807,31.4365],[30.7344,31.3881],[30.5427,31.4024],[30.9561,31.5757],[30.5358,31.4639],[30.4564,31.4627],[30.3602,31.5034],[30.4288,31.4316],[30.3544,31.4483],[30.2897,31.2374],[30.2536,31.2507],[30.1652,31.2168],[30.1401,31.2372],[30.1726,31.2714],[30.0949,31.2856],[30.0644,31.3203],[29.4972,30.9456]]],[[[30.1795,31.2714],[30.1937,31.2727],[30.1795,31.2779],[30.1795,31.2714]]]]}},{"type":"Feature","properties":{"territoryId":"cliopatria-q7440601-72a9dabb1a","name":"First Sealand Dynasty","name_ko":"제1 해양왕조","color":"#7ee7d6","colorFamily":2,"startYear":-1699,"endYear":-1600,"source_name":"Cliopatria v0.2.0","source_url":"https://github.com/Seshat-Global-History-Databank/cliopatria","license":"CC BY 4.0","attribution":"Seshat Global History Databank, Cliopatria contributors"},"geometry":{"type":"Polygon","coordinates":[[[46.5832,30.2436],[46.6151,29.858],[46.8497,29.9223],[47.0552,29.7294],[47.1455,29.858],[47.1529,29.9223],[47.4709,30.0508],[47.4101,30.1794],[47.4935,30.2436],[48.1237,30.4364],[48.0635,30.565],[47.4482,30.5007],[47.4792,30.7578],[46.6205,30.565],[46.5832,30.2436]]]}},{"type":"Feature","properties":{"territoryId":"cliopatria-q7440601-72a9dabb1a","name":"First Sealand Dynasty","name_ko":"제1 해양왕조","color":"#7ee7d6","colorFamily":2,"startYear":-1599,"endYear":-1500,"source_name":"Cliopatria v0.2.0","source_url":"https://github.com/Seshat-Global-History-Databank/cliopatria","license":"CC BY 4.0","attribution":"Seshat Global History Databank, Cliopatria contributors"},"geometry":{"type":"Polygon","coordinates":[[[46.5832,30.2436],[46.6151,29.858],[46.994,29.858],[46.9794,29.7294],[47.3655,29.7937],[47.6226,30.0508],[47.85,30.0508],[47.8652,30.1794],[48.1841,30.3079],[48.1996,30.4364],[48.0556,30.5007],[48.0951,30.822],[47.799,30.8863],[46.6205,30.565],[46.5832,30.2436]],[[48.1351,30.4429],[48.1409,30.4419],[48.1705,30.4067],[48.1351,30.4429]]]}},{"type":"Feature","properties":{"territoryId":"cliopatria-q5406-15e349ca3a","name":"Hittites","name_ko":"히타이트","color":"#33e1c7","colorFamily":2,"startYear":-1599,"endYear":-1500,"source_name":"Cliopatria v0.2.0","source_url":"https://github.com/Seshat-Global-History-Databank/cliopatria","license":"CC BY 4.0","attribution":"Seshat Global History Databank, Cliopatria contributors"},"geometry":{"type":"Polygon","coordinates":[[[34.111,39.7083],[34.1671,39.5143],[34.6321,39.4496],[34.7819,39.385],[34.8378,39.1911],[34.995,39.1911],[34.9647,38.9326],[35.1142,38.868],[35.0059,38.6097],[35.0474,38.2869],[35.275,38.2224],[35.3096,37.8352],[35.544,37.8352],[35.6857,37.7062],[35.862,37.1904],[36.0178,37.1904],[35.9964,36.9971],[36.4635,36.9971],[36.578,37.3193],[36.8119,37.3193],[36.9829,37.4483],[37.1162,37.2549],[37.763,37.4483],[37.7943,37.7062],[37.646,37.7707],[37.8342,38.0288],[37.7964,38.3515],[37.4371,38.6097],[37.2802,38.6097],[37.3832,38.8034],[36.9907,38.8034],[37.0151,38.9972],[36.8039,39.1911],[36.8121,39.2557],[36.1446,39.5789],[36.0363,39.967],[35.9574,39.967],[35.9824,40.1612],[35.579,40.0964],[35.5248,40.2906],[35.1294,40.2906],[35.097,40.0317],[34.789,40.0964],[34.111,39.7083]]]}},{"type":"Feature","properties":{"territoryId":"cliopatria-q192319-7b7e1e3feb","name":"Hyksos","name_ko":"힉소스","color":"#4bdd99","colorFamily":2,"startYear":-1699,"endYear":-1600,"source_name":"Cliopatria v0.2.0","source_url":"https://github.com/Seshat-Global-History-Databank/cliopatria","license":"CC BY 4.0","attribution":"Seshat Global History Databank, Cliopatria contributors"},"geometry":{"type":"MultiPolygon","coordinates":[[[[32.6854,31.0449],[32.9832,30.4038],[33.2431,30.1152],[34.7711,29.4997],[34.8366,29.5007],[34.8478,29.7408],[34.4901,30.689],[34.7174,30.996],[35.066,30.9843],[35.3792,30.7065],[35.6848,30.6341],[36.2275,30.8757],[36.9243,33.9681],[36.3512,34.5007],[36.4593,34.6304],[36.1799,34.7809],[36.1132,35.2655],[35.9268,35.316],[35.9624,35.1979],[35.9018,35.1257],[35.875,34.9121],[35.9896,34.5997],[35.9836,34.5275],[35.6529,34.2841],[35.6409,33.9994],[35.572,33.91],[35.4753,33.9018],[35.4813,33.8237],[35.3491,33.5139],[35.3137,33.4884],[35.1564,33.0858],[35.1853,33.084],[35.1562,33.0852],[35.0628,32.8583],[35.0277,32.8266],[34.9532,32.8234],[34.8377,32.2807],[34.757,32.0666],[34.6096,31.7655],[34.4826,31.5831],[34.2003,31.3143],[33.9319,31.1822],[33.1333,31.0456],[33.0986,31.1867],[32.9544,31.1069],[33.0303,31.1008],[33.0643,31.1349],[33.0099,31.0563],[32.9613,31.066],[32.9688,31.0865],[32.9271,31.1118],[32.9409,31.0933],[32.9067,31.0797],[32.8931,31.1008],[32.7695,31.0456],[32.6854,31.0449]],[[35.4529,31.4008],[35.4585,31.4916],[35.4587,31.4916],[35.4593,31.4958],[35.4529,31.4008]],[[35.552,32.3679],[35.5533,32.3691],[35.5656,32.3134],[35.552,32.3679]],[[35.5568,32.3724],[35.5594,32.3748],[35.5656,32.3679],[35.5568,32.3724]],[[35.5585,32.5191],[35.5614,32.5192],[35.5674,32.5102],[35.5585,32.5191]],[[35.5594,32.4704],[35.5626,32.4747],[35.5725,32.4567],[35.5594,32.4704]],[[35.5688,32.4829],[35.5778,32.4948],[35.58,32.4915],[35.5688,32.4829]],[[35.7716,32.7467],[35.7749,32.7473],[35.7882,32.7344],[35.7716,32.7467]],[[36.2318,33.8525],[36.3178,33.8272],[36.3006,33.8287],[36.2318,33.8525]],[[36.2672,33.9104],[36.2886,33.9465],[36.2691,33.9073],[36.2672,33.9104]],[[36.2699,33.906],[36.3111,33.872],[36.2753,33.8972],[36.2699,33.906]]],[[[32.9697,31.0866],[32.9785,31.0817],[32.9893,31.0734],[32.9831,31.0899],[32.9697,31.0866]]],[[[33.1069,31.1895],[33.1162,31.1895],[33.1156,31.1925],[33.1069,31.1895]]],[[[33.1948,31.066],[33.1956,31.0665],[33.1948,31.0663],[33.1948,31.066]]]]}},{"type":"Feature","properties":{"territoryId":"cliopatria-q192319-7b7e1e3feb","name":"Hyksos","name_ko":"힉소스","color":"#4bdd99","colorFamily":2,"startYear":-1599,"endYear":-1500,"source_name":"Cliopatria v0.2.0","source_url":"https://github.com/Seshat-Global-History-Databank/cliopatria","license":"CC BY 4.0","attribution":"Seshat Global History Databank, Cliopatria contributors"},"geometry":{"type":"MultiPolygon","coordinates":[[[[30.6264,29.366],[30.8835,29.2329],[31.4598,29.2321],[31.4306,29.4251],[31.6178,30.4454],[32.8604,30.5064],[32.8453,30.0762],[32.579,29.9213],[32.6253,29.8743],[32.6125,29.8188],[32.6907,29.7336],[32.6824,29.6214],[32.7415,29.456],[32.8172,29.414],[32.8173,29.3737],[33.1779,28.9896],[33.2562,28.5441],[33.4339,28.3664],[33.5647,28.2971],[33.7634,28.024],[34.2555,27.7302],[34.2573,27.7695],[34.2141,27.7915],[34.2717,27.8124],[34.3313,27.9141],[34.4303,27.9802],[34.4092,28.3187],[34.7366,29.3113],[34.8597,29.4722],[34.9027,29.49],[34.4901,30.689],[34.7174,30.996],[35.066,30.9843],[35.3792,30.7065],[35.6848,30.6341],[36.2275,30.8757],[36.9243,33.9681],[36.3512,34.5007],[36.4593,34.6304],[36.1799,34.7809],[36.1132,35.2655],[35.9252,35.3121],[35.9624,35.1979],[35.9018,35.1257],[35.875,34.9121],[35.9896,34.5997],[35.9836,34.5275],[35.6529,34.2841],[35.6409,33.9994],[35.572,33.91],[35.4753,33.9018],[35.4813,33.8237],[35.3491,33.5139],[35.3137,33.4884],[35.1564,33.0858],[35.1853,33.084],[35.1562,33.0852],[35.0628,32.8583],[35.0277,32.8266],[34.9532,32.8234],[34.8377,32.2807],[34.7119,31.9516],[34.4812,31.5831],[34.3484,31.4376],[34.2097,31.3165],[33.8543,31.1635],[33.1333,31.0456],[33.0986,31.1858],[32.9544,31.1069],[33.0303,31.1008],[33.0643,31.1349],[33.0099,31.0563],[32.9613,31.066],[32.9688,31.0865],[32.9271,31.1118],[32.9409,31.0933],[32.9172,31.0828],[32.8931,31.1008],[32.7118,31.0335],[32.5657,31.0705],[32.3806,31.2164],[32.3219,31.0237],[31.8507,30.6583],[31.4988,30.5996],[31.4104,30.4412],[30.931,30.2896],[30.8062,29.6776],[30.6264,29.366]],[[35.4529,31.4008],[35.4585,31.4916],[35.4587,31.4916],[35.4593,31.4958],[35.4529,31.4008]],[[35.552,32.3679],[35.5533,32.3691],[35.5656,32.3134],[35.552,32.3679]],[[35.5568,32.3724],[35.5594,32.3748],[35.5656,32.3679],[35.5568,32.3724]],[[35.5585,32.5191],[35.5614,32.5192],[35.5674,32.5102],[35.5585,32.5191]],[[35.5594,32.4704],[35.5626,32.4747],[35.5725,32.4567],[35.5594,32.4704]],[[35.5688,32.4829],[35.5778,32.4948],[35.58,32.4915],[35.5688,32.4829]],[[35.7716,32.7467],[35.7749,32.7473],[35.7882,32.7344],[35.7716,32.7467]],[[36.2318,33.8525],[36.3178,33.8272],[36.3006,33.8287],[36.2318,33.8525]],[[36.2672,33.9104],[36.2886,33.9465],[36.2691,33.9073],[36.2672,33.9104]],[[36.2699,33.906],[36.3111,33.872],[36.2753,33.8972],[36.2699,33.906]]],[[[32.9697,31.0866],[32.9785,31.0817],[32.9893,31.0734],[32.9831,31.0899],[32.9697,31.0866]]],[[[33.108,31.1895],[33.1162,31.1895],[33.1156,31.1925],[33.108,31.1895]]],[[[33.2414,28.5631],[33.2418,28.5609],[33.2562,28.5516],[33.2414,28.5631]]]]}},{"type":"Feature","properties":{"territoryId":"cliopatria-q191324-5f57503a4c","name":"Middle Kingdom of Egypt","name_ko":"이집트 중왕국","color":"#3a7fd9","colorFamily":0,"startYear":-1699,"endYear":-1600,"source_name":"Cliopatria v0.2.0","source_url":"https://github.com/Seshat-Global-History-Databank/cliopatria","license":"CC BY 4.0","attribution":"Seshat Global History Databank, Cliopatria contributors"},"geometry":{"type":"MultiPolygon","coordinates":[[[[27.673,25.6644],[28.1466,24.9457],[28.6775,24.534],[30.4522,24.0952],[31.0473,23.67],[31.4318,23.1901],[31.3754,22.7786],[30.6551,21.5718],[31.1903,21.4196],[31.4722,21.7719],[31.7627,21.9954],[31.4355,21.9954],[31.7627,21.9954],[32.2652,22.3821],[33.2244,22.3506],[33.3634,24.3951],[33.0765,25.1185],[32.8233,25.3512],[33.0301,25.8851],[34.015,26.1374],[34.1918,26.2744],[33.9383,26.6553],[33.8287,27.2553],[33.6917,27.3419],[33.4947,27.6439],[33.5238,27.7521],[33.4735,27.8232],[33.5424,27.8215],[33.5589,27.8831],[33.2494,28.1429],[33.0029,28.4895],[32.8689,28.5789],[32.814,28.7553],[32.6187,28.984],[32.5873,29.3496],[32.3377,29.5925],[32.4776,29.9368],[32.5778,30.0114],[32.7415,29.456],[33.1779,28.9896],[33.2562,28.5441],[33.5647,28.2971],[33.7634,28.024],[34.2555,27.7302],[34.2141,27.7915],[34.4303,27.9802],[34.4092,28.3187],[34.8366,29.5007],[33.2431,30.1152],[32.9832,30.4038],[32.6854,31.0449],[32.5657,31.0705],[32.2539,31.2818],[32.2798,31.1243],[32.1008,31.0872],[32.1198,31.0529],[32.044,31.0865],[32.0279,31.2157],[31.9264,31.187],[31.9063,31.2457],[31.7669,31.2847],[31.8751,31.4622],[31.8491,31.5125],[31.5569,31.4422],[31.1007,31.6014],[30.9824,31.5842],[31.1265,31.4967],[30.7344,31.3881],[30.5427,31.4024],[30.9561,31.5757],[30.5358,31.4639],[30.3602,31.5034],[30.3986,31.4433],[30.3528,31.4924],[30.2897,31.2374],[30.1652,31.2168],[30.1726,31.2714],[30.0644,31.3203],[29.6038,31.012],[29.18,30.8303],[29.0281,30.8271],[28.5004,31.051],[29.1191,29.8275],[29.5276,29.3133],[29.6728,29.2668],[29.6633,28.9649],[29.5575,28.5694],[29.1669,28.0805],[28.7018,27.9043],[27.8239,26.3297],[27.673,25.6644]]],[[[30.1795,31.2714],[30.1937,31.2727],[30.1795,31.2779],[30.1795,31.2714]]],[[[31.8592,31.5149],[31.8652,31.5123],[31.8652,31.5164],[31.8592,31.5149]]],[[[31.8773,31.5193],[31.8789,31.5185],[31.88,31.5199],[31.8773,31.5193]]],[[[31.9084,31.5267],[31.9091,31.5265],[31.9094,31.527],[31.9084,31.5267]]],[[[31.9094,31.527],[31.91,31.5271],[31.9097,31.5276],[31.9094,31.527]]],[[[31.91,31.5271],[32.014,31.385],[32.197,31.2956],[31.91,31.5271]]],[[[33.2414,28.5631],[33.2418,28.5609],[33.2562,28.5516],[33.2414,28.5631]]]]}},{"type":"Feature","properties":{"territoryId":"cliopatria-q134178-729c0e203f","name":"Minoan civilization","name_ko":"미노스 문명","color":"#7eb6e7","colorFamily":0,"startYear":-1599,"endYear":-1500,"source_name":"Cliopatria v0.2.0","source_url":"https://github.com/Seshat-Global-History-Databank/cliopatria","license":"CC BY 4.0","attribution":"Seshat Global History Databank, Cliopatria contributors"},"geometry":{"type":"Polygon","coordinates":[[[23.6154,35.5158],[23.6792,35.2584],[24.5257,35.194],[24.7574,35.194],[24.8237,35.001],[26.1401,35.0653],[26.2253,35.194],[25.8469,35.1493],[25.8303,35.1224],[25.7953,35.1151],[25.7532,35.1331],[25.6806,35.1297],[25.6923,35.3227],[25.5603,35.3227],[25.4536,35.2941],[25.3991,35.3227],[24.301,35.3227],[24.1499,35.3871],[24.1541,35.465],[24.0669,35.507],[24.1569,35.5158],[23.7193,35.5158],[23.6594,35.5012],[23.6154,35.5158]]]}},{"type":"Feature","properties":{"territoryId":"cliopatria-q642301-5bf37c3a8a","name":"Seventeenth Dynasty of Egypt","name_ko":"이집트 제17왕조","color":"#ddc44b","colorFamily":1,"startYear":-1599,"endYear":-1500,"source_name":"Cliopatria v0.2.0","source_url":"https://github.com/Seshat-Global-History-Databank/cliopatria","license":"CC BY 4.0","attribution":"Seshat Global History Databank, Cliopatria contributors"},"geometry":{"type":"Polygon","coordinates":[[[30.6001,27.6594],[30.6362,27.3775],[31.6196,26.4347],[31.8476,25.9444],[32.5433,25.8929],[32.3806,25.5529],[32.7517,24.1256],[33.354,24.0749],[33.3634,24.3951],[33.0765,25.1185],[32.8233,25.3512],[33.0301,25.8851],[32.9364,26.2476],[32.5881,26.4545],[33.072,26.7324],[33.9453,26.6488],[33.9435,26.9357],[33.8315,27.1306],[31.7536,26.8865],[30.9838,27.4647],[30.965,27.6624],[30.6001,27.6594]]]}},{"type":"Feature","properties":{"territoryId":"cliopatria-q128938-8ea5fa90fd","name":"Shang Dynasty","name_ko":"상나라","color":"#4b9bdd","colorFamily":0,"startYear":-1599,"endYear":-1240,"source_name":"Cliopatria v0.2.0","source_url":"https://github.com/Seshat-Global-History-Databank/cliopatria","license":"CC BY 4.0","attribution":"Seshat Global History Databank, Cliopatria contributors"},"geometry":{"type":"Polygon","coordinates":[[[110.0746,35.0653],[110.8206,35.001],[111.1047,35.1297],[112.4712,35.2584],[114.3759,35.194],[114.8348,35.001],[114.8542,34.6793],[115.1089,34.5506],[115.183,34.3577],[115.4378,34.229],[116.0032,34.2933],[116.4234,34.7436],[117.0519,35.1297],[117.0586,35.3227],[117.2696,35.4514],[117.7117,36.0952],[118.3065,36.546],[118.4572,36.8682],[118.3151,37.0615],[116.8151,37.5128],[116.8459,37.5773],[116.5646,37.6417],[116.4704,37.7707],[116.3923,37.7707],[116.2827,38.0288],[116.1262,38.0288],[116.0326,38.1578],[116.0959,38.2869],[115.6335,38.9326],[115.0836,38.9326],[114.3889,38.4806],[114.2491,38.0288],[114.3273,38.0288],[113.9761,37.4483],[113.7888,36.8682],[113.2981,36.2884],[111.5228,35.5802],[110.8771,35.5158],[110.6693,35.3871],[110.5411,35.4514],[110.0746,35.0653]]]}},{"type":"Feature","properties":{"territoryId":"cliopatria-q737695-69ae5658c7","name":"Sixteenth Dynasty of Egypt","name_ko":"이집트 제16왕조","color":"#d9d73a","colorFamily":1,"startYear":-1599,"endYear":-1500,"source_name":"Cliopatria v0.2.0","source_url":"https://github.com/Seshat-Global-History-Databank/cliopatria","license":"CC BY 4.0","attribution":"Seshat Global History Databank, Cliopatria contributors"},"geometry":{"type":"MultiPolygon","coordinates":[[[[31.4306,29.4251],[31.4598,29.2321],[32.5728,29.3697],[32.3377,29.5925],[32.4776,29.9368],[32.5617,29.9663],[32.5778,30.0114],[32.5691,29.9689],[32.8453,30.0762],[32.8604,30.5064],[31.6178,30.4454],[31.4306,29.4251]]],[[[30.6571,30.0869],[30.931,30.2896],[31.4104,30.4412],[31.4988,30.5996],[31.8507,30.6583],[32.3219,31.0237],[32.3806,31.2164],[32.3296,31.2693],[32.2485,31.2786],[32.283,31.2653],[32.2951,31.2134],[32.2898,31.1696],[32.2625,31.1696],[32.2798,31.1243],[32.1431,31.0742],[32.098,31.0933],[32.1198,31.0529],[32.044,31.0865],[32.0635,31.1185],[31.7669,31.2847],[31.8547,31.4235],[31.8584,31.4433],[31.8242,31.4433],[31.8751,31.4621],[31.8492,31.513],[31.5253,31.4478],[31.4337,31.2459],[31.0532,31.1828],[30.9497,30.8633],[30.8067,30.7964],[30.6571,30.0869]]],[[[31.859,31.515],[31.8652,31.5123],[31.8652,31.5162],[31.859,31.515]]],[[[31.8782,31.5188],[31.8789,31.5185],[31.8793,31.5191],[31.8782,31.5188]]],[[[32.2148,31.2824],[32.2165,31.2784],[32.2436,31.2791],[32.2148,31.2824]]],[[[31.9212,31.5203],[32.014,31.385],[32.197,31.2956],[32.0249,31.4001],[31.9212,31.5203]]]]}}]}
