{"type":"FeatureCollection","features":[{"type":"Feature","properties":{"territoryId":"cliopatria-q41137-f5e3aefc73","name":"Assyria","name_ko":"아시리아","color":"#e13378","colorFamily":3,"startYear":-1759,"endYear":-1700,"source_name":"Cliopatria v0.2.0","source_url":"https://github.com/Seshat-Global-History-Databank/cliopatria","license":"CC BY 4.0","attribution":"Seshat Global History Databank, Cliopatria contributors"},"geometry":{"type":"MultiPolygon","coordinates":[[[[42.8356,35.194],[42.9129,35.194],[42.8877,35.001],[43.4451,35.1297],[43.8741,34.8723],[44.2512,34.8079],[44.5164,34.4863],[44.6705,34.4863],[44.842,34.615],[44.972,35.001],[44.6037,35.1297],[44.6987,35.2584],[44.8301,35.6445],[44.7025,35.8377],[45.0124,35.8377],[45.0309,35.9664],[44.6026,36.224],[44.6211,36.3528],[44.3975,36.4172],[44.3571,36.6749],[44.2793,36.6749],[43.6029,36.2884],[43.4121,36.0308],[43.4456,35.7089],[42.9553,35.5158],[42.8356,35.194]]],[[[27.5202,40.9874],[27.5242,40.9892],[27.6005,40.9976],[27.601,41.0032],[27.5216,41.0032],[27.5202,40.9874]]],[[[27.601,41.0032],[27.7604,41.0097],[27.7657,41.068],[27.6069,41.068],[27.601,41.0032]]]]}},{"type":"Feature","properties":{"territoryId":"cliopatria-q47690-5e1dd28d70","name":"Babylonia","name_ko":"바빌로니아","color":"#758ff0","colorFamily":0,"startYear":-1759,"endYear":-1750,"source_name":"Cliopatria v0.2.0","source_url":"https://github.com/Seshat-Global-History-Databank/cliopatria","license":"CC BY 4.0","attribution":"Seshat Global History Databank, Cliopatria contributors"},"geometry":{"type":"Polygon","coordinates":[[[44.001,32.236],[44.3907,32.3002],[44.4438,32.1074],[44.6042,32.1717],[44.665,32.0431],[44.894,32.0431],[44.9097,32.1717],[45.0624,32.1717],[45.1993,32.0431],[45.1836,31.9146],[45.3968,31.7861],[45.305,31.6575],[45.4497,31.5933],[45.3812,31.0148],[45.7705,30.4364],[46.5906,30.3079],[46.6965,30.565],[47.2358,30.6292],[47.2513,30.7578],[47.799,30.8863],[49.1429,30.6935],[48.7442,31.1434],[48.592,31.1434],[48.2528,31.4647],[48.1516,32.4288],[47.931,32.4931],[47.966,32.7502],[47.6185,33.0073],[47.6362,33.1359],[47.4829,33.1359],[47.3474,33.2645],[46.7515,33.3931],[46.6923,33.5217],[46.7868,33.6502],[46.2845,33.9075],[46.3792,34.0361],[45.9266,34.1004],[45.8321,33.9718],[45.909,33.9718],[45.8827,33.7789],[45.7204,33.7146],[46.0611,33.3931],[45.7372,33.2645],[45.5503,33.0073],[45.0224,33.0716],[44.7487,33.3288],[44.5954,33.3288],[44.579,33.2002],[44.4256,33.2002],[44.1636,32.943],[44.2163,32.7502],[44.0632,32.7502],[44.0851,32.3002],[44.001,32.236]]]}},{"type":"Feature","properties":{"territoryId":"cliopatria-q47690-5e1dd28d70","name":"Babylonia","name_ko":"바빌로니아","color":"#758ff0","colorFamily":0,"startYear":-1749,"endYear":-1700,"source_name":"Cliopatria v0.2.0","source_url":"https://github.com/Seshat-Global-History-Databank/cliopatria","license":"CC BY 4.0","attribution":"Seshat Global History Databank, Cliopatria contributors"},"geometry":{"type":"Polygon","coordinates":[[[40.5181,34.5506],[40.7881,34.229],[42.0806,34.1004],[42.6325,33.5859],[42.7861,33.5859],[43.0615,33.3288],[43.2826,32.6216],[44.459,31.5933],[44.5814,31.3362],[44.9546,31.2719],[45.7705,30.4364],[46.5906,30.3079],[46.6965,30.565],[47.2358,30.6292],[47.2513,30.7578],[47.799,30.8863],[49.1429,30.6935],[48.7442,31.1434],[48.592,31.1434],[48.2528,31.4647],[48.1516,32.4288],[47.931,32.4931],[47.966,32.7502],[47.6185,33.0073],[47.6362,33.1359],[46.7515,33.3931],[46.6923,33.5217],[46.7868,33.6502],[46.2845,33.9075],[46.3792,34.0361],[46.0035,34.1004],[46.0162,34.7436],[45.7623,35.1297],[45.5396,35.194],[45.5488,35.2584],[45.3443,35.4514],[45.3627,35.5802],[45.1489,35.7089],[45.1673,35.8377],[44.6026,36.224],[44.6211,36.3528],[44.3975,36.4172],[44.3571,36.6749],[44.2793,36.6749],[43.6029,36.2884],[43.4121,36.0308],[43.4456,35.7089],[43.1273,35.6445],[42.861,35.3871],[42.8961,35.0653],[42.1158,35.001],[42.1766,34.8723],[41.86,34.8079],[41.7669,34.6793],[40.9959,34.6793],[40.7029,34.8079],[40.5181,34.5506]]]}},{"type":"Feature","properties":{"territoryId":"cliopatria-q128904-1175fc4c43","name":"Elam","name_ko":"엘람","color":"#f0b875","colorFamily":1,"startYear":-1759,"endYear":-1600,"source_name":"Cliopatria v0.2.0","source_url":"https://github.com/Seshat-Global-History-Databank/cliopatria","license":"CC BY 4.0","attribution":"Seshat Global History Databank, Cliopatria contributors"},"geometry":{"type":"MultiPolygon","coordinates":[[[[47.6185,33.0073],[47.966,32.7502],[47.931,32.4931],[48.1516,32.4288],[48.2528,31.4647],[48.592,31.1434],[48.7442,31.1434],[49.1429,30.6935],[49.1348,30.6292],[49.2867,30.6292],[49.1267,30.565],[49.134,30.4975],[49.1668,30.5088],[49.1682,30.477],[49.2112,30.5063],[49.224,30.4673],[49.3464,30.5007],[50.0734,30.1957],[50.1277,30.1207],[50.1613,29.9263],[50.2438,29.8668],[50.397,29.6547],[50.4561,29.6341],[50.6553,29.4491],[50.6615,29.3188],[50.6895,29.2908],[50.6826,29.2431],[50.6675,29.2573],[50.6358,29.2077],[50.6435,29.1458],[50.8403,29.1406],[50.8508,29.1055],[50.915,29.0867],[50.929,29.0097],[50.8887,28.9414],[50.867,28.9702],[50.8345,28.8914],[50.8762,28.832],[50.9787,28.8166],[51.0588,28.7359],[51.0725,28.5653],[51.1092,28.472],[51.5567,28.7652],[51.8588,28.7652],[51.882,28.9581],[52.208,29.1509],[52.2402,29.4081],[51.7083,29.9865],[51.7251,30.1151],[51.5143,30.2436],[51.4724,30.5007],[51.1012,30.565],[50.9663,30.6935],[50.9835,30.822],[50.7052,31.0148],[50.7225,31.1434],[50.3856,31.4647],[50.4795,31.5933],[50.1659,31.529],[50.2864,31.8503],[50.0171,32.1074],[50.0352,32.236],[49.8241,32.3645],[49.8515,32.5574],[49.7169,32.6859],[49.2488,32.6216],[49.2761,32.8145],[49.0464,32.8145],[48.9881,32.943],[48.6818,32.943],[48.5467,33.0716],[47.6362,33.1359],[47.6185,33.0073]]],[[[50.4618,31.4647],[50.538,31.4647],[50.5468,31.529],[50.4706,31.529],[50.4618,31.4647]]]]}},{"type":"Feature","properties":{"territoryId":"cliopatria-q192319-7b7e1e3feb","name":"Hyksos","name_ko":"힉소스","color":"#4bdd99","colorFamily":2,"startYear":-1799,"endYear":-1700,"source_name":"Cliopatria v0.2.0","source_url":"https://github.com/Seshat-Global-History-Databank/cliopatria","license":"CC BY 4.0","attribution":"Seshat Global History Databank, Cliopatria contributors"},"geometry":{"type":"MultiPolygon","coordinates":[[[[32.6854,31.0449],[32.9832,30.4038],[33.2431,30.1152],[34.7711,29.4997],[34.8366,29.5007],[34.8478,29.7408],[34.4901,30.689],[34.7174,30.996],[35.3446,30.987],[35.5554,31.7639],[35.552,32.3679],[35.5613,32.3327],[36.2051,33.8503],[36.374,33.8311],[36.2835,33.9109],[36.6237,34.205],[36.5258,34.4319],[36.3512,34.5007],[36.4593,34.6304],[36.1799,34.7809],[36.1132,35.2655],[35.9268,35.316],[35.9624,35.1979],[35.9018,35.1257],[35.875,34.9121],[35.9896,34.5997],[35.9836,34.5275],[35.6529,34.2841],[35.6409,33.9994],[35.572,33.91],[35.4753,33.9018],[35.4813,33.8237],[35.3491,33.5139],[35.3137,33.4884],[35.1564,33.0858],[35.1853,33.084],[35.1562,33.0852],[35.0628,32.8583],[35.0277,32.8266],[34.9532,32.8234],[34.8377,32.2807],[34.757,32.0666],[34.6096,31.7655],[34.4826,31.5831],[34.2003,31.3143],[33.9319,31.1822],[33.1333,31.0456],[33.0986,31.1867],[32.9544,31.1069],[33.0303,31.1008],[33.0643,31.1349],[33.0099,31.0563],[32.9613,31.066],[32.9688,31.0865],[32.9271,31.1118],[32.9409,31.0933],[32.9067,31.0797],[32.8931,31.1008],[32.7695,31.0456],[32.6854,31.0449]],[[35.4529,31.4008],[35.4585,31.4916],[35.4587,31.4916],[35.4593,31.4958],[35.4529,31.4008]],[[35.5568,32.3724],[35.5594,32.3748],[35.5656,32.3679],[35.5568,32.3724]],[[35.5585,32.5191],[35.5614,32.5192],[35.5674,32.5102],[35.5585,32.5191]],[[35.5594,32.4704],[35.5626,32.4747],[35.5725,32.4567],[35.5594,32.4704]],[[35.5688,32.4829],[35.5778,32.4948],[35.58,32.4915],[35.5688,32.4829]],[[36.2672,33.9104],[36.2886,33.9465],[36.2691,33.9073],[36.2672,33.9104]],[[36.2699,33.906],[36.3111,33.872],[36.2753,33.8972],[36.2699,33.906]]],[[[32.9697,31.0866],[32.9785,31.0817],[32.9893,31.0734],[32.9831,31.0899],[32.9697,31.0866]]],[[[33.1069,31.1895],[33.1162,31.1895],[33.1156,31.1925],[33.1069,31.1895]]],[[[33.1948,31.066],[33.1956,31.0665],[33.1948,31.0663],[33.1948,31.066]]],[[[36.189,33.6502],[36.2658,33.6502],[36.2724,33.7146],[36.1956,33.7146],[36.189,33.6502]]]]}},{"type":"Feature","properties":{"territoryId":"cliopatria-q42534-9017006776","name":"Indus Valley Civilization","name_ko":"인더스 문명","color":"#5161ec","colorFamily":0,"startYear":-1759,"endYear":-1750,"source_name":"Cliopatria v0.2.0","source_url":"https://github.com/Seshat-Global-History-Databank/cliopatria","license":"CC BY 4.0","attribution":"Seshat Global History Databank, Cliopatria contributors"},"geometry":{"type":"MultiPolygon","coordinates":[[[[71.5952,22.5934],[71.7441,22.5934],[71.8644,22.3363],[72.1619,22.3363],[72.1763,22.4648],[72.4884,22.5934],[72.5177,22.8506],[72.2346,22.9791],[72.2494,23.1077],[71.9514,23.1077],[71.773,22.8506],[71.6986,22.8506],[71.5952,22.5934]]],[[[68.4089,23.6213],[68.4116,23.4947],[68.4373,23.5488],[68.4858,23.5141],[68.4237,23.4458],[68.5364,23.4213],[68.5197,23.3746],[68.6069,23.3256],[68.7168,23.117],[69.2019,22.8522],[69.7158,22.7469],[69.8332,22.8585],[70.1354,22.93],[70.1306,22.994],[70.1631,22.949],[70.2331,23.0001],[70.3924,22.9409],[70.3988,23.069],[70.4671,23.1297],[70.5272,23.0236],[70.3643,22.8861],[70.7305,22.8506],[70.8938,22.9791],[70.9156,23.172],[70.8411,23.172],[70.7141,23.3649],[69.7818,23.6863],[69.3944,24.2006],[69.0957,24.2006],[68.8342,23.8792],[68.6707,23.8157],[68.4694,23.6592],[68.4915,23.6188],[68.4089,23.6213]]],[[[68.5228,23.7518],[68.7927,23.8792],[68.685,23.8792],[68.5228,23.7518]]],[[[70.2199,27.9295],[70.2953,27.9295],[70.3058,27.9938],[70.2305,27.9938],[70.2199,27.9295]]],[[[65.7296,25.3674],[66.1813,25.4531],[66.3411,25.5483],[66.0944,25.4748],[66.2581,25.612],[66.437,25.5977],[66.5871,25.4262],[66.5479,25.3656],[66.7372,25.1811],[66.7044,24.892],[66.6543,24.8407],[67.1397,24.8033],[67.2555,24.748],[67.213,24.7165],[67.2818,24.6506],[67.3797,24.8435],[68.8827,25.4864],[69.327,26.0008],[69.4206,27.158],[69.7368,27.7367],[70.2411,28.0581],[70.6072,27.9938],[70.8548,28.1224],[71.6195,28.1867],[71.7924,28.3153],[72.5551,29.6009],[72.9233,30.6935],[72.8649,31.1434],[72.4626,31.4005],[71.513,31.5933],[71.0558,31.5933],[70.7242,31.4647],[70.4802,31.0148],[70.3287,30.2436],[69.9343,29.3438],[69.7946,29.4081],[69.5106,29.0867],[68.8726,28.8938],[67.4324,27.9295],[66.611,26.9652],[66.4816,26.5794],[66.112,26.0651],[66.0784,25.8079],[65.7296,25.3674]]],[[[66.3662,25.5304],[66.5006,25.4011],[66.4575,25.4538],[66.4922,25.481],[66.3662,25.5304]]],[[[70.6481,31.4647],[70.7242,31.4647],[70.7376,31.529],[70.6614,31.529],[70.6481,31.4647]]],[[[73.0865,36.546],[73.337,36.6105],[73.2767,36.6749],[73.199,36.6749],[73.0865,36.546]]]]}},{"type":"Feature","properties":{"territoryId":"cliopatria-q42534-9017006776","name":"Indus Valley Civilization","name_ko":"인더스 문명","color":"#5161ec","colorFamily":0,"startYear":-1749,"endYear":-1700,"source_name":"Cliopatria v0.2.0","source_url":"https://github.com/Seshat-Global-History-Databank/cliopatria","license":"CC BY 4.0","attribution":"Seshat Global History Databank, Cliopatria contributors"},"geometry":{"type":"MultiPolygon","coordinates":[[[[71.5952,22.5934],[71.7441,22.5934],[71.8644,22.3363],[72.1619,22.3363],[72.1763,22.4648],[72.4884,22.5934],[72.5177,22.8506],[72.2346,22.9791],[72.2494,23.1077],[71.9514,23.1077],[71.773,22.8506],[71.6986,22.8506],[71.5952,22.5934]]],[[[68.4089,23.6213],[68.4116,23.4947],[68.4373,23.5488],[68.4858,23.5141],[68.4237,23.4458],[68.5364,23.4213],[68.5197,23.3746],[68.6069,23.3256],[68.7168,23.117],[69.2019,22.8522],[69.7158,22.7469],[69.8332,22.8585],[70.1354,22.93],[70.1306,22.994],[70.1631,22.949],[70.2331,23.0001],[70.3924,22.9409],[70.3988,23.069],[70.4671,23.1297],[70.5272,23.0236],[70.3643,22.8861],[70.7305,22.8506],[70.8938,22.9791],[70.9156,23.172],[70.8411,23.172],[70.7141,23.3649],[69.7818,23.6863],[69.3944,24.2006],[69.0957,24.2006],[68.8342,23.8792],[68.6707,23.8157],[68.4694,23.6592],[68.4915,23.6188],[68.4089,23.6213]]],[[[68.5228,23.7518],[68.7927,23.8792],[68.685,23.8792],[68.5228,23.7518]]],[[[70.2199,27.9295],[70.2953,27.9295],[70.3058,27.9938],[70.2305,27.9938],[70.2199,27.9295]]],[[[65.7296,25.3674],[66.1813,25.4531],[66.3411,25.5483],[66.0944,25.4748],[66.2581,25.612],[66.437,25.5977],[66.5871,25.4262],[66.5479,25.3656],[66.7372,25.1811],[66.7044,24.892],[66.6543,24.8407],[67.1397,24.8033],[67.2555,24.748],[67.213,24.7165],[67.2818,24.6506],[67.3797,24.8435],[68.8827,25.4864],[69.327,26.0008],[69.4206,27.158],[69.7368,27.7367],[70.2411,28.0581],[70.6072,27.9938],[70.8548,28.1224],[71.6195,28.1867],[71.7924,28.3153],[72.5551,29.6009],[72.9233,30.6935],[72.8649,31.1434],[72.4626,31.4005],[71.513,31.5933],[71.0558,31.5933],[70.7242,31.4647],[70.4802,31.0148],[70.3287,30.2436],[69.9343,29.3438],[69.7946,29.4081],[69.5106,29.0867],[68.8726,28.8938],[67.4324,27.9295],[66.611,26.9652],[66.4816,26.5794],[66.112,26.0651],[66.0784,25.8079],[65.7296,25.3674]]],[[[66.3662,25.5304],[66.5006,25.4011],[66.4575,25.4538],[66.4922,25.481],[66.3662,25.5304]]],[[[70.6481,31.4647],[70.7242,31.4647],[70.7376,31.529],[70.6614,31.529],[70.6481,31.4647]]],[[[73.0865,36.546],[73.337,36.6105],[73.2767,36.6749],[73.199,36.6749],[73.0865,36.546]]]]}},{"type":"Feature","properties":{"territoryId":"cliopatria-q191324-5f57503a4c","name":"Middle Kingdom of Egypt","name_ko":"이집트 중왕국","color":"#3a7fd9","colorFamily":0,"startYear":-1799,"endYear":-1700,"source_name":"Cliopatria v0.2.0","source_url":"https://github.com/Seshat-Global-History-Databank/cliopatria","license":"CC BY 4.0","attribution":"Seshat Global History Databank, Cliopatria contributors"},"geometry":{"type":"MultiPolygon","coordinates":[[[[27.673,25.6644],[28.1466,24.9457],[28.6775,24.534],[30.4522,24.0952],[31.0473,23.67],[31.4318,23.1901],[31.3754,22.7786],[30.6551,21.5718],[31.1903,21.4196],[31.4722,21.7719],[31.7627,21.9954],[31.4355,21.9954],[31.7627,21.9954],[32.2652,22.3821],[33.2244,22.3506],[33.3634,24.3951],[33.0765,25.1185],[32.8233,25.3512],[33.0301,25.8851],[34.015,26.1374],[34.1918,26.2744],[33.9383,26.6553],[33.8287,27.2553],[33.6917,27.3419],[33.4947,27.6439],[33.5238,27.7521],[33.4735,27.8232],[33.5424,27.8215],[33.5589,27.8831],[33.2494,28.1429],[33.0029,28.4895],[32.8689,28.5789],[32.814,28.7553],[32.6187,28.984],[32.5873,29.3496],[32.3377,29.5925],[32.4776,29.9368],[32.5778,30.0114],[32.7415,29.456],[33.1779,28.9896],[33.2562,28.5441],[33.5647,28.2971],[33.7634,28.024],[34.2555,27.7302],[34.2141,27.7915],[34.4303,27.9802],[34.4092,28.3187],[34.8366,29.5007],[33.2431,30.1152],[32.9832,30.4038],[32.6854,31.0449],[32.5657,31.0705],[32.2539,31.2818],[32.2798,31.1243],[32.1008,31.0872],[32.1198,31.0529],[32.044,31.0865],[32.0279,31.2157],[31.9264,31.187],[31.9063,31.2457],[31.7669,31.2847],[31.8751,31.4622],[31.8491,31.5125],[31.5569,31.4422],[31.1007,31.6014],[30.9824,31.5842],[31.1265,31.4967],[30.7344,31.3881],[30.5427,31.4024],[30.9561,31.5757],[30.5358,31.4639],[30.3602,31.5034],[30.3986,31.4433],[30.3528,31.4924],[30.2897,31.2374],[30.1652,31.2168],[30.1726,31.2714],[30.0644,31.3203],[29.6038,31.012],[29.18,30.8303],[29.0281,30.8271],[28.5004,31.051],[29.1191,29.8275],[29.5276,29.3133],[29.6728,29.2668],[29.6633,28.9649],[29.5575,28.5694],[29.1669,28.0805],[28.7018,27.9043],[27.8239,26.3297],[27.673,25.6644]]],[[[30.1795,31.2714],[30.1937,31.2727],[30.1795,31.2779],[30.1795,31.2714]]],[[[31.8592,31.5149],[31.8652,31.5123],[31.8652,31.5164],[31.8592,31.5149]]],[[[31.8773,31.5193],[31.8789,31.5185],[31.88,31.5199],[31.8773,31.5193]]],[[[31.9084,31.5267],[31.9091,31.5265],[31.9094,31.527],[31.9084,31.5267]]],[[[31.9094,31.527],[31.91,31.5271],[31.9097,31.5276],[31.9094,31.527]]],[[[31.91,31.5271],[32.014,31.385],[32.197,31.2956],[31.91,31.5271]]],[[[33.2414,28.5631],[33.2418,28.5609],[33.2562,28.5516],[33.2414,28.5631]]]]}}]}
