{"type":"FeatureCollection","features":[{"type":"Feature","properties":{"territoryId":"cliopatria-q41137-f5e3aefc73","name":"Assyria","name_ko":"아시리아","color":"#e13378","colorFamily":3,"startYear":-1799,"endYear":-1760,"source_name":"Cliopatria v0.2.0","source_url":"https://github.com/Seshat-Global-History-Databank/cliopatria","license":"CC BY 4.0","attribution":"Seshat Global History Databank, Cliopatria contributors"},"geometry":{"type":"MultiPolygon","coordinates":[[[[40.3646,35.8377],[40.589,35.7733],[40.7892,35.5158],[41.2453,35.4514],[41.1973,35.0653],[41.437,35.1297],[41.8761,34.9366],[42.4935,34.9366],[43.4451,35.1297],[43.8741,34.8723],[44.2512,34.8079],[44.525,34.5506],[44.5164,34.4863],[44.7562,34.5506],[44.9543,34.8723],[44.9631,34.9366],[44.9037,35.0653],[44.6037,35.1297],[44.7939,35.3871],[44.7346,35.5158],[44.8301,35.6445],[44.7025,35.8377],[45.0124,35.8377],[45.0309,35.9664],[44.6026,36.224],[44.6211,36.3528],[44.3975,36.4172],[44.2981,36.8037],[43.7814,36.9971],[43.7908,37.0615],[43.5572,37.0615],[43.6072,36.8682],[43.1586,36.9971],[43.0535,36.8037],[42.5868,36.8037],[42.6047,36.9326],[42.2692,37.3193],[41.4633,37.126],[41.5325,37.0615],[41.4286,36.8682],[41.1782,36.7393],[41.1612,36.6105],[40.3646,35.8377]]],[[[27.5202,40.9874],[27.5242,40.9892],[27.6005,40.9976],[27.601,41.0032],[27.5216,41.0032],[27.5202,40.9874]]],[[[27.601,41.0032],[27.7604,41.0097],[27.7657,41.068],[27.6069,41.068],[27.601,41.0032]]]]}},{"type":"Feature","properties":{"territoryId":"cliopatria-q41137-f5e3aefc73","name":"Assyria","name_ko":"아시리아","color":"#e13378","colorFamily":3,"startYear":-1759,"endYear":-1700,"source_name":"Cliopatria v0.2.0","source_url":"https://github.com/Seshat-Global-History-Databank/cliopatria","license":"CC BY 4.0","attribution":"Seshat Global History Databank, Cliopatria contributors"},"geometry":{"type":"MultiPolygon","coordinates":[[[[42.8356,35.194],[42.9129,35.194],[42.8877,35.001],[43.4451,35.1297],[43.8741,34.8723],[44.2512,34.8079],[44.5164,34.4863],[44.6705,34.4863],[44.842,34.615],[44.972,35.001],[44.6037,35.1297],[44.6987,35.2584],[44.8301,35.6445],[44.7025,35.8377],[45.0124,35.8377],[45.0309,35.9664],[44.6026,36.224],[44.6211,36.3528],[44.3975,36.4172],[44.3571,36.6749],[44.2793,36.6749],[43.6029,36.2884],[43.4121,36.0308],[43.4456,35.7089],[42.9553,35.5158],[42.8356,35.194]]],[[[27.5202,40.9874],[27.5242,40.9892],[27.6005,40.9976],[27.601,41.0032],[27.5216,41.0032],[27.5202,40.9874]]],[[[27.601,41.0032],[27.7604,41.0097],[27.7657,41.068],[27.6069,41.068],[27.601,41.0032]]]]}},{"type":"Feature","properties":{"territoryId":"cliopatria-q47690-5e1dd28d70","name":"Babylonia","name_ko":"바빌로니아","color":"#758ff0","colorFamily":0,"startYear":-1799,"endYear":-1760,"source_name":"Cliopatria v0.2.0","source_url":"https://github.com/Seshat-Global-History-Databank/cliopatria","license":"CC BY 4.0","attribution":"Seshat Global History Databank, Cliopatria contributors"},"geometry":{"type":"Polygon","coordinates":[[[44.001,32.236],[44.3907,32.3002],[44.3751,32.1717],[44.5201,32.1074],[44.5279,32.1717],[44.665,32.0431],[44.894,32.0431],[44.9097,32.1717],[44.986,32.1717],[45.2391,32.3645],[45.2551,32.4931],[44.6069,32.8145],[44.579,33.2002],[44.5023,33.2002],[44.1636,32.943],[44.2163,32.7502],[44.0632,32.7502],[44.0851,32.3002],[44.001,32.236]]]}},{"type":"Feature","properties":{"territoryId":"cliopatria-q47690-5e1dd28d70","name":"Babylonia","name_ko":"바빌로니아","color":"#758ff0","colorFamily":0,"startYear":-1759,"endYear":-1750,"source_name":"Cliopatria v0.2.0","source_url":"https://github.com/Seshat-Global-History-Databank/cliopatria","license":"CC BY 4.0","attribution":"Seshat Global History Databank, Cliopatria contributors"},"geometry":{"type":"Polygon","coordinates":[[[44.001,32.236],[44.3907,32.3002],[44.4438,32.1074],[44.6042,32.1717],[44.665,32.0431],[44.894,32.0431],[44.9097,32.1717],[45.0624,32.1717],[45.1993,32.0431],[45.1836,31.9146],[45.3968,31.7861],[45.305,31.6575],[45.4497,31.5933],[45.3812,31.0148],[45.7705,30.4364],[46.5906,30.3079],[46.6965,30.565],[47.2358,30.6292],[47.2513,30.7578],[47.799,30.8863],[49.1429,30.6935],[48.7442,31.1434],[48.592,31.1434],[48.2528,31.4647],[48.1516,32.4288],[47.931,32.4931],[47.966,32.7502],[47.6185,33.0073],[47.6362,33.1359],[47.4829,33.1359],[47.3474,33.2645],[46.7515,33.3931],[46.6923,33.5217],[46.7868,33.6502],[46.2845,33.9075],[46.3792,34.0361],[45.9266,34.1004],[45.8321,33.9718],[45.909,33.9718],[45.8827,33.7789],[45.7204,33.7146],[46.0611,33.3931],[45.7372,33.2645],[45.5503,33.0073],[45.0224,33.0716],[44.7487,33.3288],[44.5954,33.3288],[44.579,33.2002],[44.4256,33.2002],[44.1636,32.943],[44.2163,32.7502],[44.0632,32.7502],[44.0851,32.3002],[44.001,32.236]]]}},{"type":"Feature","properties":{"territoryId":"cliopatria-q128904-1175fc4c43","name":"Elam","name_ko":"엘람","color":"#f0b875","colorFamily":1,"startYear":-1999,"endYear":-1800,"source_name":"Cliopatria v0.2.0","source_url":"https://github.com/Seshat-Global-History-Databank/cliopatria","license":"CC BY 4.0","attribution":"Seshat Global History Databank, Cliopatria contributors"},"geometry":{"type":"Polygon","coordinates":[[[44.2968,33.3931],[44.5954,33.3288],[44.5871,33.2645],[44.7487,33.3288],[44.9457,33.0716],[45.4654,32.943],[45.8991,33.3288],[46.1292,33.3288],[46.1631,33.0073],[46.3844,32.943],[46.5375,32.943],[46.3688,32.236],[46.4452,32.236],[46.4806,31.9146],[46.8539,31.8503],[46.982,31.6575],[47.1345,31.6575],[47.2625,31.4647],[47.6951,31.2719],[47.807,30.9506],[48.0271,30.8863],[49.1429,30.6935],[49.2867,30.6292],[49.1267,30.565],[49.134,30.4975],[49.1668,30.5088],[49.1682,30.477],[49.2112,30.5063],[49.2606,30.4364],[49.566,30.4364],[49.7016,30.3079],[49.9293,30.3079],[49.9162,30.2043],[50.0241,30.2163],[50.1407,30.1794],[50.477,30.4364],[50.3585,30.6935],[50.0714,30.822],[50.1053,31.0791],[49.9788,31.2719],[50.2864,31.8503],[50.0171,32.1074],[50.0352,32.236],[49.8241,32.3645],[49.8515,32.5574],[49.7169,32.6859],[49.2488,32.6216],[49.2761,32.8145],[49.0464,32.8145],[48.9881,32.943],[48.6818,32.943],[48.5467,33.0716],[47.4829,33.1359],[47.3474,33.2645],[46.8961,33.3288],[46.6835,33.4574],[46.8136,33.8432],[46.7367,33.8432],[46.6778,33.9718],[46.0804,34.1004],[46.0392,34.3577],[45.7078,34.7436],[45.8984,35.001],[45.6078,35.1297],[45.5805,34.9366],[45.4172,34.8723],[45.3044,34.615],[45.1086,34.8723],[44.8771,34.8723],[44.7649,34.615],[44.525,34.5506],[44.4821,34.229],[44.3197,34.1647],[44.4398,33.9075],[44.2968,33.3931]]]}},{"type":"Feature","properties":{"territoryId":"cliopatria-q128904-1175fc4c43","name":"Elam","name_ko":"엘람","color":"#f0b875","colorFamily":1,"startYear":-1799,"endYear":-1760,"source_name":"Cliopatria v0.2.0","source_url":"https://github.com/Seshat-Global-History-Databank/cliopatria","license":"CC BY 4.0","attribution":"Seshat Global History Databank, Cliopatria contributors"},"geometry":{"type":"MultiPolygon","coordinates":[[[[50.4618,31.4647],[50.538,31.4647],[50.5468,31.529],[50.4706,31.529],[50.4618,31.4647]]],[[[44.2968,33.3931],[44.5954,33.3288],[44.5871,33.2645],[44.7487,33.3288],[44.9457,33.0716],[45.4654,32.943],[45.8991,33.3288],[46.1292,33.3288],[46.1631,33.0073],[46.5375,32.943],[46.3688,32.236],[46.4452,32.236],[46.4806,31.9146],[46.8539,31.8503],[46.982,31.6575],[47.1345,31.6575],[47.2625,31.4647],[47.6951,31.2719],[47.807,30.9506],[48.0271,30.8863],[49.1429,30.6935],[49.2867,30.6292],[49.1267,30.565],[49.1198,30.5097],[49.1668,30.5088],[49.1682,30.477],[49.2112,30.5063],[49.224,30.4673],[49.3464,30.5007],[49.7016,30.3079],[49.9293,30.3079],[49.9162,30.2043],[49.9883,30.2199],[50.0734,30.1957],[50.1277,30.1207],[50.1613,29.9263],[50.2438,29.8668],[50.397,29.6547],[50.4561,29.6341],[50.6553,29.4491],[50.6615,29.3188],[50.6895,29.2908],[50.6826,29.2431],[50.6675,29.2573],[50.6358,29.2077],[50.6435,29.1458],[50.8403,29.1406],[50.8508,29.1055],[50.915,29.0867],[50.929,29.0097],[50.8887,28.9414],[50.867,28.9702],[50.8345,28.8914],[50.8762,28.832],[50.9787,28.8166],[51.0588,28.7359],[51.0725,28.5653],[51.1092,28.472],[51.5567,28.7652],[51.8588,28.7652],[51.882,28.9581],[52.208,29.1509],[52.2402,29.4081],[51.7083,29.9865],[51.7251,30.1151],[51.5143,30.2436],[51.4724,30.5007],[51.1012,30.565],[50.9663,30.6935],[50.9835,30.822],[50.7052,31.0148],[50.7225,31.1434],[50.3856,31.4647],[50.4795,31.5933],[50.1659,31.529],[50.2864,31.8503],[50.0171,32.1074],[50.0352,32.236],[49.8241,32.3645],[49.8515,32.5574],[49.7169,32.6859],[49.2488,32.6216],[49.2761,32.8145],[49.0464,32.8145],[48.9881,32.943],[48.6818,32.943],[48.5467,33.0716],[47.4829,33.1359],[47.3474,33.2645],[46.8961,33.3288],[46.6835,33.4574],[46.8136,33.8432],[46.7367,33.8432],[46.6778,33.9718],[46.0804,34.1004],[46.0392,34.3577],[45.7078,34.7436],[45.8984,35.001],[45.7623,35.1297],[45.6078,35.1297],[45.5805,34.9366],[45.4172,34.8723],[45.3044,34.615],[45.0314,34.8723],[44.9543,34.8723],[44.7562,34.5506],[44.5164,34.4863],[44.4821,34.229],[44.3197,34.1647],[44.4398,33.9075],[44.2968,33.3931]]]]}},{"type":"Feature","properties":{"territoryId":"cliopatria-q128904-1175fc4c43","name":"Elam","name_ko":"엘람","color":"#f0b875","colorFamily":1,"startYear":-1759,"endYear":-1600,"source_name":"Cliopatria v0.2.0","source_url":"https://github.com/Seshat-Global-History-Databank/cliopatria","license":"CC BY 4.0","attribution":"Seshat Global History Databank, Cliopatria contributors"},"geometry":{"type":"MultiPolygon","coordinates":[[[[47.6185,33.0073],[47.966,32.7502],[47.931,32.4931],[48.1516,32.4288],[48.2528,31.4647],[48.592,31.1434],[48.7442,31.1434],[49.1429,30.6935],[49.1348,30.6292],[49.2867,30.6292],[49.1267,30.565],[49.134,30.4975],[49.1668,30.5088],[49.1682,30.477],[49.2112,30.5063],[49.224,30.4673],[49.3464,30.5007],[50.0734,30.1957],[50.1277,30.1207],[50.1613,29.9263],[50.2438,29.8668],[50.397,29.6547],[50.4561,29.6341],[50.6553,29.4491],[50.6615,29.3188],[50.6895,29.2908],[50.6826,29.2431],[50.6675,29.2573],[50.6358,29.2077],[50.6435,29.1458],[50.8403,29.1406],[50.8508,29.1055],[50.915,29.0867],[50.929,29.0097],[50.8887,28.9414],[50.867,28.9702],[50.8345,28.8914],[50.8762,28.832],[50.9787,28.8166],[51.0588,28.7359],[51.0725,28.5653],[51.1092,28.472],[51.5567,28.7652],[51.8588,28.7652],[51.882,28.9581],[52.208,29.1509],[52.2402,29.4081],[51.7083,29.9865],[51.7251,30.1151],[51.5143,30.2436],[51.4724,30.5007],[51.1012,30.565],[50.9663,30.6935],[50.9835,30.822],[50.7052,31.0148],[50.7225,31.1434],[50.3856,31.4647],[50.4795,31.5933],[50.1659,31.529],[50.2864,31.8503],[50.0171,32.1074],[50.0352,32.236],[49.8241,32.3645],[49.8515,32.5574],[49.7169,32.6859],[49.2488,32.6216],[49.2761,32.8145],[49.0464,32.8145],[48.9881,32.943],[48.6818,32.943],[48.5467,33.0716],[47.6362,33.1359],[47.6185,33.0073]]],[[[50.4618,31.4647],[50.538,31.4647],[50.5468,31.529],[50.4706,31.529],[50.4618,31.4647]]]]}},{"type":"Feature","properties":{"territoryId":"cliopatria-q192319-7b7e1e3feb","name":"Hyksos","name_ko":"힉소스","color":"#4bdd99","colorFamily":2,"startYear":-1799,"endYear":-1700,"source_name":"Cliopatria v0.2.0","source_url":"https://github.com/Seshat-Global-History-Databank/cliopatria","license":"CC BY 4.0","attribution":"Seshat Global History Databank, Cliopatria contributors"},"geometry":{"type":"MultiPolygon","coordinates":[[[[32.6854,31.0449],[32.9832,30.4038],[33.2431,30.1152],[34.7711,29.4997],[34.8366,29.5007],[34.8478,29.7408],[34.4901,30.689],[34.7174,30.996],[35.3446,30.987],[35.5554,31.7639],[35.552,32.3679],[35.5613,32.3327],[36.2051,33.8503],[36.374,33.8311],[36.2835,33.9109],[36.6237,34.205],[36.5258,34.4319],[36.3512,34.5007],[36.4593,34.6304],[36.1799,34.7809],[36.1132,35.2655],[35.9268,35.316],[35.9624,35.1979],[35.9018,35.1257],[35.875,34.9121],[35.9896,34.5997],[35.9836,34.5275],[35.6529,34.2841],[35.6409,33.9994],[35.572,33.91],[35.4753,33.9018],[35.4813,33.8237],[35.3491,33.5139],[35.3137,33.4884],[35.1564,33.0858],[35.1853,33.084],[35.1562,33.0852],[35.0628,32.8583],[35.0277,32.8266],[34.9532,32.8234],[34.8377,32.2807],[34.757,32.0666],[34.6096,31.7655],[34.4826,31.5831],[34.2003,31.3143],[33.9319,31.1822],[33.1333,31.0456],[33.0986,31.1867],[32.9544,31.1069],[33.0303,31.1008],[33.0643,31.1349],[33.0099,31.0563],[32.9613,31.066],[32.9688,31.0865],[32.9271,31.1118],[32.9409,31.0933],[32.9067,31.0797],[32.8931,31.1008],[32.7695,31.0456],[32.6854,31.0449]],[[35.4529,31.4008],[35.4585,31.4916],[35.4587,31.4916],[35.4593,31.4958],[35.4529,31.4008]],[[35.5568,32.3724],[35.5594,32.3748],[35.5656,32.3679],[35.5568,32.3724]],[[35.5585,32.5191],[35.5614,32.5192],[35.5674,32.5102],[35.5585,32.5191]],[[35.5594,32.4704],[35.5626,32.4747],[35.5725,32.4567],[35.5594,32.4704]],[[35.5688,32.4829],[35.5778,32.4948],[35.58,32.4915],[35.5688,32.4829]],[[36.2672,33.9104],[36.2886,33.9465],[36.2691,33.9073],[36.2672,33.9104]],[[36.2699,33.906],[36.3111,33.872],[36.2753,33.8972],[36.2699,33.906]]],[[[32.9697,31.0866],[32.9785,31.0817],[32.9893,31.0734],[32.9831,31.0899],[32.9697,31.0866]]],[[[33.1069,31.1895],[33.1162,31.1895],[33.1156,31.1925],[33.1069,31.1895]]],[[[33.1948,31.066],[33.1956,31.0665],[33.1948,31.0663],[33.1948,31.066]]],[[[36.189,33.6502],[36.2658,33.6502],[36.2724,33.7146],[36.1956,33.7146],[36.189,33.6502]]]]}},{"type":"Feature","properties":{"territoryId":"cliopatria-q42534-9017006776","name":"Indus Valley Civilization","name_ko":"인더스 문명","color":"#5161ec","colorFamily":0,"startYear":-1999,"endYear":-1800,"source_name":"Cliopatria v0.2.0","source_url":"https://github.com/Seshat-Global-History-Databank/cliopatria","license":"CC BY 4.0","attribution":"Seshat Global History Databank, Cliopatria contributors"},"geometry":{"type":"MultiPolygon","coordinates":[[[[62.0269,25.1058],[62.0972,25.1071],[62.059,25.1616],[62.1452,25.2184],[62.2975,25.1851],[62.3153,25.1302],[62.2589,25.1007],[62.3868,25.1007],[62.3431,25.1555],[62.5275,25.2642],[63.5108,25.2293],[63.4695,25.2893],[63.5725,25.365],[64.0727,25.3579],[64.0488,25.4165],[63.9766,25.4128],[64.1273,25.4538],[64.1,25.3579],[64.225,25.3579],[64.4393,25.2346],[64.5654,25.2703],[64.6111,25.1886],[64.7018,25.1773],[64.6686,25.2551],[64.7444,25.324],[65.1899,25.3135],[65.2323,25.3707],[65.3954,25.3923],[65.6521,25.3445],[66.1813,25.4531],[66.3411,25.5483],[66.0944,25.4748],[66.1672,25.5661],[66.3755,25.6257],[66.531,25.5181],[66.5912,25.3996],[66.5479,25.3656],[66.7372,25.1811],[66.7044,24.892],[66.6541,24.8392],[66.9651,24.8436],[67.2555,24.748],[67.2117,24.7156],[67.2423,24.473],[67.3625,24.3439],[67.3203,24.3431],[67.3019,24.1829],[67.3535,24.072],[67.5331,24.0703],[67.4583,23.9994],[67.4989,23.9256],[67.5405,23.9393],[67.4886,23.8885],[67.6145,23.8501],[67.6504,23.9331],[67.6301,23.8162],[67.8329,23.8149],[67.8552,23.9119],[67.8689,23.8505],[68.0443,23.8149],[68.0135,23.9393],[68.1523,23.787],[68.1575,23.9051],[68.1637,23.7577],[68.2804,23.686],[68.1434,23.6127],[68.3273,23.5869],[68.4277,23.7143],[68.8216,23.8784],[68.4694,23.6592],[68.4915,23.6188],[68.4089,23.6213],[68.4116,23.4947],[68.4373,23.5488],[68.4813,23.5251],[68.4237,23.4458],[68.5364,23.4213],[68.5197,23.3746],[68.6069,23.3256],[68.7168,23.117],[68.8662,23.02],[69.2019,22.8522],[69.6342,22.7607],[70.1354,22.93],[70.1306,22.994],[70.1631,22.949],[70.2331,23.0001],[70.3924,22.9409],[70.3988,23.069],[70.4671,23.1297],[70.5029,23.1044],[70.5047,22.9796],[70.3753,22.9027],[70.1785,22.562],[70.06,22.5583],[69.807,22.421],[69.7266,22.4648],[69.6161,22.3559],[69.516,22.4481],[69.4797,22.3422],[69.2121,22.2739],[69.1697,22.3279],[69.2045,22.3971],[69.0718,22.3995],[69.0271,22.4498],[68.9564,22.2734],[69.1984,21.9797],[69.3362,21.8625],[69.3909,21.8767],[69.4274,21.7812],[70.3367,20.9271],[70.7402,20.7185],[70.9824,20.7101],[72.1047,21.2051],[72.1045,21.315],[72.2988,21.6263],[72.1573,21.7908],[71.9961,21.7995],[72.0042,21.8577],[72.1045,21.8358],[72.058,21.8987],[72.1313,21.8463],[72.1125,21.8863],[72.1591,21.8993],[72.0287,21.9388],[72.1021,21.9451],[72.097,22.007],[72.1731,21.9757],[72.3076,22.079],[72.3065,22.2296],[72.2391,22.2389],[72.2404,22.2882],[72.1488,22.2779],[72.3283,22.2607],[72.3972,22.3668],[72.3887,22.2701],[72.7306,22.2518],[72.6899,22.4005],[72.8679,22.6577],[72.8758,23.3649],[72.1017,23.7506],[71.9759,23.9435],[71.4103,24.2006],[71.3516,24.3292],[71.2022,24.3292],[71.0851,24.5864],[70.7862,24.5864],[70.7277,24.7149],[70.5783,24.7149],[70.5199,24.8435],[69.5395,25.3579],[69.3723,26.3222],[69.2973,26.3222],[69.4206,27.158],[69.7368,27.7367],[70.2411,28.0581],[70.6072,27.9938],[70.8548,28.1224],[71.7813,28.251],[72.0719,28.1867],[72.6333,28.3795],[74.1771,28.5724],[75.7621,28.5724],[75.7863,28.701],[76.2393,28.701],[76.8177,28.9581],[76.9463,29.6009],[76.772,29.858],[76.7987,29.9865],[76.3708,30.1151],[76.4737,30.2436],[76.1838,30.3079],[76.211,30.4364],[76.0107,30.565],[76.0384,30.6935],[75.8382,30.822],[75.8662,30.9506],[75.5089,31.4005],[75.7163,31.9789],[75.5021,32.0431],[75.5319,32.1717],[76.0965,32.6216],[76.1429,32.8145],[76.0663,32.8145],[76.1741,32.943],[76.0365,33.0073],[75.8724,33.5859],[75.6581,33.6502],[75.5366,33.7789],[74.6306,33.8432],[74.3549,33.9718],[73.3555,33.9718],[73.3869,34.1004],[73.31,34.1004],[72.6791,34.0361],[72.5712,33.9075],[72.1716,33.8432],[71.8956,33.6502],[71.7571,33.7146],[71.727,33.5859],[71.3134,33.4574],[70.9334,33.1359],[70.7848,32.8145],[70.3598,32.6216],[70.4083,32.4931],[69.7639,31.9789],[69.6113,31.9789],[69.5713,31.7861],[69.3161,31.6575],[69.251,31.3362],[69.0731,31.2076],[68.9339,30.8863],[67.9728,30.6292],[67.8727,30.5007],[67.1135,30.5007],[66.5542,29.9223],[66.0565,28.7652],[65.6985,27.4152],[65.7737,27.4152],[65.7972,26.5151],[65.8723,26.5151],[65.8462,26.3222],[66.0202,25.9365],[65.6956,25.7436],[65.0881,25.6793],[64.2801,25.8079],[62.3013,25.5507],[62.1366,25.4221],[62.0269,25.1058]],[[68.3214,23.9247],[68.335,23.941],[68.326,23.9278],[68.3214,23.9247]],[[68.3439,23.9651],[68.3489,23.9646],[68.3536,23.9393],[68.3439,23.9651]],[[70.0521,24.2021],[70.0872,24.2826],[70.0929,24.2883],[70.0521,24.2021]],[[70.1052,24.3004],[70.1097,24.3049],[70.2426,24.3306],[70.1052,24.3004]],[[70.5658,24.2806],[70.5767,24.2675],[70.5677,24.2728],[70.5658,24.2806]],[[74.5351,31.7711],[74.5408,31.8109],[74.5485,31.8201],[74.5351,31.7711]],[[74.5589,31.8325],[74.5656,31.8405],[74.67,31.9042],[74.5589,31.8325]]],[[[66.3662,25.5304],[66.5006,25.4011],[66.4575,25.4538],[66.4922,25.481],[66.3662,25.5304]]],[[[67.4418,24.0595],[67.4542,24.0142],[67.4854,24.0485],[67.4418,24.0595]]],[[[68.1425,23.7],[68.1491,23.6945],[68.1575,23.6962],[68.1473,23.7428],[68.1425,23.7]]],[[[70.2199,27.9295],[70.2953,27.9295],[70.3058,27.9938],[70.2305,27.9938],[70.2199,27.9295]]],[[[76.5224,30.1151],[76.5982,30.1151],[76.6118,30.1794],[76.5359,30.1794],[76.5224,30.1151]]]]}},{"type":"Feature","properties":{"territoryId":"cliopatria-q42534-9017006776","name":"Indus Valley Civilization","name_ko":"인더스 문명","color":"#5161ec","colorFamily":0,"startYear":-1799,"endYear":-1760,"source_name":"Cliopatria v0.2.0","source_url":"https://github.com/Seshat-Global-History-Databank/cliopatria","license":"CC BY 4.0","attribution":"Seshat Global History Databank, Cliopatria contributors"},"geometry":{"type":"MultiPolygon","coordinates":[[[[68.782,24.072],[68.8566,24.072],[68.8642,24.1363],[68.7895,24.1363],[68.782,24.072]]],[[[65.7296,25.3674],[66.1361,25.4467],[66.1895,25.4881],[66.0944,25.4748],[66.2581,25.612],[66.437,25.5977],[66.7372,25.1811],[66.7044,24.892],[66.6541,24.8392],[66.9651,24.8436],[67.2555,24.748],[67.2117,24.7156],[67.2423,24.473],[67.3625,24.3439],[67.3203,24.3431],[67.3019,24.1829],[67.3535,24.072],[67.5331,24.0703],[67.4583,23.9994],[67.4989,23.9256],[67.5405,23.9393],[67.4886,23.8885],[67.6145,23.8501],[67.6504,23.9331],[67.6301,23.8162],[67.8329,23.8149],[67.8552,23.9119],[67.8689,23.8505],[68.0443,23.8149],[68.0135,23.9393],[68.1523,23.787],[68.1575,23.9051],[68.1637,23.7577],[68.2804,23.686],[68.1434,23.6127],[68.3273,23.5869],[68.4277,23.7143],[68.8216,23.8784],[68.4694,23.6592],[68.4915,23.6188],[68.4089,23.6213],[68.4116,23.4947],[68.4373,23.5488],[68.4858,23.5141],[68.4237,23.4458],[68.5364,23.4213],[68.5197,23.3746],[68.6069,23.3256],[68.7168,23.117],[69.2019,22.8522],[69.7158,22.7469],[69.8332,22.8585],[70.1354,22.93],[70.1306,22.994],[70.1631,22.949],[70.2331,23.0001],[70.3924,22.9409],[70.3988,23.069],[70.4671,23.1297],[70.5272,23.0236],[70.3661,22.8888],[70.805,22.8506],[71.7369,22.5291],[71.8644,22.3363],[72.3098,22.1035],[72.3065,22.2296],[72.2391,22.2389],[72.2404,22.2882],[72.1488,22.2779],[72.3283,22.2607],[72.3972,22.3668],[72.4269,22.254],[72.6666,22.8506],[72.458,22.9791],[72.3389,23.2363],[70.207,23.4934],[69.7818,23.6863],[69.3944,24.2006],[69.0957,24.2006],[68.8491,24.0077],[68.4759,24.0077],[68.4162,24.1363],[68.7078,25.2936],[69.327,26.0008],[69.4206,27.158],[69.641,27.6081],[70.2411,28.0581],[70.6072,27.9938],[70.8548,28.1224],[71.6195,28.1867],[71.7924,28.3153],[72.5551,29.6009],[72.9233,30.6935],[72.8649,31.1434],[72.4626,31.4005],[71.513,31.5933],[71.0558,31.5933],[70.7242,31.4647],[70.4802,31.0148],[70.3287,30.2436],[69.9343,29.3438],[69.7946,29.4081],[69.5106,29.0867],[68.8726,28.8938],[67.4324,27.9295],[66.611,26.9652],[66.4816,26.5794],[66.112,26.0651],[66.0784,25.8079],[65.7296,25.3674]],[[68.3214,23.9247],[68.335,23.941],[68.326,23.9278],[68.3214,23.9247]],[[68.3439,23.9651],[68.3489,23.9646],[68.3536,23.9393],[68.3439,23.9651]]],[[[66.2581,25.5431],[66.2582,25.5413],[66.261,25.5435],[66.2581,25.5431]]],[[[66.2843,25.5465],[66.3957,25.5134],[66.3885,25.522],[66.3527,25.5355],[66.3364,25.5534],[66.2843,25.5465]]],[[[66.4555,25.4957],[66.4605,25.4942],[66.4562,25.496],[66.4555,25.4957]]],[[[66.4902,25.4818],[66.4913,25.4803],[66.4922,25.481],[66.4902,25.4818]]],[[[67.4418,24.0595],[67.4542,24.0142],[67.4854,24.0485],[67.4418,24.0595]]],[[[68.1425,23.7],[68.1491,23.6945],[68.1575,23.6962],[68.1473,23.7428],[68.1425,23.7]]],[[[70.2199,27.9295],[70.2953,27.9295],[70.3058,27.9938],[70.2305,27.9938],[70.2199,27.9295]]],[[[70.6481,31.4647],[70.7242,31.4647],[70.7376,31.529],[70.6614,31.529],[70.6481,31.4647]]],[[[73.0865,36.546],[73.337,36.6105],[73.2767,36.6749],[73.199,36.6749],[73.0865,36.546]]]]}},{"type":"Feature","properties":{"territoryId":"cliopatria-q42534-9017006776","name":"Indus Valley Civilization","name_ko":"인더스 문명","color":"#5161ec","colorFamily":0,"startYear":-1759,"endYear":-1750,"source_name":"Cliopatria v0.2.0","source_url":"https://github.com/Seshat-Global-History-Databank/cliopatria","license":"CC BY 4.0","attribution":"Seshat Global History Databank, Cliopatria contributors"},"geometry":{"type":"MultiPolygon","coordinates":[[[[71.5952,22.5934],[71.7441,22.5934],[71.8644,22.3363],[72.1619,22.3363],[72.1763,22.4648],[72.4884,22.5934],[72.5177,22.8506],[72.2346,22.9791],[72.2494,23.1077],[71.9514,23.1077],[71.773,22.8506],[71.6986,22.8506],[71.5952,22.5934]]],[[[68.4089,23.6213],[68.4116,23.4947],[68.4373,23.5488],[68.4858,23.5141],[68.4237,23.4458],[68.5364,23.4213],[68.5197,23.3746],[68.6069,23.3256],[68.7168,23.117],[69.2019,22.8522],[69.7158,22.7469],[69.8332,22.8585],[70.1354,22.93],[70.1306,22.994],[70.1631,22.949],[70.2331,23.0001],[70.3924,22.9409],[70.3988,23.069],[70.4671,23.1297],[70.5272,23.0236],[70.3643,22.8861],[70.7305,22.8506],[70.8938,22.9791],[70.9156,23.172],[70.8411,23.172],[70.7141,23.3649],[69.7818,23.6863],[69.3944,24.2006],[69.0957,24.2006],[68.8342,23.8792],[68.6707,23.8157],[68.4694,23.6592],[68.4915,23.6188],[68.4089,23.6213]]],[[[68.5228,23.7518],[68.7927,23.8792],[68.685,23.8792],[68.5228,23.7518]]],[[[70.2199,27.9295],[70.2953,27.9295],[70.3058,27.9938],[70.2305,27.9938],[70.2199,27.9295]]],[[[65.7296,25.3674],[66.1813,25.4531],[66.3411,25.5483],[66.0944,25.4748],[66.2581,25.612],[66.437,25.5977],[66.5871,25.4262],[66.5479,25.3656],[66.7372,25.1811],[66.7044,24.892],[66.6543,24.8407],[67.1397,24.8033],[67.2555,24.748],[67.213,24.7165],[67.2818,24.6506],[67.3797,24.8435],[68.8827,25.4864],[69.327,26.0008],[69.4206,27.158],[69.7368,27.7367],[70.2411,28.0581],[70.6072,27.9938],[70.8548,28.1224],[71.6195,28.1867],[71.7924,28.3153],[72.5551,29.6009],[72.9233,30.6935],[72.8649,31.1434],[72.4626,31.4005],[71.513,31.5933],[71.0558,31.5933],[70.7242,31.4647],[70.4802,31.0148],[70.3287,30.2436],[69.9343,29.3438],[69.7946,29.4081],[69.5106,29.0867],[68.8726,28.8938],[67.4324,27.9295],[66.611,26.9652],[66.4816,26.5794],[66.112,26.0651],[66.0784,25.8079],[65.7296,25.3674]]],[[[66.3662,25.5304],[66.5006,25.4011],[66.4575,25.4538],[66.4922,25.481],[66.3662,25.5304]]],[[[70.6481,31.4647],[70.7242,31.4647],[70.7376,31.529],[70.6614,31.529],[70.6481,31.4647]]],[[[73.0865,36.546],[73.337,36.6105],[73.2767,36.6749],[73.199,36.6749],[73.0865,36.546]]]]}},{"type":"Feature","properties":{"territoryId":"cliopatria-q191324-5f57503a4c","name":"Middle Kingdom of Egypt","name_ko":"이집트 중왕국","color":"#3a7fd9","colorFamily":0,"startYear":-1999,"endYear":-1800,"source_name":"Cliopatria v0.2.0","source_url":"https://github.com/Seshat-Global-History-Databank/cliopatria","license":"CC BY 4.0","attribution":"Seshat Global History Databank, Cliopatria contributors"},"geometry":{"type":"MultiPolygon","coordinates":[[[[29.4972,30.9456],[29.5026,30.5028],[30.1157,30.0669],[30.3751,29.7202],[30.3853,29.4221],[30.0292,29.186],[29.946,28.915],[30.0521,28.7733],[30.4484,28.7109],[30.748,27.2327],[31.6196,26.4347],[31.8476,25.9444],[32.5433,25.8929],[32.3477,25.7258],[32.2418,25.3062],[32.6371,25.0053],[32.765,24.7124],[32.7482,24.0007],[33.1323,23.9958],[33.1081,25.0447],[32.8952,25.1663],[32.6942,25.494],[32.9478,25.8909],[32.9014,26.1949],[32.1718,26.4111],[31.5243,26.9988],[31.3832,27.2663],[30.9807,27.4166],[30.9309,28.0335],[31.0018,28.51],[31.3702,29.3058],[31.8721,29.2672],[32.5377,29.4075],[32.3377,29.5925],[32.3639,29.6882],[32.4776,29.9368],[32.848,30.1618],[32.7291,30.5581],[32.7625,30.8676],[32.6854,31.0449],[32.5657,31.0705],[32.3333,31.2669],[32.2485,31.2786],[32.283,31.2653],[32.2951,31.2134],[32.2898,31.1696],[32.2625,31.1696],[32.2798,31.1243],[32.1431,31.0742],[32.098,31.0933],[32.1321,31.066],[32.1065,31.0534],[32.044,31.0865],[32.0635,31.1185],[31.7669,31.2847],[31.8547,31.4235],[31.8584,31.4433],[31.8242,31.4433],[31.8751,31.4622],[31.8491,31.5125],[31.5569,31.4422],[31.1007,31.6014],[30.9824,31.5842],[31.1111,31.5397],[31.1265,31.4967],[30.9807,31.4365],[30.7344,31.3881],[30.5427,31.4024],[30.9561,31.5757],[30.5358,31.4639],[30.4564,31.4627],[30.3602,31.5034],[30.3986,31.4433],[30.3528,31.4924],[30.2897,31.2374],[30.2536,31.2507],[30.1652,31.2168],[30.1401,31.2372],[30.1726,31.2714],[30.0949,31.2856],[30.0644,31.3203],[29.4972,30.9456]]],[[[30.1795,31.2714],[30.1937,31.2727],[30.1795,31.2779],[30.1795,31.2714]]],[[[31.8592,31.5149],[31.8652,31.5123],[31.8652,31.5164],[31.8592,31.5149]]],[[[31.8773,31.5193],[31.8789,31.5185],[31.88,31.5199],[31.8773,31.5193]]],[[[31.9084,31.5267],[31.9091,31.5265],[31.9094,31.527],[31.9084,31.5267]]],[[[31.9094,31.527],[31.91,31.5271],[31.9097,31.5276],[31.9094,31.527]]],[[[31.91,31.5271],[32.014,31.385],[32.197,31.2956],[32.0249,31.4001],[31.91,31.5271]]],[[[32.2148,31.2824],[32.2165,31.2784],[32.2436,31.2791],[32.2148,31.2824]]]]}},{"type":"Feature","properties":{"territoryId":"cliopatria-q191324-5f57503a4c","name":"Middle Kingdom of Egypt","name_ko":"이집트 중왕국","color":"#3a7fd9","colorFamily":0,"startYear":-1799,"endYear":-1700,"source_name":"Cliopatria v0.2.0","source_url":"https://github.com/Seshat-Global-History-Databank/cliopatria","license":"CC BY 4.0","attribution":"Seshat Global History Databank, Cliopatria contributors"},"geometry":{"type":"MultiPolygon","coordinates":[[[[27.673,25.6644],[28.1466,24.9457],[28.6775,24.534],[30.4522,24.0952],[31.0473,23.67],[31.4318,23.1901],[31.3754,22.7786],[30.6551,21.5718],[31.1903,21.4196],[31.4722,21.7719],[31.7627,21.9954],[31.4355,21.9954],[31.7627,21.9954],[32.2652,22.3821],[33.2244,22.3506],[33.3634,24.3951],[33.0765,25.1185],[32.8233,25.3512],[33.0301,25.8851],[34.015,26.1374],[34.1918,26.2744],[33.9383,26.6553],[33.8287,27.2553],[33.6917,27.3419],[33.4947,27.6439],[33.5238,27.7521],[33.4735,27.8232],[33.5424,27.8215],[33.5589,27.8831],[33.2494,28.1429],[33.0029,28.4895],[32.8689,28.5789],[32.814,28.7553],[32.6187,28.984],[32.5873,29.3496],[32.3377,29.5925],[32.4776,29.9368],[32.5778,30.0114],[32.7415,29.456],[33.1779,28.9896],[33.2562,28.5441],[33.5647,28.2971],[33.7634,28.024],[34.2555,27.7302],[34.2141,27.7915],[34.4303,27.9802],[34.4092,28.3187],[34.8366,29.5007],[33.2431,30.1152],[32.9832,30.4038],[32.6854,31.0449],[32.5657,31.0705],[32.2539,31.2818],[32.2798,31.1243],[32.1008,31.0872],[32.1198,31.0529],[32.044,31.0865],[32.0279,31.2157],[31.9264,31.187],[31.9063,31.2457],[31.7669,31.2847],[31.8751,31.4622],[31.8491,31.5125],[31.5569,31.4422],[31.1007,31.6014],[30.9824,31.5842],[31.1265,31.4967],[30.7344,31.3881],[30.5427,31.4024],[30.9561,31.5757],[30.5358,31.4639],[30.3602,31.5034],[30.3986,31.4433],[30.3528,31.4924],[30.2897,31.2374],[30.1652,31.2168],[30.1726,31.2714],[30.0644,31.3203],[29.6038,31.012],[29.18,30.8303],[29.0281,30.8271],[28.5004,31.051],[29.1191,29.8275],[29.5276,29.3133],[29.6728,29.2668],[29.6633,28.9649],[29.5575,28.5694],[29.1669,28.0805],[28.7018,27.9043],[27.8239,26.3297],[27.673,25.6644]]],[[[30.1795,31.2714],[30.1937,31.2727],[30.1795,31.2779],[30.1795,31.2714]]],[[[31.8592,31.5149],[31.8652,31.5123],[31.8652,31.5164],[31.8592,31.5149]]],[[[31.8773,31.5193],[31.8789,31.5185],[31.88,31.5199],[31.8773,31.5193]]],[[[31.9084,31.5267],[31.9091,31.5265],[31.9094,31.527],[31.9084,31.5267]]],[[[31.9094,31.527],[31.91,31.5271],[31.9097,31.5276],[31.9094,31.527]]],[[[31.91,31.5271],[32.014,31.385],[32.197,31.2956],[31.91,31.5271]]],[[[33.2414,28.5631],[33.2418,28.5609],[33.2562,28.5516],[33.2414,28.5631]]]]}},{"type":"Feature","properties":{"territoryId":"cliopatria-q2345840-c653ae842e","name":"Sumerian City-States","name_ko":"수메르 도시국가들","color":"#5ce09e","colorFamily":2,"startYear":-1999,"endYear":-1800,"source_name":"Cliopatria v0.2.0","source_url":"https://github.com/Seshat-Global-History-Databank/cliopatria","license":"CC BY 4.0","attribution":"Seshat Global History Databank, Cliopatria contributors"},"geometry":{"type":"MultiPolygon","coordinates":[[[[48.0191,30.822],[48.0951,30.822],[48.1031,30.8863],[48.0271,30.8863],[48.0191,30.822]]],[[[44.1636,32.943],[44.1926,32.5574],[44.3377,32.4931],[44.322,32.3645],[44.712,32.4288],[44.8333,32.1717],[45.0624,32.1717],[45.1836,31.9146],[45.3968,31.7861],[45.305,31.6575],[45.4497,31.5933],[45.3812,31.0148],[45.7705,30.4364],[46.5906,30.3079],[46.6965,30.565],[47.2358,30.6292],[47.2513,30.7578],[48.0271,30.8863],[47.807,30.9506],[47.6951,31.2719],[47.2625,31.4647],[47.1345,31.6575],[46.982,31.6575],[46.8539,31.8503],[46.4806,31.9146],[46.4452,32.236],[46.3688,32.236],[46.5375,32.943],[46.1631,33.0073],[46.1292,33.3288],[45.8991,33.3288],[45.4654,32.943],[44.9457,33.0716],[44.7487,33.3288],[44.5871,33.2645],[44.579,33.2002],[44.4256,33.2002],[44.1636,32.943]]]]}},{"type":"Feature","properties":{"territoryId":"cliopatria-q2345840-c653ae842e","name":"Sumerian City-States","name_ko":"수메르 도시국가들","color":"#5ce09e","colorFamily":2,"startYear":-1799,"endYear":-1760,"source_name":"Cliopatria v0.2.0","source_url":"https://github.com/Seshat-Global-History-Databank/cliopatria","license":"CC BY 4.0","attribution":"Seshat Global History Databank, Cliopatria contributors"},"geometry":{"type":"MultiPolygon","coordinates":[[[[48.0191,30.822],[48.0951,30.822],[48.1031,30.8863],[48.0271,30.8863],[48.0191,30.822]]],[[[44.5871,33.2645],[44.6069,32.8145],[45.2551,32.4931],[45.2391,32.3645],[44.986,32.1717],[45.0624,32.1717],[45.1836,31.9146],[45.3968,31.7861],[45.305,31.6575],[45.4497,31.5933],[45.3812,31.0148],[45.7705,30.4364],[46.5906,30.3079],[46.6965,30.565],[47.2358,30.6292],[47.2513,30.7578],[48.0271,30.8863],[47.807,30.9506],[47.6951,31.2719],[47.2625,31.4647],[47.1345,31.6575],[46.982,31.6575],[46.8539,31.8503],[46.4806,31.9146],[46.4452,32.236],[46.3688,32.236],[46.5375,32.943],[46.1631,33.0073],[46.1292,33.3288],[45.8991,33.3288],[45.4654,32.943],[44.9457,33.0716],[44.7487,33.3288],[44.5871,33.2645]]]]}}]}
