{"type":"FeatureCollection","features":[{"type":"Feature","properties":{"territoryId":"cliopatria-q128904-1175fc4c43","name":"Elam","name_ko":"엘람","color":"#f0b875","colorFamily":1,"startYear":-1999,"endYear":-1800,"source_name":"Cliopatria v0.2.0","source_url":"https://github.com/Seshat-Global-History-Databank/cliopatria","license":"CC BY 4.0","attribution":"Seshat Global History Databank, Cliopatria contributors"},"geometry":{"type":"Polygon","coordinates":[[[44.2968,33.3931],[44.5954,33.3288],[44.5871,33.2645],[44.7487,33.3288],[44.9457,33.0716],[45.4654,32.943],[45.8991,33.3288],[46.1292,33.3288],[46.1631,33.0073],[46.3844,32.943],[46.5375,32.943],[46.3688,32.236],[46.4452,32.236],[46.4806,31.9146],[46.8539,31.8503],[46.982,31.6575],[47.1345,31.6575],[47.2625,31.4647],[47.6951,31.2719],[47.807,30.9506],[48.0271,30.8863],[49.1429,30.6935],[49.2867,30.6292],[49.1267,30.565],[49.134,30.4975],[49.1668,30.5088],[49.1682,30.477],[49.2112,30.5063],[49.2606,30.4364],[49.566,30.4364],[49.7016,30.3079],[49.9293,30.3079],[49.9162,30.2043],[50.0241,30.2163],[50.1407,30.1794],[50.477,30.4364],[50.3585,30.6935],[50.0714,30.822],[50.1053,31.0791],[49.9788,31.2719],[50.2864,31.8503],[50.0171,32.1074],[50.0352,32.236],[49.8241,32.3645],[49.8515,32.5574],[49.7169,32.6859],[49.2488,32.6216],[49.2761,32.8145],[49.0464,32.8145],[48.9881,32.943],[48.6818,32.943],[48.5467,33.0716],[47.4829,33.1359],[47.3474,33.2645],[46.8961,33.3288],[46.6835,33.4574],[46.8136,33.8432],[46.7367,33.8432],[46.6778,33.9718],[46.0804,34.1004],[46.0392,34.3577],[45.7078,34.7436],[45.8984,35.001],[45.6078,35.1297],[45.5805,34.9366],[45.4172,34.8723],[45.3044,34.615],[45.1086,34.8723],[44.8771,34.8723],[44.7649,34.615],[44.525,34.5506],[44.4821,34.229],[44.3197,34.1647],[44.4398,33.9075],[44.2968,33.3931]]]}},{"type":"Feature","properties":{"territoryId":"cliopatria-q42534-9017006776","name":"Indus Valley Civilization","name_ko":"인더스 문명","color":"#5161ec","colorFamily":0,"startYear":-1999,"endYear":-1800,"source_name":"Cliopatria v0.2.0","source_url":"https://github.com/Seshat-Global-History-Databank/cliopatria","license":"CC BY 4.0","attribution":"Seshat Global History Databank, Cliopatria contributors"},"geometry":{"type":"MultiPolygon","coordinates":[[[[62.0269,25.1058],[62.0972,25.1071],[62.059,25.1616],[62.1452,25.2184],[62.2975,25.1851],[62.3153,25.1302],[62.2589,25.1007],[62.3868,25.1007],[62.3431,25.1555],[62.5275,25.2642],[63.5108,25.2293],[63.4695,25.2893],[63.5725,25.365],[64.0727,25.3579],[64.0488,25.4165],[63.9766,25.4128],[64.1273,25.4538],[64.1,25.3579],[64.225,25.3579],[64.4393,25.2346],[64.5654,25.2703],[64.6111,25.1886],[64.7018,25.1773],[64.6686,25.2551],[64.7444,25.324],[65.1899,25.3135],[65.2323,25.3707],[65.3954,25.3923],[65.6521,25.3445],[66.1813,25.4531],[66.3411,25.5483],[66.0944,25.4748],[66.1672,25.5661],[66.3755,25.6257],[66.531,25.5181],[66.5912,25.3996],[66.5479,25.3656],[66.7372,25.1811],[66.7044,24.892],[66.6541,24.8392],[66.9651,24.8436],[67.2555,24.748],[67.2117,24.7156],[67.2423,24.473],[67.3625,24.3439],[67.3203,24.3431],[67.3019,24.1829],[67.3535,24.072],[67.5331,24.0703],[67.4583,23.9994],[67.4989,23.9256],[67.5405,23.9393],[67.4886,23.8885],[67.6145,23.8501],[67.6504,23.9331],[67.6301,23.8162],[67.8329,23.8149],[67.8552,23.9119],[67.8689,23.8505],[68.0443,23.8149],[68.0135,23.9393],[68.1523,23.787],[68.1575,23.9051],[68.1637,23.7577],[68.2804,23.686],[68.1434,23.6127],[68.3273,23.5869],[68.4277,23.7143],[68.8216,23.8784],[68.4694,23.6592],[68.4915,23.6188],[68.4089,23.6213],[68.4116,23.4947],[68.4373,23.5488],[68.4813,23.5251],[68.4237,23.4458],[68.5364,23.4213],[68.5197,23.3746],[68.6069,23.3256],[68.7168,23.117],[68.8662,23.02],[69.2019,22.8522],[69.6342,22.7607],[70.1354,22.93],[70.1306,22.994],[70.1631,22.949],[70.2331,23.0001],[70.3924,22.9409],[70.3988,23.069],[70.4671,23.1297],[70.5029,23.1044],[70.5047,22.9796],[70.3753,22.9027],[70.1785,22.562],[70.06,22.5583],[69.807,22.421],[69.7266,22.4648],[69.6161,22.3559],[69.516,22.4481],[69.4797,22.3422],[69.2121,22.2739],[69.1697,22.3279],[69.2045,22.3971],[69.0718,22.3995],[69.0271,22.4498],[68.9564,22.2734],[69.1984,21.9797],[69.3362,21.8625],[69.3909,21.8767],[69.4274,21.7812],[70.3367,20.9271],[70.7402,20.7185],[70.9824,20.7101],[72.1047,21.2051],[72.1045,21.315],[72.2988,21.6263],[72.1573,21.7908],[71.9961,21.7995],[72.0042,21.8577],[72.1045,21.8358],[72.058,21.8987],[72.1313,21.8463],[72.1125,21.8863],[72.1591,21.8993],[72.0287,21.9388],[72.1021,21.9451],[72.097,22.007],[72.1731,21.9757],[72.3076,22.079],[72.3065,22.2296],[72.2391,22.2389],[72.2404,22.2882],[72.1488,22.2779],[72.3283,22.2607],[72.3972,22.3668],[72.3887,22.2701],[72.7306,22.2518],[72.6899,22.4005],[72.8679,22.6577],[72.8758,23.3649],[72.1017,23.7506],[71.9759,23.9435],[71.4103,24.2006],[71.3516,24.3292],[71.2022,24.3292],[71.0851,24.5864],[70.7862,24.5864],[70.7277,24.7149],[70.5783,24.7149],[70.5199,24.8435],[69.5395,25.3579],[69.3723,26.3222],[69.2973,26.3222],[69.4206,27.158],[69.7368,27.7367],[70.2411,28.0581],[70.6072,27.9938],[70.8548,28.1224],[71.7813,28.251],[72.0719,28.1867],[72.6333,28.3795],[74.1771,28.5724],[75.7621,28.5724],[75.7863,28.701],[76.2393,28.701],[76.8177,28.9581],[76.9463,29.6009],[76.772,29.858],[76.7987,29.9865],[76.3708,30.1151],[76.4737,30.2436],[76.1838,30.3079],[76.211,30.4364],[76.0107,30.565],[76.0384,30.6935],[75.8382,30.822],[75.8662,30.9506],[75.5089,31.4005],[75.7163,31.9789],[75.5021,32.0431],[75.5319,32.1717],[76.0965,32.6216],[76.1429,32.8145],[76.0663,32.8145],[76.1741,32.943],[76.0365,33.0073],[75.8724,33.5859],[75.6581,33.6502],[75.5366,33.7789],[74.6306,33.8432],[74.3549,33.9718],[73.3555,33.9718],[73.3869,34.1004],[73.31,34.1004],[72.6791,34.0361],[72.5712,33.9075],[72.1716,33.8432],[71.8956,33.6502],[71.7571,33.7146],[71.727,33.5859],[71.3134,33.4574],[70.9334,33.1359],[70.7848,32.8145],[70.3598,32.6216],[70.4083,32.4931],[69.7639,31.9789],[69.6113,31.9789],[69.5713,31.7861],[69.3161,31.6575],[69.251,31.3362],[69.0731,31.2076],[68.9339,30.8863],[67.9728,30.6292],[67.8727,30.5007],[67.1135,30.5007],[66.5542,29.9223],[66.0565,28.7652],[65.6985,27.4152],[65.7737,27.4152],[65.7972,26.5151],[65.8723,26.5151],[65.8462,26.3222],[66.0202,25.9365],[65.6956,25.7436],[65.0881,25.6793],[64.2801,25.8079],[62.3013,25.5507],[62.1366,25.4221],[62.0269,25.1058]],[[68.3214,23.9247],[68.335,23.941],[68.326,23.9278],[68.3214,23.9247]],[[68.3439,23.9651],[68.3489,23.9646],[68.3536,23.9393],[68.3439,23.9651]],[[70.0521,24.2021],[70.0872,24.2826],[70.0929,24.2883],[70.0521,24.2021]],[[70.1052,24.3004],[70.1097,24.3049],[70.2426,24.3306],[70.1052,24.3004]],[[70.5658,24.2806],[70.5767,24.2675],[70.5677,24.2728],[70.5658,24.2806]],[[74.5351,31.7711],[74.5408,31.8109],[74.5485,31.8201],[74.5351,31.7711]],[[74.5589,31.8325],[74.5656,31.8405],[74.67,31.9042],[74.5589,31.8325]]],[[[66.3662,25.5304],[66.5006,25.4011],[66.4575,25.4538],[66.4922,25.481],[66.3662,25.5304]]],[[[67.4418,24.0595],[67.4542,24.0142],[67.4854,24.0485],[67.4418,24.0595]]],[[[68.1425,23.7],[68.1491,23.6945],[68.1575,23.6962],[68.1473,23.7428],[68.1425,23.7]]],[[[70.2199,27.9295],[70.2953,27.9295],[70.3058,27.9938],[70.2305,27.9938],[70.2199,27.9295]]],[[[76.5224,30.1151],[76.5982,30.1151],[76.6118,30.1794],[76.5359,30.1794],[76.5224,30.1151]]]]}},{"type":"Feature","properties":{"territoryId":"cliopatria-q191324-5f57503a4c","name":"Middle Kingdom of Egypt","name_ko":"이집트 중왕국","color":"#3a7fd9","colorFamily":0,"startYear":-1999,"endYear":-1800,"source_name":"Cliopatria v0.2.0","source_url":"https://github.com/Seshat-Global-History-Databank/cliopatria","license":"CC BY 4.0","attribution":"Seshat Global History Databank, Cliopatria contributors"},"geometry":{"type":"MultiPolygon","coordinates":[[[[29.4972,30.9456],[29.5026,30.5028],[30.1157,30.0669],[30.3751,29.7202],[30.3853,29.4221],[30.0292,29.186],[29.946,28.915],[30.0521,28.7733],[30.4484,28.7109],[30.748,27.2327],[31.6196,26.4347],[31.8476,25.9444],[32.5433,25.8929],[32.3477,25.7258],[32.2418,25.3062],[32.6371,25.0053],[32.765,24.7124],[32.7482,24.0007],[33.1323,23.9958],[33.1081,25.0447],[32.8952,25.1663],[32.6942,25.494],[32.9478,25.8909],[32.9014,26.1949],[32.1718,26.4111],[31.5243,26.9988],[31.3832,27.2663],[30.9807,27.4166],[30.9309,28.0335],[31.0018,28.51],[31.3702,29.3058],[31.8721,29.2672],[32.5377,29.4075],[32.3377,29.5925],[32.3639,29.6882],[32.4776,29.9368],[32.848,30.1618],[32.7291,30.5581],[32.7625,30.8676],[32.6854,31.0449],[32.5657,31.0705],[32.3333,31.2669],[32.2485,31.2786],[32.283,31.2653],[32.2951,31.2134],[32.2898,31.1696],[32.2625,31.1696],[32.2798,31.1243],[32.1431,31.0742],[32.098,31.0933],[32.1321,31.066],[32.1065,31.0534],[32.044,31.0865],[32.0635,31.1185],[31.7669,31.2847],[31.8547,31.4235],[31.8584,31.4433],[31.8242,31.4433],[31.8751,31.4622],[31.8491,31.5125],[31.5569,31.4422],[31.1007,31.6014],[30.9824,31.5842],[31.1111,31.5397],[31.1265,31.4967],[30.9807,31.4365],[30.7344,31.3881],[30.5427,31.4024],[30.9561,31.5757],[30.5358,31.4639],[30.4564,31.4627],[30.3602,31.5034],[30.3986,31.4433],[30.3528,31.4924],[30.2897,31.2374],[30.2536,31.2507],[30.1652,31.2168],[30.1401,31.2372],[30.1726,31.2714],[30.0949,31.2856],[30.0644,31.3203],[29.4972,30.9456]]],[[[30.1795,31.2714],[30.1937,31.2727],[30.1795,31.2779],[30.1795,31.2714]]],[[[31.8592,31.5149],[31.8652,31.5123],[31.8652,31.5164],[31.8592,31.5149]]],[[[31.8773,31.5193],[31.8789,31.5185],[31.88,31.5199],[31.8773,31.5193]]],[[[31.9084,31.5267],[31.9091,31.5265],[31.9094,31.527],[31.9084,31.5267]]],[[[31.9094,31.527],[31.91,31.5271],[31.9097,31.5276],[31.9094,31.527]]],[[[31.91,31.5271],[32.014,31.385],[32.197,31.2956],[32.0249,31.4001],[31.91,31.5271]]],[[[32.2148,31.2824],[32.2165,31.2784],[32.2436,31.2791],[32.2148,31.2824]]]]}},{"type":"Feature","properties":{"territoryId":"cliopatria-q2345840-c653ae842e","name":"Sumerian City-States","name_ko":"수메르 도시국가들","color":"#5ce09e","colorFamily":2,"startYear":-1999,"endYear":-1800,"source_name":"Cliopatria v0.2.0","source_url":"https://github.com/Seshat-Global-History-Databank/cliopatria","license":"CC BY 4.0","attribution":"Seshat Global History Databank, Cliopatria contributors"},"geometry":{"type":"MultiPolygon","coordinates":[[[[48.0191,30.822],[48.0951,30.822],[48.1031,30.8863],[48.0271,30.8863],[48.0191,30.822]]],[[[44.1636,32.943],[44.1926,32.5574],[44.3377,32.4931],[44.322,32.3645],[44.712,32.4288],[44.8333,32.1717],[45.0624,32.1717],[45.1836,31.9146],[45.3968,31.7861],[45.305,31.6575],[45.4497,31.5933],[45.3812,31.0148],[45.7705,30.4364],[46.5906,30.3079],[46.6965,30.565],[47.2358,30.6292],[47.2513,30.7578],[48.0271,30.8863],[47.807,30.9506],[47.6951,31.2719],[47.2625,31.4647],[47.1345,31.6575],[46.982,31.6575],[46.8539,31.8503],[46.4806,31.9146],[46.4452,32.236],[46.3688,32.236],[46.5375,32.943],[46.1631,33.0073],[46.1292,33.3288],[45.8991,33.3288],[45.4654,32.943],[44.9457,33.0716],[44.7487,33.3288],[44.5871,33.2645],[44.579,33.2002],[44.4256,33.2002],[44.1636,32.943]]]]}}]}
