{"type":"FeatureCollection","features":[{"type":"Feature","properties":{"territoryId":"cliopatria-q4461035-ed116d8e28","name":"Akkadian Empire","name_ko":"아카드 제국","color":"#4b6bdd","colorFamily":0,"startYear":-2299,"endYear":-2250,"source_name":"Cliopatria v0.2.0","source_url":"https://github.com/Seshat-Global-History-Databank/cliopatria","license":"CC BY 4.0","attribution":"Seshat Global History Databank, Cliopatria contributors"},"geometry":{"type":"Polygon","coordinates":[[[35.3277,33.4574],[35.7113,33.4574],[35.8251,33.8432],[36.2605,34.3577],[36.293,34.6793],[36.4406,34.615],[36.4538,34.7436],[36.6147,34.8079],[37.1547,34.8079],[37.2455,34.9366],[37.4701,34.8723],[37.5681,35.0653],[37.7226,35.0653],[37.926,34.8079],[38.1787,35.001],[38.8036,35.0653],[40.0557,34.5506],[40.1178,34.422],[40.4183,34.3577],[40.4728,34.1647],[40.8499,34.1004],[40.9117,33.9718],[41.2116,33.9075],[41.4886,33.6502],[42.5783,33.1359],[42.7085,32.943],[43.1526,32.8145],[44.459,31.5933],[44.5814,31.3362],[44.8098,31.3362],[45.0158,31.1434],[45.1679,31.1434],[45.153,31.0148],[45.3588,30.822],[45.8834,30.7578],[45.982,30.9506],[46.3622,30.9506],[46.6976,31.2076],[46.9102,31.0791],[47.2145,31.0791],[47.3429,30.8863],[47.8751,30.8863],[48.915,30.6935],[48.9394,30.8863],[49.0997,30.9506],[48.5665,32.1074],[48.3634,32.3002],[47.8372,32.3645],[47.8632,32.5574],[47.0221,32.5574],[46.7587,32.8788],[46.1631,33.0073],[46.1464,33.4574],[45.8654,33.6502],[45.8827,33.7789],[45.4477,33.9718],[45.6189,34.1004],[45.6542,34.3577],[45.509,34.422],[45.5356,34.615],[45.2273,34.615],[45.2451,34.7436],[44.9543,34.8723],[44.9037,35.0653],[44.6037,35.1297],[44.7939,35.3871],[44.7346,35.5158],[44.8301,35.6445],[44.4382,36.1596],[44.2981,36.8037],[43.8499,36.9326],[43.7908,37.0615],[43.5572,37.0615],[43.6072,36.8682],[43.1586,36.9971],[43.0535,36.8037],[42.5868,36.8037],[42.6047,36.9326],[42.2692,37.3193],[42.0354,37.3193],[41.697,37.126],[40.8487,37.1904],[40.3644,37.0615],[40.2422,37.3193],[40.1475,37.1904],[39.9137,37.1904],[38.4811,37.5773],[38.2389,37.5128],[37.9426,37.6417],[37.7084,37.6417],[37.685,37.4483],[37.1237,37.3193],[37.0685,37.5128],[36.3662,37.5128],[36.3179,37.7707],[36.0762,37.7062],[35.8763,37.3193],[35.862,37.1904],[36.0178,37.1904],[35.9044,36.8682],[36.1449,36.9326],[36.2862,36.8037],[36.2649,36.6105],[35.8417,36.2884],[35.9901,36.224],[35.9767,36.001],[35.8449,35.5802],[35.9929,35.5158],[35.9153,35.2879],[35.9624,35.1979],[35.927,34.8723],[36.0682,34.7436],[36.0488,34.5506],[35.7921,34.2933],[35.6652,34.3113],[35.6838,33.9718],[35.4705,33.9021],[35.4993,33.6502],[35.3944,33.65],[35.3277,33.4574]],[[36.6665,36.2657],[36.6691,36.2599],[36.6681,36.2532],[36.6665,36.2657]]]}},{"type":"Feature","properties":{"territoryId":"cliopatria-q42534-9017006776","name":"Indus Valley Civilization","name_ko":"인더스 문명","color":"#5161ec","colorFamily":0,"startYear":-2499,"endYear":-2300,"source_name":"Cliopatria v0.2.0","source_url":"https://github.com/Seshat-Global-History-Databank/cliopatria","license":"CC BY 4.0","attribution":"Seshat Global History Databank, Cliopatria contributors"},"geometry":{"type":"MultiPolygon","coordinates":[[[[71.5952,22.5934],[71.7441,22.5934],[71.8644,22.3363],[72.1619,22.3363],[72.1763,22.4648],[72.4884,22.5934],[72.5177,22.8506],[72.2346,22.9791],[72.2494,23.1077],[71.9514,23.1077],[71.773,22.8506],[71.6986,22.8506],[71.5952,22.5934]]],[[[69.7072,23.6863],[69.8564,23.6863],[69.976,23.4291],[70.2742,23.4291],[70.289,23.5577],[70.6023,23.6863],[70.6327,23.9435],[70.4834,23.9435],[70.365,24.2006],[70.1488,24.2649],[70.0818,24.2649],[70.0521,24.2021],[70.0795,24.2649],[69.9995,24.2649],[70.0509,24.072],[69.7372,23.9435],[69.7072,23.6863]]],[[[67.5505,27.2223],[67.7009,27.2223],[67.8133,26.9652],[68.0388,26.9652],[68.02,26.8366],[68.1702,26.8366],[68.1516,26.708],[68.2925,26.6437],[68.2833,26.5794],[68.5836,26.5794],[68.6022,26.708],[68.9214,26.8366],[68.9598,27.0938],[68.6785,27.2223],[68.698,27.3509],[68.4724,27.3509],[68.3614,27.6081],[68.2108,27.6081],[68.2308,27.7367],[67.9296,27.7367],[67.7396,27.4795],[67.5891,27.4795],[67.5505,27.2223]]],[[[75.5455,29.0224],[75.621,29.0224],[75.6335,29.0867],[75.5579,29.0867],[75.5455,29.0224]]],[[[73.2782,29.0224],[73.4293,29.0224],[73.4055,28.8938],[73.5566,28.8938],[73.5329,28.7652],[73.835,28.7652],[73.8588,28.8938],[74.1851,29.0224],[74.234,29.2795],[73.9561,29.4081],[73.981,29.5366],[73.6783,29.5366],[73.4777,29.2795],[73.402,29.2795],[73.2782,29.0224]]],[[[75.6335,29.0867],[75.7847,29.0867],[75.7598,28.9581],[75.9109,28.9581],[75.8862,28.8295],[76.1884,28.8295],[76.2132,28.9581],[76.5406,29.0867],[76.5915,29.3438],[76.3146,29.4723],[76.3406,29.6009],[76.0377,29.6009],[75.835,29.3438],[75.7594,29.3438],[75.6335,29.0867]]],[[[66.3031,29.3438],[66.4544,29.3438],[66.5625,29.0867],[66.8649,29.0867],[66.8865,29.2152],[67.2109,29.3438],[67.2554,29.6009],[66.9749,29.7294],[66.9975,29.858],[66.6944,29.858],[66.4983,29.6009],[66.4225,29.6009],[66.3031,29.3438]]],[[[70.8593,30.6292],[71.0112,30.6292],[70.9858,30.5007],[71.1376,30.5007],[71.1124,30.3722],[71.4159,30.3722],[71.4413,30.5007],[71.7708,30.6292],[71.8229,30.8863],[71.545,31.0148],[71.5714,31.1434],[71.267,31.1434],[71.0626,30.8863],[70.9866,30.8863],[70.8593,30.6292]]]]}},{"type":"Feature","properties":{"territoryId":"cliopatria-q42534-9017006776","name":"Indus Valley Civilization","name_ko":"인더스 문명","color":"#5161ec","colorFamily":0,"startYear":-2299,"endYear":-2000,"source_name":"Cliopatria v0.2.0","source_url":"https://github.com/Seshat-Global-History-Databank/cliopatria","license":"CC BY 4.0","attribution":"Seshat Global History Databank, Cliopatria contributors"},"geometry":{"type":"MultiPolygon","coordinates":[[[[62.0269,25.1058],[62.0972,25.1071],[62.059,25.1616],[62.1452,25.2184],[62.2975,25.1851],[62.3153,25.1302],[62.2589,25.1007],[62.3868,25.1007],[62.3431,25.1555],[62.5275,25.2642],[63.5108,25.2293],[63.4695,25.2893],[63.5725,25.365],[64.0727,25.3579],[64.0488,25.4165],[63.9766,25.4128],[64.1273,25.4538],[64.1,25.3579],[64.225,25.3579],[64.4393,25.2346],[64.5654,25.2703],[64.6111,25.1886],[64.7018,25.1773],[64.6686,25.2551],[64.7444,25.324],[65.1899,25.3135],[65.2323,25.3707],[65.3954,25.3923],[65.6521,25.3445],[66.1813,25.4531],[66.3411,25.5483],[66.0944,25.4748],[66.1672,25.5661],[66.3755,25.6257],[66.531,25.5181],[66.5912,25.3996],[66.5479,25.3656],[66.7372,25.1811],[66.7044,24.892],[66.6541,24.8392],[66.9651,24.8436],[67.2555,24.748],[67.2117,24.7156],[67.2423,24.473],[67.3625,24.3439],[67.3203,24.3431],[67.3019,24.1829],[67.3535,24.072],[67.5331,24.0703],[67.4583,23.9994],[67.4989,23.9256],[67.5405,23.9393],[67.4886,23.8885],[67.6145,23.8501],[67.6504,23.9331],[67.6301,23.8162],[67.8329,23.8149],[67.8552,23.9119],[67.8689,23.8505],[68.0443,23.8149],[68.0135,23.9393],[68.1523,23.787],[68.1575,23.9051],[68.1637,23.7577],[68.2804,23.686],[68.1434,23.6127],[68.3273,23.5869],[68.4277,23.7143],[68.8216,23.8784],[68.4694,23.6592],[68.4915,23.6188],[68.4089,23.6213],[68.4116,23.4947],[68.4373,23.5488],[68.4813,23.5251],[68.4237,23.4458],[68.5364,23.4213],[68.5197,23.3746],[68.6069,23.3256],[68.7168,23.117],[68.8662,23.02],[69.2019,22.8522],[69.6342,22.7607],[70.1354,22.93],[70.1306,22.994],[70.1631,22.949],[70.2331,23.0001],[70.3924,22.9409],[70.3988,23.069],[70.4671,23.1297],[70.5029,23.1044],[70.5047,22.9796],[70.3753,22.9027],[70.1785,22.562],[70.06,22.5583],[69.807,22.421],[69.7266,22.4648],[69.6161,22.3559],[69.516,22.4481],[69.4797,22.3422],[69.2121,22.2739],[69.1697,22.3279],[69.2045,22.3971],[69.0718,22.3995],[69.0271,22.4498],[68.9564,22.2734],[69.1984,21.9797],[69.3362,21.8625],[69.3909,21.8767],[69.4274,21.7812],[70.3367,20.9271],[70.7402,20.7185],[70.9824,20.7101],[72.1047,21.2051],[72.1045,21.315],[72.2988,21.6263],[72.1573,21.7908],[71.9961,21.7995],[72.0042,21.8577],[72.1045,21.8358],[72.058,21.8987],[72.1313,21.8463],[72.1125,21.8863],[72.1591,21.8993],[72.0287,21.9388],[72.1021,21.9451],[72.097,22.007],[72.1731,21.9757],[72.3076,22.079],[72.3065,22.2296],[72.2391,22.2389],[72.2404,22.2882],[72.1488,22.2779],[72.3283,22.2607],[72.3972,22.3668],[72.3887,22.2701],[72.7306,22.2518],[72.6899,22.4005],[72.8679,22.6577],[72.8758,23.3649],[72.1017,23.7506],[71.9759,23.9435],[71.4103,24.2006],[71.3516,24.3292],[71.2022,24.3292],[71.0851,24.5864],[70.7862,24.5864],[70.7277,24.7149],[70.5783,24.7149],[70.5199,24.8435],[69.5395,25.3579],[69.3723,26.3222],[69.2973,26.3222],[69.4206,27.158],[69.7368,27.7367],[70.2411,28.0581],[70.6072,27.9938],[70.8548,28.1224],[71.7813,28.251],[72.0719,28.1867],[72.6333,28.3795],[74.1771,28.5724],[75.7621,28.5724],[75.7863,28.701],[76.2393,28.701],[76.8177,28.9581],[76.9463,29.6009],[76.772,29.858],[76.7987,29.9865],[76.3708,30.1151],[76.4737,30.2436],[76.1838,30.3079],[76.211,30.4364],[76.0107,30.565],[76.0384,30.6935],[75.8382,30.822],[75.8662,30.9506],[75.5089,31.4005],[75.7163,31.9789],[75.5021,32.0431],[75.5319,32.1717],[76.0965,32.6216],[76.1429,32.8145],[76.0663,32.8145],[76.1741,32.943],[76.0365,33.0073],[75.8724,33.5859],[75.6581,33.6502],[75.5366,33.7789],[74.6306,33.8432],[74.3549,33.9718],[73.3555,33.9718],[73.3869,34.1004],[73.31,34.1004],[72.6791,34.0361],[72.5712,33.9075],[72.1716,33.8432],[71.8956,33.6502],[71.7571,33.7146],[71.727,33.5859],[71.3134,33.4574],[70.9334,33.1359],[70.7848,32.8145],[70.3598,32.6216],[70.4083,32.4931],[69.7639,31.9789],[69.6113,31.9789],[69.5713,31.7861],[69.3161,31.6575],[69.251,31.3362],[69.0731,31.2076],[68.9339,30.8863],[67.9728,30.6292],[67.8727,30.5007],[67.1135,30.5007],[66.5542,29.9223],[66.0565,28.7652],[65.6985,27.4152],[65.7737,27.4152],[65.7972,26.5151],[65.8723,26.5151],[65.8462,26.3222],[66.0202,25.9365],[65.6956,25.7436],[65.0881,25.6793],[64.2801,25.8079],[62.3013,25.5507],[62.1366,25.4221],[62.0269,25.1058]],[[68.3214,23.9247],[68.335,23.941],[68.326,23.9278],[68.3214,23.9247]],[[68.3439,23.9651],[68.3489,23.9646],[68.3536,23.9393],[68.3439,23.9651]],[[70.0521,24.2021],[70.0872,24.2826],[70.0929,24.2883],[70.0521,24.2021]],[[70.1052,24.3004],[70.1097,24.3049],[70.2426,24.3306],[70.1052,24.3004]],[[70.5658,24.2806],[70.5767,24.2675],[70.5677,24.2728],[70.5658,24.2806]],[[74.5351,31.7711],[74.5408,31.8109],[74.5485,31.8201],[74.5351,31.7711]],[[74.5589,31.8325],[74.5656,31.8405],[74.67,31.9042],[74.5589,31.8325]]],[[[66.3662,25.5304],[66.5006,25.4011],[66.4575,25.4538],[66.4922,25.481],[66.3662,25.5304]]],[[[67.4418,24.0595],[67.4542,24.0142],[67.4854,24.0485],[67.4418,24.0595]]],[[[68.1425,23.7],[68.1491,23.6945],[68.1575,23.6962],[68.1473,23.7428],[68.1425,23.7]]],[[[70.2199,27.9295],[70.2953,27.9295],[70.3058,27.9938],[70.2305,27.9938],[70.2199,27.9295]]],[[[76.5224,30.1151],[76.5982,30.1151],[76.6118,30.1794],[76.5359,30.1794],[76.5224,30.1151]]]]}},{"type":"Feature","properties":{"territoryId":"cliopatria-q177819-10e6435011","name":"Old Kingdom of Egypt","name_ko":"이집트 고왕국","color":"#ec9651","colorFamily":1,"startYear":-2499,"endYear":-2300,"source_name":"Cliopatria v0.2.0","source_url":"https://github.com/Seshat-Global-History-Databank/cliopatria","license":"CC BY 4.0","attribution":"Seshat Global History Databank, Cliopatria contributors"},"geometry":{"type":"MultiPolygon","coordinates":[[[[29.4972,30.9456],[29.5026,30.5028],[30.1157,30.0669],[30.3751,29.7202],[30.3853,29.4221],[30.0292,29.186],[29.946,28.915],[30.0521,28.7733],[30.4484,28.7109],[30.748,27.2327],[31.6196,26.4347],[31.8476,25.9444],[32.5433,25.8929],[32.3477,25.7258],[32.2418,25.3062],[32.6371,25.0053],[32.765,24.7124],[32.7482,24.0007],[33.1323,23.9958],[33.1081,25.0447],[32.8952,25.1663],[32.6942,25.494],[32.9478,25.8909],[32.9014,26.1949],[32.1718,26.4111],[31.5243,26.9988],[31.3832,27.2663],[30.9807,27.4166],[30.9309,28.0335],[31.0018,28.51],[31.3702,29.3058],[31.8721,29.2672],[32.5377,29.4075],[32.3377,29.5925],[32.3639,29.6882],[32.4776,29.9368],[32.848,30.1618],[32.7291,30.5581],[32.7625,30.8676],[32.6854,31.0449],[32.5657,31.0705],[32.3333,31.2669],[32.2485,31.2786],[32.283,31.2653],[32.2951,31.2134],[32.2898,31.1696],[32.2625,31.1696],[32.2798,31.1243],[32.1431,31.0742],[32.098,31.0933],[32.1321,31.066],[32.1065,31.0534],[32.044,31.0865],[32.0635,31.1185],[31.7669,31.2847],[31.8547,31.4235],[31.8584,31.4433],[31.8242,31.4433],[31.8751,31.4622],[31.8491,31.5125],[31.5569,31.4422],[31.1007,31.6014],[30.9824,31.5842],[31.1111,31.5397],[31.1265,31.4967],[30.9807,31.4365],[30.7344,31.3881],[30.5427,31.4024],[30.9561,31.5757],[30.5358,31.4639],[30.4564,31.4627],[30.3602,31.5034],[30.3986,31.4433],[30.3528,31.4924],[30.2897,31.2374],[30.2536,31.2507],[30.1652,31.2168],[30.1401,31.2372],[30.1726,31.2714],[30.0949,31.2856],[30.0644,31.3203],[29.4972,30.9456]]],[[[30.1795,31.2714],[30.1937,31.2727],[30.1795,31.2779],[30.1795,31.2714]]],[[[31.8592,31.5149],[31.8652,31.5123],[31.8652,31.5164],[31.8592,31.5149]]],[[[31.8773,31.5193],[31.8789,31.5185],[31.88,31.5199],[31.8773,31.5193]]],[[[31.9084,31.5267],[31.9091,31.5265],[31.9094,31.527],[31.9084,31.5267]]],[[[31.9094,31.527],[31.91,31.5271],[31.9097,31.5276],[31.9094,31.527]]],[[[31.91,31.5271],[32.014,31.385],[32.197,31.2956],[32.0249,31.4001],[31.91,31.5271]]],[[[32.2148,31.2824],[32.2165,31.2784],[32.2436,31.2791],[32.2148,31.2824]]]]}},{"type":"Feature","properties":{"territoryId":"cliopatria-q177819-10e6435011","name":"Old Kingdom of Egypt","name_ko":"이집트 고왕국","color":"#ec9651","colorFamily":1,"startYear":-2299,"endYear":-2250,"source_name":"Cliopatria v0.2.0","source_url":"https://github.com/Seshat-Global-History-Databank/cliopatria","license":"CC BY 4.0","attribution":"Seshat Global History Databank, Cliopatria contributors"},"geometry":{"type":"MultiPolygon","coordinates":[[[[29.4972,30.9456],[29.5026,30.5028],[30.1157,30.0669],[30.3751,29.7202],[30.3853,29.4221],[30.0292,29.186],[29.946,28.915],[30.0521,28.7733],[30.4484,28.7109],[30.748,27.2327],[31.6196,26.4347],[31.8476,25.9444],[32.5433,25.8929],[32.3477,25.7258],[32.2418,25.3062],[32.6371,25.0053],[32.765,24.7124],[32.7482,24.0007],[33.1323,23.9958],[33.1081,25.0447],[32.8952,25.1663],[32.6942,25.494],[32.9478,25.8909],[32.9014,26.1949],[32.1718,26.4111],[31.5243,26.9988],[31.3832,27.2663],[30.9807,27.4166],[30.9309,28.0335],[31.0018,28.51],[31.3702,29.3058],[31.8721,29.2672],[32.5377,29.4075],[32.3377,29.5925],[32.3639,29.6882],[32.4776,29.9368],[32.848,30.1618],[32.7291,30.5581],[32.7625,30.8676],[32.6854,31.0449],[32.5657,31.0705],[32.3333,31.2669],[32.2485,31.2786],[32.283,31.2653],[32.2951,31.2134],[32.2898,31.1696],[32.2625,31.1696],[32.2798,31.1243],[32.1431,31.0742],[32.098,31.0933],[32.1321,31.066],[32.1065,31.0534],[32.044,31.0865],[32.0635,31.1185],[31.7669,31.2847],[31.8547,31.4235],[31.8584,31.4433],[31.8242,31.4433],[31.8751,31.4622],[31.8491,31.5125],[31.5569,31.4422],[31.1007,31.6014],[30.9824,31.5842],[31.1111,31.5397],[31.1265,31.4967],[30.9807,31.4365],[30.7344,31.3881],[30.5427,31.4024],[30.9561,31.5757],[30.5358,31.4639],[30.4564,31.4627],[30.3602,31.5034],[30.3986,31.4433],[30.3528,31.4924],[30.2897,31.2374],[30.2536,31.2507],[30.1652,31.2168],[30.1401,31.2372],[30.1726,31.2714],[30.0949,31.2856],[30.0644,31.3203],[29.4972,30.9456]]],[[[30.1795,31.2714],[30.1937,31.2727],[30.1795,31.2779],[30.1795,31.2714]]],[[[31.8592,31.5149],[31.8652,31.5123],[31.8652,31.5164],[31.8592,31.5149]]],[[[31.8773,31.5193],[31.8789,31.5185],[31.88,31.5199],[31.8773,31.5193]]],[[[31.9084,31.5267],[31.9091,31.5265],[31.9094,31.527],[31.9084,31.5267]]],[[[31.9094,31.527],[31.91,31.5271],[31.9097,31.5276],[31.9094,31.527]]],[[[31.91,31.5271],[32.014,31.385],[32.197,31.2956],[32.0249,31.4001],[31.91,31.5271]]],[[[32.2148,31.2824],[32.2165,31.2784],[32.2436,31.2791],[32.2148,31.2824]]]]}},{"type":"Feature","properties":{"territoryId":"cliopatria-q2345840-c653ae842e","name":"Sumerian City-States","name_ko":"수메르 도시국가들","color":"#5ce09e","colorFamily":2,"startYear":-2499,"endYear":-2300,"source_name":"Cliopatria v0.2.0","source_url":"https://github.com/Seshat-Global-History-Databank/cliopatria","license":"CC BY 4.0","attribution":"Seshat Global History Databank, Cliopatria contributors"},"geometry":{"type":"Polygon","coordinates":[[[40.5181,34.5506],[40.7881,34.229],[42.3804,34.0361],[42.8866,33.7789],[42.9475,33.6502],[43.2467,33.5859],[43.3075,33.4574],[43.4609,33.4574],[43.5217,33.3288],[43.8204,33.2645],[43.9497,33.0716],[44.103,33.0716],[44.322,32.3645],[44.712,32.4288],[44.8333,32.1717],[45.0624,32.1717],[45.1993,32.0431],[45.1836,31.9146],[45.3968,31.7861],[45.305,31.6575],[45.4497,31.5933],[45.6779,30.9506],[46.2944,30.3722],[46.5906,30.3079],[46.6965,30.565],[47.2358,30.6292],[47.2513,30.7578],[47.799,30.8863],[48.2552,30.8863],[48.915,30.6935],[48.9476,30.9506],[48.8716,30.9506],[48.5752,32.1717],[47.8545,32.4931],[47.693,32.4288],[47.0221,32.5574],[46.7587,32.8788],[46.1631,33.0073],[46.1464,33.4574],[45.7372,33.2645],[45.5503,33.0073],[45.0224,33.0716],[44.7487,33.3288],[44.5954,33.3288],[44.4999,33.7789],[44.2612,33.7146],[43.8415,34.0361],[43.3277,34.229],[43.2672,34.3577],[42.9674,34.422],[42.9756,34.4863],[42.7364,34.422],[42.5215,34.5506],[42.5378,34.6793],[41.836,34.615],[41.235,34.7436],[40.9959,34.6793],[40.8572,34.8079],[40.6181,34.7436],[40.5181,34.5506]]]}},{"type":"Feature","properties":{"territoryId":"cliopatria-q2345840-c653ae842e","name":"Sumerian City-States","name_ko":"수메르 도시국가들","color":"#5ce09e","colorFamily":2,"startYear":-2299,"endYear":-2250,"source_name":"Cliopatria v0.2.0","source_url":"https://github.com/Seshat-Global-History-Databank/cliopatria","license":"CC BY 4.0","attribution":"Seshat Global History Databank, Cliopatria contributors"},"geometry":{"type":"Polygon","coordinates":[[[45.8759,30.6935],[46.4388,30.3079],[46.5906,30.3079],[46.613,30.5007],[47.2358,30.6292],[47.2513,30.7578],[47.7911,30.822],[47.799,30.8863],[47.3429,30.8863],[47.2145,31.0791],[46.9102,31.0791],[46.6976,31.2076],[46.3622,30.9506],[45.982,30.9506],[45.8834,30.7578],[45.8759,30.6935]]]}}]}
