{"type":"FeatureCollection","features":[{"type":"Feature","properties":{"territoryId":"cliopatria-q187979-6039dea84f","name":"Early Dynastic Period of Egypt","name_ko":"이집트 초기왕조","color":"#3386e1","colorFamily":0,"startYear":-2699,"endYear":-2500,"source_name":"Cliopatria v0.2.0","source_url":"https://github.com/Seshat-Global-History-Databank/cliopatria","license":"CC BY 4.0","attribution":"Seshat Global History Databank, Cliopatria contributors"},"geometry":{"type":"MultiPolygon","coordinates":[[[[29.4972,30.9456],[29.5026,30.5028],[30.1157,30.0669],[30.3751,29.7202],[30.3853,29.4221],[30.0292,29.186],[29.946,28.915],[30.0521,28.7733],[30.4484,28.7109],[30.748,27.2327],[31.6196,26.4347],[31.8476,25.9444],[32.5433,25.8929],[32.3477,25.7258],[32.2418,25.3062],[32.6371,25.0053],[32.765,24.7124],[32.7482,24.0007],[33.1323,23.9958],[33.1081,25.0447],[32.8952,25.1663],[32.6942,25.494],[32.9478,25.8909],[32.9014,26.1949],[32.1718,26.4111],[31.5243,26.9988],[31.3832,27.2663],[30.9807,27.4166],[30.9309,28.0335],[31.0018,28.51],[31.3702,29.3058],[31.8721,29.2672],[32.5377,29.4075],[32.3377,29.5925],[32.3639,29.6882],[32.4776,29.9368],[32.848,30.1618],[32.7291,30.5581],[32.7625,30.8676],[32.6854,31.0449],[32.5657,31.0705],[32.3333,31.2669],[32.2485,31.2786],[32.283,31.2653],[32.2951,31.2134],[32.2898,31.1696],[32.2625,31.1696],[32.2798,31.1243],[32.1431,31.0742],[32.098,31.0933],[32.1321,31.066],[32.1065,31.0534],[32.044,31.0865],[32.0635,31.1185],[31.7669,31.2847],[31.8547,31.4235],[31.8584,31.4433],[31.8242,31.4433],[31.8751,31.4622],[31.8491,31.5125],[31.5569,31.4422],[31.1007,31.6014],[30.9824,31.5842],[31.1111,31.5397],[31.1265,31.4967],[30.9807,31.4365],[30.7344,31.3881],[30.5427,31.4024],[30.9561,31.5757],[30.5358,31.4639],[30.4564,31.4627],[30.3602,31.5034],[30.3986,31.4433],[30.3528,31.4924],[30.2897,31.2374],[30.2536,31.2507],[30.1652,31.2168],[30.1401,31.2372],[30.1726,31.2714],[30.0949,31.2856],[30.0644,31.3203],[29.4972,30.9456]]],[[[30.1795,31.2714],[30.1937,31.2727],[30.1795,31.2779],[30.1795,31.2714]]],[[[31.8592,31.5149],[31.8652,31.5123],[31.8652,31.5164],[31.8592,31.5149]]],[[[31.8773,31.5193],[31.8789,31.5185],[31.88,31.5199],[31.8773,31.5193]]],[[[31.9084,31.5267],[31.9091,31.5265],[31.9094,31.527],[31.9084,31.5267]]],[[[31.9094,31.527],[31.91,31.5271],[31.9097,31.5276],[31.9094,31.527]]],[[[31.91,31.5271],[32.014,31.385],[32.197,31.2956],[32.0249,31.4001],[31.91,31.5271]]],[[[32.2148,31.2824],[32.2165,31.2784],[32.2436,31.2791],[32.2148,31.2824]]]]}},{"type":"Feature","properties":{"territoryId":"cliopatria-q42534-9017006776","name":"Indus Valley Civilization","name_ko":"인더스 문명","color":"#5161ec","colorFamily":0,"startYear":-2699,"endYear":-2500,"source_name":"Cliopatria v0.2.0","source_url":"https://github.com/Seshat-Global-History-Databank/cliopatria","license":"CC BY 4.0","attribution":"Seshat Global History Databank, Cliopatria contributors"},"geometry":{"type":"MultiPolygon","coordinates":[[[[67.9356,26.7723],[68.0858,26.7723],[68.1991,26.5151],[68.4993,26.5151],[68.5178,26.6437],[68.8369,26.7723],[68.875,27.0295],[68.5936,27.158],[68.613,27.2866],[68.3122,27.2866],[68.1234,27.0295],[68.0482,27.0295],[67.9356,26.7723]]],[[[75.5455,29.0224],[75.621,29.0224],[75.6335,29.0867],[75.5579,29.0867],[75.5455,29.0224]]],[[[73.2782,29.0224],[73.4293,29.0224],[73.4055,28.8938],[73.5566,28.8938],[73.5329,28.7652],[73.835,28.7652],[73.8588,28.8938],[74.1851,29.0224],[74.234,29.2795],[73.9561,29.4081],[73.981,29.5366],[73.6783,29.5366],[73.4777,29.2795],[73.402,29.2795],[73.2782,29.0224]]],[[[75.6335,29.0867],[75.7847,29.0867],[75.7598,28.9581],[75.9109,28.9581],[75.8862,28.8295],[76.1884,28.8295],[76.2132,28.9581],[76.5406,29.0867],[76.5915,29.3438],[76.3146,29.4723],[76.3406,29.6009],[76.0377,29.6009],[75.835,29.3438],[75.7594,29.3438],[75.6335,29.0867]]]]}},{"type":"Feature","properties":{"territoryId":"cliopatria-q2345840-c653ae842e","name":"Sumerian City-States","name_ko":"수메르 도시국가들","color":"#5ce09e","colorFamily":2,"startYear":-2699,"endYear":-2500,"source_name":"Cliopatria v0.2.0","source_url":"https://github.com/Seshat-Global-History-Databank/cliopatria","license":"CC BY 4.0","attribution":"Seshat Global History Databank, Cliopatria contributors"},"geometry":{"type":"Polygon","coordinates":[[[44.1476,32.8145],[44.2242,32.8145],[44.1926,32.5574],[44.3377,32.4931],[44.322,32.3645],[44.712,32.4288],[44.8333,32.1717],[45.0624,32.1717],[45.1993,32.0431],[45.8074,30.7578],[46.4388,30.3079],[46.5906,30.3079],[46.6965,30.565],[47.2358,30.6292],[47.2513,30.7578],[47.799,30.8863],[48.2552,30.8863],[48.915,30.6935],[48.9476,30.9506],[48.8716,30.9506],[48.5752,32.1717],[47.8545,32.4931],[47.7781,32.4931],[47.693,32.4288],[47.0221,32.5574],[46.7587,32.8788],[46.1631,33.0073],[46.1464,33.4574],[45.7372,33.2645],[45.5503,33.0073],[45.0224,33.0716],[44.7487,33.3288],[44.5954,33.3288],[44.579,33.2002],[44.4256,33.2002],[44.1636,32.943],[44.1476,32.8145]]]}}]}
