{"type":"FeatureCollection","features":[{"type":"Feature","properties":{"territoryId":"cliopatria-q128904-1175fc4c43","name":"Elam","name_ko":"엘람","color":"#f0b875","colorFamily":1,"startYear":-3199,"endYear":-2700,"source_name":"Cliopatria v0.2.0","source_url":"https://github.com/Seshat-Global-History-Databank/cliopatria","license":"CC BY 4.0","attribution":"Seshat Global History Databank, Cliopatria contributors"},"geometry":{"type":"Polygon","coordinates":[[[47.9472,32.0431],[48.0998,32.0431],[48.2185,31.7861],[48.5235,31.7861],[48.5406,31.9146],[48.8631,32.0431],[48.8982,32.3002],[48.6102,32.4288],[48.6279,32.5574],[48.3221,32.5574],[48.1342,32.3002],[47.9814,32.3002],[47.9472,32.0431]]]}},{"type":"Feature","properties":{"territoryId":"cliopatria-q2345840-c653ae842e","name":"Sumerian City-States","name_ko":"수메르 도시국가들","color":"#5ce09e","colorFamily":2,"startYear":-3199,"endYear":-3000,"source_name":"Cliopatria v0.2.0","source_url":"https://github.com/Seshat-Global-History-Databank/cliopatria","license":"CC BY 4.0","attribution":"Seshat Global History Databank, Cliopatria contributors"},"geometry":{"type":"Polygon","coordinates":[[[44.1636,32.943],[44.1926,32.5574],[44.3377,32.4931],[44.322,32.3645],[44.712,32.4288],[44.8333,32.1717],[45.0624,32.1717],[45.1836,31.9146],[45.3968,31.7861],[45.305,31.6575],[45.4497,31.5933],[45.8074,30.7578],[46.013,30.565],[46.1649,30.565],[46.2944,30.3722],[46.5906,30.3079],[46.6965,30.565],[47.2358,30.6292],[47.2985,31.1434],[46.8419,31.1434],[46.5246,31.6575],[46.5488,31.8503],[46.32,31.8503],[46.1315,32.1717],[46.0551,32.1717],[45.815,32.6859],[45.0825,32.943],[45.1756,33.0716],[44.8773,33.1359],[44.7487,33.3288],[44.5954,33.3288],[44.579,33.2002],[44.4256,33.2002],[44.1636,32.943]]]}}]}
