{"type":"FeatureCollection","features":[{"type":"Feature","properties":{"territoryId":"cliopatria-q2345840-c653ae842e","name":"Sumerian City-States","name_ko":"수메르 도시국가들","color":"#5ce09e","colorFamily":2,"startYear":-3399,"endYear":-3200,"source_name":"Cliopatria v0.2.0","source_url":"https://github.com/Seshat-Global-History-Databank/cliopatria","license":"CC BY 4.0","attribution":"Seshat Global History Databank, Cliopatria contributors"},"geometry":{"type":"Polygon","coordinates":[[[44.5592,32.4288],[44.712,32.4288],[44.8333,32.1717],[45.0624,32.1717],[45.1993,32.0431],[45.1836,31.9146],[45.3968,31.7861],[45.305,31.6575],[45.4497,31.5933],[45.6779,30.9506],[46.013,30.565],[46.5906,30.3079],[46.6965,30.565],[47.2358,30.6292],[47.2985,31.1434],[46.8419,31.1434],[46.7816,31.2719],[46.5454,31.2076],[46.196,31.4647],[46.2118,31.5933],[46.1356,31.5933],[46.0752,31.7218],[46.1594,31.7861],[45.8623,31.8503],[45.818,32.1074],[45.6131,32.3002],[45.4603,32.3002],[45.1948,32.6216],[44.6754,32.7502],[44.5592,32.4288]]]}}]}
