{"type":"FeatureCollection","features":[{"type":"Feature","properties":{"territoryId":"cliopatria-q41642-371ce03e73","name":"(Phoenician Empire)","name_ko":"페니키아","color":"#2c41e8","colorFamily":0,"startYear":-799,"endYear":-750,"source_name":"Cliopatria v0.2.0","source_url":"https://github.com/Seshat-Global-History-Databank/cliopatria","license":"CC BY 4.0","attribution":"Seshat Global History Databank, Cliopatria contributors"},"geometry":{"type":"MultiPolygon","coordinates":[[[[14.3688,32.5574],[14.5166,32.1717],[14.8248,32.3645],[14.9013,32.3645],[14.8033,32.4479],[14.3688,32.5574]]],[[[35.2213,33.1359],[35.4452,33.0716],[36.0244,33.5217],[36.0493,33.7789],[36.2347,34.1004],[36.2799,34.5506],[36.2029,34.5506],[36.3128,34.8723],[36.165,34.9366],[36.1849,35.1297],[36.3527,35.2584],[36.373,35.4514],[36.2318,35.5802],[35.9929,35.5158],[35.9153,35.2879],[35.9624,35.1979],[35.927,34.8723],[36.0682,34.7436],[36.0488,34.5506],[35.7921,34.2933],[35.7127,34.3279],[35.6652,34.3113],[35.6838,33.9718],[35.5909,33.9466],[35.572,33.91],[35.4705,33.9021],[35.4993,33.6502],[35.3944,33.65],[35.3653,33.5547],[35.3984,33.3931],[35.2272,33.2002],[35.2213,33.1359]]],[[[33.2382,35.001],[33.292,34.7436],[33.3939,34.7436],[33.4002,34.7734],[33.4387,34.7628],[33.6056,34.8218],[33.6541,34.9447],[33.7015,34.9729],[34.067,35.001],[34.022,35.057],[33.9431,35.0653],[34.0123,35.0638],[33.8999,35.1645],[33.9224,35.2734],[33.8086,35.3227],[33.4768,35.0027],[33.2382,35.001]],[[33.7592,34.9887],[33.7911,34.9824],[33.7874,34.98],[33.7592,34.9887]],[[33.6195,35.0168],[33.7115,34.9856],[33.7029,34.9879],[33.6195,35.0168]],[[33.6794,35.0349],[33.7022,35.0223],[33.6794,35.0339],[33.6794,35.0349]],[[33.6966,35.009],[33.7022,35.0223],[33.7002,35.0067],[33.6966,35.009]],[[33.8412,35.0511],[33.8801,35.0731],[33.8551,35.0534],[33.8412,35.0511]]],[[[10.5416,35.5158],[10.6192,35.3227],[11.0058,35.4514],[11.0057,35.3871],[11.0469,35.3871],[11.0577,35.4867],[11.0831,35.5053],[11.0392,35.5185],[11.0169,35.5986],[10.851,35.6445],[10.8245,35.7334],[10.8403,35.7644],[10.5416,35.5158]]],[[[14.3384,35.9455],[14.3457,35.8759],[14.3815,35.843],[14.5275,35.8012],[14.5618,35.8298],[14.5078,35.9285],[14.3494,35.9731],[14.3773,35.9936],[14.3389,35.9793],[14.3384,35.9455]]],[[[-6.2475,36.6105],[-5.9863,36.224],[-6.005,36.4816],[-6.1698,36.6105],[-6.2475,36.6105]]],[[[9.8397,36.7393],[10.2295,36.4172],[10.2299,36.2884],[10.4846,36.2356],[10.5077,36.3052],[10.4625,36.4172],[11.0062,36.8037],[11.0063,36.9971],[10.8751,36.9971],[10.5396,36.7393],[10.3553,36.7312],[10.2721,36.8161],[10.2472,36.7863],[10.1885,36.7976],[10.2529,36.8463],[10.3094,36.8346],[10.2282,36.8682],[9.9175,36.7393],[9.8397,36.7393]]],[[[7.2715,36.8682],[7.6651,36.546],[7.9057,36.8501],[7.7734,36.89],[7.7747,36.9326],[7.6596,36.9326],[7.6589,36.9844],[7.3463,37.0615],[7.2715,36.8682]]],[[[10.228,36.9326],[10.2282,36.8682],[10.306,36.8682],[10.3058,36.9218],[10.228,36.9326]]],[[[8.8429,36.9903],[8.9827,36.9326],[8.9833,36.8682],[9.2954,36.7393],[9.6828,36.9971],[9.9945,36.9326],[10.0716,37.126],[10.1804,37.081],[10.2244,37.0959],[10.2113,37.1376],[10.1281,37.1587],[10.2273,37.1639],[10.2272,37.1949],[10.1501,37.2337],[9.9934,37.1904],[9.925,37.213],[9.8799,37.1501],[9.8159,37.1518],[9.7718,37.2133],[9.8157,37.2491],[9.6158,37.3151],[9.0595,37.0615],[8.9723,37.0975],[8.8429,36.9903]]],[[[9.8196,37.2276],[9.8612,37.2338],[9.906,37.2193],[9.842,37.2404],[9.8196,37.2276]]]]}},{"type":"Feature","properties":{"territoryId":"cliopatria-q41642-371ce03e73","name":"(Phoenician Empire)","name_ko":"페니키아","color":"#2c41e8","colorFamily":0,"startYear":-749,"endYear":-700,"source_name":"Cliopatria v0.2.0","source_url":"https://github.com/Seshat-Global-History-Databank/cliopatria","license":"CC BY 4.0","attribution":"Seshat Global History Databank, Cliopatria contributors"},"geometry":{"type":"MultiPolygon","coordinates":[[[[14.3688,32.5574],[14.5166,32.1717],[14.8248,32.3645],[14.9013,32.3645],[14.8033,32.4479],[14.3688,32.5574]]],[[[35.2213,33.1359],[35.4452,33.0716],[36.0244,33.5217],[36.0493,33.7789],[36.2347,34.1004],[36.2799,34.5506],[36.2029,34.5506],[36.3128,34.8723],[36.165,34.9366],[36.1849,35.1297],[36.3527,35.2584],[36.373,35.4514],[36.2318,35.5802],[35.9929,35.5158],[35.9153,35.2879],[35.9624,35.1979],[35.927,34.8723],[36.0682,34.7436],[36.0488,34.5506],[35.7921,34.2933],[35.7127,34.3279],[35.6652,34.3113],[35.6838,33.9718],[35.5909,33.9466],[35.572,33.91],[35.4705,33.9021],[35.4993,33.6502],[35.3944,33.65],[35.3653,33.5547],[35.3984,33.3931],[35.2272,33.2002],[35.2213,33.1359]]],[[[33.2382,35.001],[33.292,34.7436],[33.3939,34.7436],[33.4002,34.7734],[33.4387,34.7628],[33.6056,34.8218],[33.6541,34.9447],[33.7015,34.9729],[34.067,35.001],[34.022,35.057],[33.9431,35.0653],[34.0123,35.0638],[33.8999,35.1645],[33.9224,35.2734],[33.8086,35.3227],[33.4768,35.0027],[33.2382,35.001]],[[33.7592,34.9887],[33.7911,34.9824],[33.7874,34.98],[33.7592,34.9887]],[[33.6195,35.0168],[33.7115,34.9856],[33.7029,34.9879],[33.6195,35.0168]],[[33.6794,35.0349],[33.7022,35.0223],[33.6794,35.0339],[33.6794,35.0349]],[[33.6966,35.009],[33.7022,35.0223],[33.7002,35.0067],[33.6966,35.009]],[[33.8412,35.0511],[33.8801,35.0731],[33.8551,35.0534],[33.8412,35.0511]]],[[[10.5416,35.5158],[10.6192,35.3227],[11.0058,35.4514],[11.0057,35.3871],[11.0469,35.3871],[11.0577,35.4867],[11.0831,35.5053],[11.0392,35.5185],[11.0169,35.5986],[10.851,35.6445],[10.8245,35.7334],[10.8403,35.7644],[10.5416,35.5158]]],[[[-6.2475,36.6105],[-6.2008,36.5122],[-6.1794,36.5135],[-6.1942,36.4983],[-6.0625,36.224],[-5.8311,36.224],[-5.5848,36.0308],[-5.5162,36.1596],[-5.315,36.2164],[-5.2282,36.4816],[-4.6888,36.546],[-4.4686,36.7393],[-3.8507,36.8037],[-4.5551,36.8682],[-5.3104,36.546],[-5.3059,36.4816],[-5.4521,36.3528],[-5.9179,36.3528],[-6.2475,36.6105]]],[[[9.8397,36.7393],[10.2295,36.4172],[10.2299,36.2884],[10.4846,36.2356],[10.5077,36.3052],[10.4625,36.4172],[11.0062,36.8037],[11.0063,36.9971],[10.8751,36.9971],[10.5396,36.7393],[10.3553,36.7312],[10.2721,36.8161],[10.2472,36.7863],[10.1885,36.7976],[10.2529,36.8463],[10.3094,36.8346],[10.2282,36.8682],[9.9175,36.7393],[9.8397,36.7393]]],[[[7.2715,36.8682],[7.6651,36.546],[7.9057,36.8501],[7.7734,36.89],[7.7747,36.9326],[7.6596,36.9326],[7.6589,36.9844],[7.3463,37.0615],[7.2715,36.8682]]],[[[10.228,36.9326],[10.2282,36.8682],[10.306,36.8682],[10.3058,36.9218],[10.228,36.9326]]],[[[8.8429,36.9903],[8.9827,36.9326],[8.9833,36.8682],[9.2954,36.7393],[9.6828,36.9971],[9.9945,36.9326],[10.0716,37.126],[10.1804,37.081],[10.2244,37.0959],[10.2113,37.1376],[10.1281,37.1587],[10.2273,37.1639],[10.2272,37.1949],[10.1501,37.2337],[9.9934,37.1904],[9.925,37.213],[9.8799,37.1501],[9.8159,37.1518],[9.7718,37.2133],[9.8157,37.2491],[9.6158,37.3151],[9.0595,37.0615],[8.9723,37.0975],[8.8429,36.9903]]],[[[9.8196,37.2276],[9.8612,37.2338],[9.906,37.2193],[9.842,37.2404],[9.8196,37.2276]]]]}},{"type":"Feature","properties":{"territoryId":"cliopatria-q185047-1e9ba4336a","name":"(Spring and Autumn States)","name_ko":"춘추 시대","color":"#dda54b","colorFamily":1,"startYear":-749,"endYear":-550,"source_name":"Cliopatria v0.2.0","source_url":"https://github.com/Seshat-Global-History-Databank/cliopatria","license":"CC BY 4.0","attribution":"Seshat Global History Databank, Cliopatria contributors"},"geometry":{"type":"MultiPolygon","coordinates":[[[[107.9426,34.5506],[109.6896,34.4863],[110.3586,34.229],[110.8973,34.229],[110.872,34.1647],[110.489,33.9718],[110.4912,33.7789],[110.2115,33.6502],[110.2149,33.4574],[109.7829,33.3288],[109.7109,33.1359],[109.8165,33.0073],[109.5524,32.4931],[109.6288,32.4931],[109.3125,31.5933],[109.4752,31.4005],[109.3555,31.2719],[109.4861,31.2076],[109.4763,30.9506],[109.9158,30.4364],[110.4056,30.3079],[110.2273,29.9865],[110.6618,29.9223],[111.2987,29.5366],[111.8086,29.4723],[111.9959,29.3438],[112.9037,29.3438],[113.2668,29.5366],[113.5836,30.0508],[113.9506,30.2436],[114.1127,30.5007],[116.1186,30.3722],[116.0966,30.3079],[116.27,29.9223],[116.7364,29.7294],[117.1908,29.7294],[117.5269,29.6009],[117.9054,29.6009],[117.8842,29.5366],[117.9599,29.5366],[117.9811,29.6009],[118.3597,29.6009],[119.2257,29.9223],[119.7784,29.9865],[120.2424,29.7937],[121.3124,29.6009],[121.4369,29.475],[121.511,29.549],[121.5308,29.51],[121.6873,29.5626],[122.0108,29.8874],[121.7219,29.9605],[121.4054,30.3079],[121.1328,30.3079],[120.8088,30.1151],[120.6944,30.1721],[120.6463,30.1269],[120.7922,30.0661],[120.6318,30.1224],[120.7314,30.2338],[120.6216,30.3726],[120.4505,30.3689],[120.3847,30.2496],[120.2744,30.2776],[120.1471,30.1989],[120.2579,30.2981],[120.379,30.2735],[120.4791,30.4035],[120.6981,30.394],[120.7883,30.2938],[120.9981,30.5579],[121.2029,30.6651],[121.5192,30.822],[121.9131,30.859],[121.9551,30.9713],[121.877,31.0991],[121.7252,31.2816],[121.3203,31.5048],[121.1444,31.6847],[120.7315,31.8139],[120.7171,31.8611],[120.8248,31.8287],[120.7504,31.9783],[120.4695,32.0251],[120.23,31.9089],[120.0064,31.9503],[119.7725,32.1268],[119.7886,32.1986],[119.6904,32.2353],[119.606,32.1969],[119.6854,32.2924],[119.6129,32.3546],[119.8421,32.2991],[119.992,32.0159],[120.1314,31.9432],[120.2671,31.9487],[120.4908,32.0825],[120.6344,32.077],[120.8108,32.0226],[120.9407,31.8482],[121.1641,31.8265],[121.2864,31.8906],[121.8173,31.6909],[121.9173,31.7616],[121.7986,31.9705],[121.4434,32.1143],[121.3608,32.2316],[121.4193,32.2503],[121.3894,32.3849],[121.1008,32.498],[120.8303,32.6977],[120.9048,32.8126],[120.8958,33.0136],[120.8259,33.0302],[120.807,33.1378],[120.7302,33.2049],[120.7503,33.2696],[120.6672,33.3251],[120.6344,33.4669],[120.4837,33.65],[120.5049,33.7356],[120.3997,33.8693],[120.2571,34.3118],[119.6477,34.5338],[119.4422,34.746],[119.3421,34.7774],[119.1922,34.7182],[119.1929,35.0004],[119.2212,35.064],[119.358,35.0971],[119.4239,35.3135],[119.5319,35.3586],[119.648,35.5839],[119.7325,35.6208],[119.7439,35.5759],[119.8401,35.6579],[119.8602,35.6061],[119.9046,35.6246],[119.9082,35.7449],[120.0029,35.7278],[120.0972,35.9008],[120.189,35.9453],[120.1753,35.89],[120.2941,36.0024],[120.1753,35.9936],[120.0897,36.1117],[120.0972,36.2264],[120.2845,36.176],[120.3064,36.2742],[120.3616,36.1916],[120.292,36.062],[120.3535,36.0408],[120.6669,36.1321],[120.6436,36.3225],[120.7107,36.3245],[120.7141,36.4287],[120.95,36.4592],[120.9636,36.5479],[120.8504,36.6046],[120.7503,36.5408],[120.7506,36.6168],[120.8506,36.6509],[120.9774,36.5899],[121.4017,36.7124],[121.4595,36.8287],[121.6072,36.845],[121.5032,36.7886],[121.5247,36.7543],[121.9498,36.9389],[121.9263,36.9936],[122.0492,36.9799],[122.0365,36.8993],[122.1429,36.9458],[122.1661,37.0141],[122.1627,36.9458],[122.2659,36.898],[122.1852,36.8595],[122.3552,36.8291],[122.4364,36.8707],[122.4058,36.9222],[122.5268,36.9528],[122.54,37.0277],[122.4024,37.0215],[122.4539,37.1543],[122.4707,37.1103],[122.5735,37.2601],[122.5497,37.3198],[122.5947,37.2952],[122.5708,37.3448],[122.6847,37.4102],[122.2965,37.4182],[122.2454,37.4597],[122.1832,37.4182],[122.1218,37.5627],[122.0256,37.528],[121.988,37.4256],[121.635,37.4813],[121.5874,37.4536],[121.6761,37.4392],[121.5703,37.4287],[121.3817,37.5661],[121.4298,37.5969],[121.3936,37.6225],[121.1716,37.5771],[121.138,37.7012],[121.0326,37.7104],[120.9258,37.8193],[120.738,37.834],[120.2157,37.6841],[120.3225,37.6324],[120.1876,37.5118],[119.8589,37.3602],[119.8973,37.2494],[119.7706,37.1518],[119.2871,37.1373],[118.9612,37.2956],[118.97,37.5935],[119.0371,37.7221],[119.1746,37.7085],[119.2164,37.794],[118.9966,37.9631],[118.9248,38.0578],[118.95,38.0973],[118.7604,38.1551],[118.543,38.0683],[118.0652,38.1431],[117.6025,38.4806],[117.5435,38.6213],[117.584,38.8116],[117.7604,39.0355],[117.7154,39.1114],[118.028,39.2198],[118.2249,39.0618],[118.4054,39.0618],[118.5271,39.1492],[118.9894,39.1911],[119.2844,39.4496],[119.2814,39.575],[119.2293,39.536],[119.2086,39.5696],[119.2849,39.5954],[119.3804,39.7729],[119.5264,39.832],[119.5356,39.8908],[120.4722,40.2145],[120.6041,40.4652],[120.8253,40.674],[120.971,40.7381],[120.9363,40.7556],[120.9819,40.8268],[121.0488,40.799],[121.227,40.9384],[119.3442,40.4201],[117.5675,40.3554],[116.4522,39.9023],[116.1365,39.9023],[116.1021,39.8376],[115.8997,39.9023],[115.8312,39.7729],[115.4479,39.6436],[114.359,38.7389],[114.0917,38.6743],[114.1069,38.5451],[113.2674,37.7707],[112.2013,37.3193],[112.1722,37.2549],[109.6546,36.4816],[108.7896,35.7089],[108.2215,35.6445],[108.1695,35.5158],[108.3497,35.3871],[108.2982,35.2584],[108.4528,35.2584],[107.9426,34.5506]]],[[[119.7162,32.2726],[119.8193,32.2038],[119.792,32.1218],[119.9019,32.0734],[119.8143,32.2756],[119.7162,32.2726]]],[[[120.7502,37.8986],[120.7546,37.8967],[120.7549,37.8996],[120.7538,37.8998],[120.7502,37.8986]]],[[[121.212,31.8219],[121.4047,31.8032],[121.3861,31.8117],[121.3226,31.8293],[121.2641,31.8411],[121.2193,31.8295],[121.212,31.8219]]],[[[121.304,31.6734],[121.3145,31.6556],[121.5175,31.5684],[121.5715,31.5294],[121.6292,31.5179],[121.6335,31.529],[121.304,31.6734]]],[[[121.5845,31.4414],[121.5968,31.4332],[121.6004,31.4425],[121.5845,31.4414]]],[[[121.6461,31.4005],[121.78,31.3252],[121.7206,31.4005],[121.6461,31.4005]]],[[[121.6698,29.5124],[121.73,29.5221],[121.7246,29.5385],[121.7109,29.5386],[121.6698,29.5124]]],[[[121.745,29.5447],[121.8255,29.5462],[121.8696,29.6273],[121.745,29.5447]]],[[[121.7499,29.5253],[121.7633,29.5274],[121.764,29.5308],[121.7499,29.5253]]],[[[121.9336,29.9213],[121.9461,29.904],[121.9741,29.8998],[121.9924,29.9083],[121.9935,29.9188],[121.9771,29.9388],[121.952,29.9467],[121.9409,29.9377],[121.9336,29.9213]]]]}},{"type":"Feature","properties":{"territoryId":"cliopatria-q1025803-385afac00c","name":"Cai","name_ko":"채나라","color":"#5cd7e0","colorFamily":6,"startYear":-749,"endYear":-480,"source_name":"Cliopatria v0.2.0","source_url":"https://github.com/Seshat-Global-History-Databank/cliopatria","license":"CC BY 4.0","attribution":"Seshat Global History Databank, Cliopatria contributors"},"geometry":{"type":"Polygon","coordinates":[[[113.0284,34.5506],[113.3874,34.4863],[113.5908,34.229],[113.9266,34.4863],[113.9531,34.5506],[113.7509,34.8079],[113.6738,34.8079],[113.3414,34.9366],[113.2642,34.9366],[113.2376,34.8723],[113.1604,34.8723],[113.1339,34.8079],[113.0567,34.8079],[113.0303,34.7436],[113.0284,34.5506]]]}},{"type":"Feature","properties":{"territoryId":"cliopatria-q204077-061419df13","name":"Cao","name_ko":"조나라 (曹)","color":"#33e194","colorFamily":2,"startYear":-749,"endYear":-480,"source_name":"Cliopatria v0.2.0","source_url":"https://github.com/Seshat-Global-History-Databank/cliopatria","license":"CC BY 4.0","attribution":"Seshat Global History Databank, Cliopatria contributors"},"geometry":{"type":"Polygon","coordinates":[[[114.3759,35.194],[114.499,34.9366],[115.2311,35.3871],[114.9554,35.6445],[115.0114,35.7733],[114.8565,35.7733],[114.4081,35.4514],[114.3759,35.194]]]}},{"type":"Feature","properties":{"territoryId":"cliopatria-q1069690-7cfd850f2a","name":"Chen","name_ko":"진나라 (陳)","color":"#4b88dd","colorFamily":0,"startYear":-749,"endYear":-480,"source_name":"Cliopatria v0.2.0","source_url":"https://github.com/Seshat-Global-History-Databank/cliopatria","license":"CC BY 4.0","attribution":"Seshat Global History Databank, Cliopatria contributors"},"geometry":{"type":"Polygon","coordinates":[[[113.7509,34.8079],[113.9531,34.5506],[113.9266,34.4863],[114.1557,34.2933],[115.5947,34.422],[115.4942,34.5506],[114.6466,34.5506],[114.3412,34.7436],[114.4721,34.8723],[113.7509,34.8079]]]}},{"type":"Feature","properties":{"territoryId":"cliopatria-q504759-a596384ca7","name":"Chu","name_ko":"초나라","color":"#7aebd9","colorFamily":2,"startYear":-749,"endYear":-700,"source_name":"Cliopatria v0.2.0","source_url":"https://github.com/Seshat-Global-History-Databank/cliopatria","license":"CC BY 4.0","attribution":"Seshat Global History Databank, Cliopatria contributors"},"geometry":{"type":"Polygon","coordinates":[[[109.3125,31.5933],[109.4752,31.4005],[109.3555,31.2719],[109.4861,31.2076],[109.4763,30.9506],[109.9158,30.4364],[110.4056,30.3079],[110.2273,29.9865],[110.6618,29.9223],[111.2987,29.5366],[111.8086,29.4723],[111.9959,29.3438],[112.9037,29.3438],[113.2668,29.5366],[113.5836,30.0508],[113.9506,30.2436],[114.1127,30.5007],[116.1186,30.3722],[116.8374,30.6935],[117.0208,31.2076],[117.1096,31.6575],[118.3194,32.4288],[118.9058,32.943],[118.5746,33.0716],[118.449,33.3288],[118.118,33.4574],[118.0436,33.6502],[117.7629,33.7146],[117.7392,33.8432],[117.2311,34.1004],[116.6157,34.1004],[116.107,34.3577],[115.5947,34.422],[114.1557,34.2933],[113.9266,34.4863],[113.5908,34.229],[113.3874,34.4863],[113.0284,34.5506],[113.0303,34.7436],[112.617,34.4863],[112.1548,34.4863],[110.8973,34.229],[110.872,34.1647],[110.489,33.9718],[110.4912,33.7789],[110.2115,33.6502],[110.2149,33.4574],[109.7829,33.3288],[109.7109,33.1359],[109.8165,33.0073],[109.5524,32.4931],[109.6288,32.4931],[109.3125,31.5933]]]}},{"type":"Feature","properties":{"territoryId":"cliopatria-q128904-1175fc4c43","name":"Elam","name_ko":"엘람","color":"#f0b875","colorFamily":1,"startYear":-799,"endYear":-700,"source_name":"Cliopatria v0.2.0","source_url":"https://github.com/Seshat-Global-History-Databank/cliopatria","license":"CC BY 4.0","attribution":"Seshat Global History Databank, Cliopatria contributors"},"geometry":{"type":"Polygon","coordinates":[[[47.5909,32.236],[47.6419,32.0431],[47.9134,31.7861],[47.7113,31.4005],[47.6549,30.9506],[48.3992,30.822],[48.671,30.565],[48.8988,30.565],[48.8828,30.4364],[49.0338,30.4295],[48.9456,30.4797],[48.9815,30.5156],[49.1668,30.5088],[49.1682,30.477],[49.2112,30.5063],[49.2283,30.4544],[49.2638,30.4497],[49.2029,30.3466],[49.062,30.4081],[49.0302,30.4005],[49.0187,30.3079],[49.1614,30.2238],[49.2212,30.2646],[49.2451,30.1565],[49.3499,30.1753],[49.4798,30.1561],[49.5038,30.0642],[49.5513,30.0193],[49.9146,30.2039],[50.0241,30.2163],[50.079,30.1849],[50.3846,30.3079],[50.4937,30.565],[50.0714,30.822],[50.1053,31.0791],[49.9788,31.2719],[50.2864,31.8503],[50.0171,32.1074],[50.0352,32.236],[49.9588,32.236],[49.7169,32.6859],[49.2488,32.6216],[49.2761,32.8145],[49.0464,32.8145],[48.9881,32.943],[48.087,33.0716],[47.7868,32.5574],[47.7437,32.236],[47.5909,32.236]]]}},{"type":"Feature","properties":{"territoryId":"cliopatria-q17161-c181b09960","name":"Etruscans","name_ko":"에트루리아인","color":"#e7cb7e","colorFamily":1,"startYear":-749,"endYear":-650,"source_name":"Cliopatria v0.2.0","source_url":"https://github.com/Seshat-Global-History-Databank/cliopatria","license":"CC BY 4.0","attribution":"Seshat Global History Databank, Cliopatria contributors"},"geometry":{"type":"MultiPolygon","coordinates":[[[[10.2934,43.7982],[10.4289,43.3968],[10.5282,43.2468],[10.5391,43.0796],[11.0163,42.8213],[11.0159,42.6629],[11.0788,42.6262],[11.176,42.6262],[11.2552,42.4312],[11.4152,42.4312],[11.4485,42.3766],[11.569,42.3314],[11.6548,42.3662],[11.7351,42.1705],[11.8927,42.1063],[12.4517,42.1063],[12.3678,41.7167],[13,41.3274],[13.7145,41.2625],[13.8712,41.1328],[14.0349,41.3922],[14.0411,41.7167],[13.8056,41.9114],[13.5652,41.8465],[13.327,41.9114],[13.329,42.0413],[13.0106,42.1063],[13.0924,42.2362],[13.3311,42.1712],[13.2572,42.5612],[13.4173,42.5612],[13.4996,42.6912],[13.1811,42.8213],[12.9495,43.4723],[12.5464,43.4072],[11.9866,43.7982],[10.2934,43.7982]]],[[[10.1632,42.8164],[10.1963,42.7362],[10.3379,42.7648],[10.3814,42.7226],[10.4307,42.7221],[10.3888,42.7635],[10.4367,42.8044],[10.4434,42.8454],[10.4124,42.8734],[10.3473,42.8059],[10.3268,42.8262],[10.2721,42.8273],[10.2659,42.8044],[10.1632,42.8164]]]]}},{"type":"Feature","properties":{"territoryId":"cliopatria-q148837-11892bffbd","name":"Greek City-States","name_ko":"그리스 도시국가들","color":"#a95ce0","colorFamily":4,"startYear":-799,"endYear":-750,"source_name":"Cliopatria v0.2.0","source_url":"https://github.com/Seshat-Global-History-Databank/cliopatria","license":"CC BY 4.0","attribution":"Seshat Global History Databank, Cliopatria contributors"},"geometry":{"type":"MultiPolygon","coordinates":[[[[32.2717,35.0728],[32.3294,34.8864],[32.3792,34.8491],[32.4133,34.7535],[32.7724,34.656],[32.9136,34.6567],[32.9446,34.5685],[33.0138,34.5909],[33.0259,34.6513],[33.0864,34.6948],[33.2821,34.7076],[33.2382,35.001],[33.4698,35.001],[33.8086,35.3227],[33.9224,35.2734],[33.9714,35.3213],[34.0589,35.3241],[34.1377,35.4151],[34.5346,35.6332],[34.5384,35.671],[34.1817,35.5542],[34.0356,35.4714],[33.6603,35.3593],[33.4275,35.3289],[32.9231,35.3871],[32.9294,35.233],[32.8652,35.157],[32.6897,35.1839],[32.5141,35.1297],[32.4138,35.043],[32.3534,35.0479],[32.2866,35.0972],[32.2717,35.0728]],[[32.712,35.1731],[32.7315,35.1432],[32.7127,35.1634],[32.712,35.1731]]],[[[23.6154,35.5158],[23.6792,35.2584],[24.4484,35.194],[24.7574,35.194],[24.8237,35.001],[26.1401,35.0653],[26.2253,35.194],[25.8469,35.1493],[25.7953,35.1151],[25.6806,35.1297],[25.6923,35.3227],[25.4536,35.2941],[25.3991,35.3227],[24.301,35.3227],[24.1499,35.3871],[24.1541,35.465],[24.0669,35.507],[24.1569,35.5158],[23.6154,35.5158]]],[[[27.708,36.1688],[27.714,36.1225],[27.7571,36.0844],[27.7311,35.9907],[27.7519,35.905],[27.8638,35.9413],[27.9934,36.062],[28.0896,36.0551],[28.0964,36.1035],[28.0617,36.1165],[28.1634,36.2377],[28.2311,36.4498],[27.8997,36.3402],[27.8032,36.2702],[27.772,36.1978],[27.708,36.1688]]],[[[26.9177,36.7161],[26.9303,36.7011],[26.9845,36.7229],[26.992,36.7536],[27.1854,36.8037],[27.1442,36.8811],[26.986,36.7676],[26.9264,36.7656],[26.9177,36.7161]]],[[[25.3418,37.083],[25.3936,36.9971],[25.5644,36.9971],[25.5727,37.126],[25.4128,37.126],[25.3418,37.083]]],[[[27.2288,37.0618],[27.2632,36.9634],[27.3081,36.9594],[27.3286,37.0141],[27.3765,37.0277],[27.3833,36.9936],[27.3968,37.0277],[27.4385,37.0277],[27.5476,36.9809],[27.6663,36.9971],[27.7538,37.126],[27.6028,37.1904],[27.5288,37.1904],[27.5651,37.1256],[27.4598,37.0895],[27.4385,37.124],[27.3833,37.1518],[27.3423,37.1301],[27.3363,37.152],[27.3218,37.124],[27.2529,37.124],[27.2944,37.1103],[27.2288,37.0618]]],[[[21.2436,37.8352],[21.6966,37.5128],[21.6664,37.4088],[21.6958,37.3164],[21.6031,37.1904],[21.681,37.1904],[21.7435,36.8682],[21.8992,36.8682],[21.9085,37.0615],[22.22,37.0615],[22.3356,36.7337],[22.388,36.7062],[22.3757,36.6749],[22.5118,36.6749],[22.5994,36.8682],[22.8328,36.8682],[23.0332,36.6946],[22.8532,37.2549],[22.7007,37.3193],[22.7144,37.5773],[22.7783,37.5969],[22.9486,37.5773],[23.1756,37.4483],[23.1685,37.3193],[23.278,37.3498],[23.2302,37.3846],[23.3849,37.4134],[23.36,37.5475],[23.3367,37.5355],[23.1686,37.6142],[23.1626,37.6417],[23.1083,37.6417],[23.0586,37.8427],[23.0125,37.8476],[22.9951,37.8821],[23.0151,37.9252],[23.0941,37.911],[23.2044,37.963],[23.2082,38.0288],[23.5746,38.0468],[23.5979,38.0211],[23.5597,37.9866],[23.9786,37.8352],[24.0021,38.2224],[24.0361,38.2224],[23.951,38.2909],[23.6729,38.3564],[23.5735,38.4534],[23.5929,38.4806],[23.3126,38.4806],[23.1826,38.6538],[23.1045,38.6384],[23.0698,38.7015],[22.9356,38.7389],[22.9149,38.7756],[22.8672,38.7551],[22.8293,38.7861],[22.7783,38.7817],[22.7026,38.8507],[22.5934,38.8302],[22.5539,38.8481],[22.5729,38.8643],[22.5404,38.8601],[22.3863,38.7389],[21.912,38.6743],[21.6015,38.7389],[21.278,38.5451],[21.2716,38.416],[21.3401,38.4065],[21.3533,38.4329],[21.3225,38.4963],[21.3601,38.4677],[21.3769,38.4015],[21.7163,38.3579],[21.7625,38.3284],[21.8312,38.3967],[21.8792,38.378],[21.9876,38.4106],[22.1326,38.3727],[22.1892,38.3231],[22.2249,38.3601],[22.3823,38.3427],[22.4016,38.4534],[22.4684,38.4211],[22.5625,38.2935],[22.6003,38.3026],[22.5872,38.3367],[22.6462,38.3618],[22.6268,38.3715],[22.6465,38.39],[22.6965,38.3169],[22.7988,38.2821],[22.7648,38.248],[22.8057,38.227],[22.895,38.2412],[22.9087,38.1928],[22.9695,38.1928],[22.9224,38.207],[22.9519,38.2253],[23.0667,38.1832],[23.1227,38.2081],[23.1489,38.1859],[23.1284,38.1723],[23.2234,38.1592],[23.1755,38.145],[23.2166,38.1033],[23.0686,38.0589],[22.9429,38.0835],[22.854,38.0351],[22.9754,37.979],[22.9463,37.9462],[22.8672,37.9395],[22.6804,38.0666],[22.3312,38.1789],[22.2185,38.1882],[22.0204,38.3132],[21.8495,38.3413],[21.7333,38.2514],[21.7286,38.1578],[21.4156,38.1578],[21.2436,37.8352]]],[[[22.344,39.385],[22.5615,39.0618],[22.5514,38.8835],[22.6216,38.9145],[22.689,38.878],[22.792,38.878],[22.8465,38.9264],[22.9845,38.9543],[23.0667,39.0327],[22.9639,39.009],[22.9981,39.0698],[22.9516,39.1238],[22.7973,39.0618],[22.8163,39.385],[23.1318,39.4489],[22.7569,39.7083],[22.7648,39.8376],[22.6109,39.9023],[22.6497,39.9853],[22.593,40.0329],[22.5319,39.9023],[22.5877,39.5143],[22.344,39.385]]],[[[22.833,38.8227],[22.9415,38.8412],[22.9694,38.8891],[23.1825,38.9326],[23.1787,38.868],[23.4888,38.8034],[23.3435,38.9972],[23.1116,38.9972],[23.0868,38.9543],[22.8748,38.8749],[22.833,38.8227]]],[[[23.0356,36.6926],[23.0463,36.6833],[23.0517,36.6872],[23.0498,36.6926],[23.0356,36.6926]]],[[[23.3122,37.6174],[23.3406,37.6003],[23.3536,37.5821],[23.3442,37.6327],[23.3122,37.6174]]],[[[23.4014,37.3193],[23.4024,37.3193],[23.4023,37.3198],[23.4014,37.3193]]],[[[23.5634,38.7389],[23.6355,38.5286],[23.594,38.4534],[23.6144,38.4609],[23.6492,38.4057],[24.0422,38.4015],[24.0669,38.351],[24.0254,38.3305],[24.1216,38.3095],[24.1094,38.2563],[24.1617,38.2698],[24.1789,38.5451],[24.0302,38.6743],[23.5634,38.7389]]],[[[24.1275,38.2224],[24.1591,38.2287],[24.1614,38.2661],[24.1275,38.2224]]],[[[25.8407,38.5224],[25.9439,38.4534],[25.9507,38.4057],[25.989,38.3793],[25.9644,38.3026],[25.885,38.2794],[25.8898,38.2206],[26.0115,38.1578],[26.0401,38.2002],[26.1121,38.2226],[26.1022,38.2617],[26.1581,38.329],[26.1541,38.4673],[26.1219,38.4875],[26.1636,38.5428],[26.1307,38.5672],[26.1082,38.5428],[26.0159,38.602],[25.8696,38.5831],[25.8407,38.5224]]],[[[23.4849,38.7389],[23.5634,38.7389],[23.5668,38.7946],[23.4888,38.8034],[23.4849,38.7389]]]]}},{"type":"Feature","properties":{"territoryId":"cliopatria-q148837-11892bffbd","name":"Greek City-States","name_ko":"그리스 도시국가들","color":"#a95ce0","colorFamily":4,"startYear":-749,"endYear":-700,"source_name":"Cliopatria v0.2.0","source_url":"https://github.com/Seshat-Global-History-Databank/cliopatria","license":"CC BY 4.0","attribution":"Seshat Global History Databank, Cliopatria contributors"},"geometry":{"type":"MultiPolygon","coordinates":[[[[22.9016,36.3383],[22.9292,36.178],[23.0533,36.1596],[23.0584,36.2165],[23.1039,36.2372],[23.0769,36.2707],[22.9446,36.3894],[22.9016,36.3383]]],[[[24.2754,37.5317],[24.3958,37.6247],[24.3728,37.6852],[24.2893,37.6453],[24.2754,37.5317]]],[[[20.6195,37.8228],[20.7934,37.6685],[20.8481,37.6571],[20.8435,37.7016],[20.9261,37.7284],[20.886,37.814],[20.7525,37.8549],[20.7247,37.8998],[20.6554,37.8998],[20.6195,37.8228]]],[[[20.339,38.2002],[20.3801,38.1518],[20.4253,38.1753],[20.4351,38.2788],[20.5098,38.1797],[20.4688,38.1928],[20.4943,38.1337],[20.7865,38.0933],[20.7887,38.1412],[20.6817,38.2821],[20.6429,38.2534],[20.5991,38.3026],[20.6258,38.3518],[20.5664,38.416],[20.5411,38.416],[20.5298,38.3375],[20.479,38.3095],[20.3999,38.3641],[20.339,38.2002]]],[[[20.6878,38.3367],[20.7194,38.3156],[20.7387,38.3189],[20.6951,38.3434],[20.6878,38.3367]]],[[[21.2436,37.8352],[21.6966,37.5128],[21.6664,37.4088],[21.6958,37.3164],[21.6031,37.1904],[21.681,37.1904],[21.7435,36.8682],[21.8992,36.8682],[21.9085,37.0615],[22.22,37.0615],[22.3356,36.7337],[22.388,36.7062],[22.3757,36.6749],[22.5118,36.6749],[22.5994,36.8682],[22.8328,36.8682],[23.0332,36.6946],[22.8532,37.2549],[22.7007,37.3193],[22.7144,37.5773],[22.7783,37.5969],[22.9486,37.5773],[23.1756,37.4483],[23.1685,37.3193],[23.278,37.3498],[23.2302,37.3846],[23.3849,37.4134],[23.36,37.5475],[23.3367,37.5355],[23.1686,37.6142],[23.1626,37.6417],[23.1083,37.6417],[23.0586,37.8427],[23.0125,37.8476],[22.9951,37.8821],[23.0151,37.9252],[23.0941,37.911],[23.2044,37.963],[23.2082,38.0288],[23.5746,38.0468],[23.5979,38.0211],[23.5597,37.9866],[23.9786,37.8352],[24.0021,38.2224],[24.0361,38.2224],[23.951,38.2909],[23.6729,38.3564],[23.5735,38.4534],[23.5929,38.4806],[23.3126,38.4806],[23.1826,38.6538],[23.1045,38.6384],[23.0698,38.7015],[22.9356,38.7389],[22.9149,38.7756],[22.8672,38.7551],[22.8293,38.7861],[22.7783,38.7817],[22.7026,38.8507],[22.5934,38.8302],[22.5539,38.8481],[22.5729,38.8643],[22.5404,38.8601],[22.3863,38.7389],[21.912,38.6743],[21.6015,38.7389],[21.278,38.5451],[21.2716,38.416],[21.3401,38.4065],[21.3533,38.4329],[21.3225,38.4963],[21.3601,38.4677],[21.3769,38.4015],[21.7163,38.3579],[21.7625,38.3284],[21.8312,38.3967],[21.8792,38.378],[21.9876,38.4106],[22.1326,38.3727],[22.1892,38.3231],[22.2249,38.3601],[22.3823,38.3427],[22.4016,38.4534],[22.4684,38.4211],[22.5625,38.2935],[22.6003,38.3026],[22.5872,38.3367],[22.6462,38.3618],[22.6268,38.3715],[22.6465,38.39],[22.6965,38.3169],[22.7988,38.2821],[22.7648,38.248],[22.8057,38.227],[22.895,38.2412],[22.9087,38.1928],[22.9695,38.1928],[22.9224,38.207],[22.9519,38.2253],[23.0667,38.1832],[23.1227,38.2081],[23.1489,38.1859],[23.1284,38.1723],[23.2234,38.1592],[23.1755,38.145],[23.2166,38.1033],[23.0686,38.0589],[22.9429,38.0835],[22.854,38.0351],[22.9754,37.979],[22.9463,37.9462],[22.8672,37.9395],[22.6804,38.0666],[22.3312,38.1789],[22.2185,38.1882],[22.0204,38.3132],[21.8495,38.3413],[21.7333,38.2514],[21.7286,38.1578],[21.4156,38.1578],[21.2436,37.8352]]],[[[22.344,39.385],[22.5615,39.0618],[22.5514,38.8835],[22.6216,38.9145],[22.689,38.878],[22.792,38.878],[22.8465,38.9264],[22.9845,38.9543],[23.0731,39.0363],[22.9639,39.009],[22.9981,39.0493],[22.9767,39.0983],[22.7973,39.0618],[22.8163,39.385],[23.1318,39.4489],[22.7569,39.7083],[22.7648,39.8376],[22.6109,39.9023],[22.6497,39.9853],[22.593,40.0329],[22.5319,39.9023],[22.5877,39.5143],[22.344,39.385]]],[[[22.833,38.8227],[22.9415,38.8412],[22.9694,38.8891],[23.1825,38.9326],[23.1787,38.868],[23.4888,38.8034],[23.3435,38.9972],[23.1116,38.9972],[23.0868,38.9543],[22.8748,38.8749],[22.833,38.8227]]],[[[23.0356,36.6926],[23.0463,36.6833],[23.0517,36.6872],[23.0498,36.6926],[23.0356,36.6926]]],[[[23.052,39.0977],[23.1132,39.0886],[23.1146,39.1106],[23.052,39.0977]]],[[[23.3122,37.6174],[23.3406,37.6003],[23.3536,37.5821],[23.3442,37.6327],[23.3122,37.6174]]],[[[23.4014,37.3193],[23.4024,37.3193],[23.4023,37.3198],[23.4014,37.3193]]],[[[23.5634,38.7389],[23.6355,38.5286],[23.594,38.4534],[23.6144,38.4609],[23.6492,38.4057],[24.0422,38.4015],[24.0669,38.351],[24.0254,38.3305],[24.1216,38.3095],[24.1094,38.2563],[24.1617,38.2698],[24.1789,38.5451],[24.0302,38.6743],[23.5634,38.7389]]],[[[24.1275,38.2224],[24.1591,38.2287],[24.1614,38.2661],[24.1275,38.2224]]],[[[20.5504,38.6097],[20.716,38.627],[20.7225,38.7073],[20.697,38.6898],[20.7293,38.7817],[20.6863,38.8501],[20.6026,38.7817],[20.5504,38.6097]]],[[[20.7293,38.8098],[20.7412,38.8001],[20.7432,38.8426],[20.7293,38.8098]]],[[[23.4849,38.7389],[23.5634,38.7389],[23.5668,38.7946],[23.4888,38.8034],[23.4849,38.7389]]],[[[23.3059,40.1045],[23.3816,40.0027],[23.3606,39.9611],[23.471,39.9716],[23.6381,39.9207],[23.6427,39.9912],[23.4989,40.0423],[23.4006,40.144],[23.3636,40.1505],[23.3398,40.2259],[23.3065,40.2259],[23.3246,40.175],[23.3059,40.1045]]],[[[23.4246,40.2787],[23.5023,40.2576],[23.5045,40.2906],[23.4246,40.2787]]],[[[23.6584,40.2268],[23.7374,40.2259],[23.6936,40.3092],[23.7278,40.3554],[23.667,40.3554],[23.6584,40.2268]]],[[[23.7412,40.3554],[23.746,40.3538],[23.7461,40.3554],[23.7412,40.3554]]],[[[32.2717,35.0728],[32.3294,34.8864],[32.3792,34.8491],[32.4133,34.7535],[32.7724,34.656],[32.9136,34.6567],[32.9446,34.5685],[33.0138,34.5909],[33.0259,34.6513],[33.0864,34.6948],[33.2821,34.7076],[33.2382,35.001],[33.4698,35.001],[33.8086,35.3227],[33.9224,35.2734],[33.9714,35.3213],[34.0589,35.3241],[34.1377,35.4151],[34.5346,35.6332],[34.5384,35.671],[34.1817,35.5542],[34.0356,35.4714],[33.6603,35.3593],[33.4275,35.3289],[32.9231,35.3871],[32.9294,35.233],[32.8652,35.157],[32.6897,35.1839],[32.5141,35.1297],[32.4138,35.043],[32.3534,35.0479],[32.2866,35.0972],[32.2717,35.0728]],[[32.712,35.1731],[32.7315,35.1432],[32.7127,35.1634],[32.712,35.1731]]],[[[23.6154,35.5158],[23.6792,35.2584],[24.4484,35.194],[24.7574,35.194],[24.8237,35.001],[26.1401,35.0653],[26.2253,35.194],[25.8469,35.1493],[25.7953,35.1151],[25.6806,35.1297],[25.6923,35.3227],[25.4536,35.2941],[25.3991,35.3227],[24.301,35.3227],[24.1499,35.3871],[24.1541,35.465],[24.0669,35.507],[24.1569,35.5158],[23.6154,35.5158]]],[[[27.708,36.1688],[27.714,36.1225],[27.7571,36.0844],[27.7311,35.9907],[27.7519,35.905],[27.8638,35.9413],[27.9934,36.062],[28.0896,36.0551],[28.0964,36.1035],[28.0617,36.1165],[28.1634,36.2377],[28.2311,36.4498],[27.8997,36.3402],[27.8032,36.2702],[27.772,36.1978],[27.708,36.1688]]],[[[26.9177,36.7161],[26.9303,36.7011],[26.9845,36.7229],[26.992,36.7536],[27.1854,36.8037],[27.1442,36.8811],[26.986,36.7676],[26.9264,36.7656],[26.9177,36.7161]]],[[[25.3418,37.083],[25.3936,36.9971],[25.5644,36.9971],[25.5727,37.126],[25.4128,37.126],[25.3418,37.083]]],[[[27.2288,37.0618],[27.2632,36.9634],[27.3081,36.9594],[27.3286,37.0141],[27.3765,37.0277],[27.3833,36.9936],[27.3968,37.0277],[27.4385,37.0277],[27.5476,36.9809],[27.6663,36.9971],[27.7538,37.126],[27.6028,37.1904],[27.5288,37.1904],[27.5651,37.1256],[27.4598,37.0895],[27.4385,37.124],[27.3833,37.1518],[27.3423,37.1301],[27.3363,37.152],[27.3218,37.124],[27.2529,37.124],[27.2944,37.1103],[27.2288,37.0618]]],[[[24.9955,37.6789],[25.0113,37.6323],[25.1255,37.5559],[25.216,37.5329],[25.2593,37.59],[25.2456,37.6242],[24.9955,37.6789]]],[[[24.6878,37.9287],[24.7162,37.8791],[24.7385,37.8918],[24.9118,37.7283],[24.9944,37.7541],[24.9575,37.7744],[24.9849,37.816],[24.9434,37.8433],[24.9538,37.8707],[24.8484,37.9149],[24.7937,37.9941],[24.6936,37.9658],[24.6878,37.9287]]],[[[25.8407,38.5224],[25.9439,38.4534],[25.9507,38.4057],[25.989,38.3793],[25.9644,38.3026],[25.885,38.2794],[25.8898,38.2206],[26.0115,38.1578],[26.0401,38.2002],[26.1121,38.2226],[26.1022,38.2617],[26.1581,38.329],[26.1541,38.4673],[26.1219,38.4875],[26.1636,38.5428],[26.1307,38.5672],[26.1082,38.5428],[26.0159,38.602],[25.8696,38.5831],[25.8407,38.5224]]],[[[24.4362,38.878],[24.557,38.8457],[24.574,38.8098],[24.5368,38.7918],[24.6643,38.7732],[24.6673,38.8185],[24.5786,38.8756],[24.574,38.9326],[24.523,38.9643],[24.4611,38.9677],[24.4362,38.878]]]]}},{"type":"Feature","properties":{"territoryId":"cliopatria-q6201794-416f00ba7e","name":"Jin","name_ko":"진나라 (晉)","color":"#e7a87e","colorFamily":5,"startYear":-749,"endYear":-550,"source_name":"Cliopatria v0.2.0","source_url":"https://github.com/Seshat-Global-History-Databank/cliopatria","license":"CC BY 4.0","attribution":"Seshat Global History Databank, Cliopatria contributors"},"geometry":{"type":"Polygon","coordinates":[[[110.5884,34.8079],[110.7168,34.7436],[110.6911,34.4863],[110.8196,34.422],[110.8203,34.229],[110.8973,34.229],[112.1548,34.4863],[112.1837,34.9366],[112.1066,34.9366],[112.3199,35.4514],[113.5301,35.3871],[114.226,35.3871],[114.2809,35.5158],[114.3144,35.7733],[114.6098,36.0952],[115.4417,36.7393],[115.9611,37.1904],[116.2215,37.5773],[116.4394,37.7062],[116.5955,38.0288],[117.1971,38.6097],[116.1454,38.5451],[116.3993,38.7389],[116.1639,38.7389],[116.2618,38.9326],[116.0919,39.0618],[116.1009,39.385],[115.8648,39.385],[116.1021,39.8376],[116.0232,39.8376],[115.8997,39.9023],[115.8312,39.7729],[115.4479,39.6436],[114.359,38.7389],[114.0917,38.6743],[114.1069,38.5451],[113.2674,37.7707],[112.2013,37.3193],[112.1722,37.2549],[111.4133,36.4172],[111.2303,36.3528],[111.0618,35.7733],[111.1628,35.6445],[111.0029,35.2584],[110.6662,35.001],[110.5884,34.8079]]]}},{"type":"Feature","properties":{"territoryId":"cliopatria-q3185305-438ad53cce","name":"Kingdom of Israel","name_ko":"연합 이스라엘 왕국","color":"#ec518c","colorFamily":3,"startYear":-799,"endYear":-750,"source_name":"Cliopatria v0.2.0","source_url":"https://github.com/Seshat-Global-History-Databank/cliopatria","license":"CC BY 4.0","attribution":"Seshat Global History Databank, Cliopatria contributors"},"geometry":{"type":"Polygon","coordinates":[[[34.8725,32.4288],[35.0047,32.4288],[35.1406,32.236],[35.0365,31.9146],[35.5705,31.9146],[35.63,31.7218],[35.7062,31.7218],[35.8643,31.7861],[35.8051,31.9789],[35.8814,31.9789],[36.0456,32.1074],[35.8987,32.1717],[35.9103,32.3002],[36.3101,32.4931],[36.1751,32.6859],[35.9515,32.7502],[36.0704,33.2002],[35.7698,33.2645],[35.7759,33.3288],[35.4452,33.0716],[35.2213,33.1359],[35.2154,33.0716],[35.089,33.0205],[35.0654,32.9231],[35.0796,32.9058],[35.0628,32.8583],[35.0412,32.8388],[35.0218,32.6216],[34.8945,32.522],[34.8725,32.4288]],[[35.552,32.3679],[35.5533,32.3691],[35.5656,32.3134],[35.552,32.3679]],[[35.5568,32.3724],[35.5594,32.3748],[35.5656,32.3679],[35.5568,32.3724]],[[35.5585,32.5191],[35.5614,32.5192],[35.5674,32.5102],[35.5585,32.5191]],[[35.5594,32.4704],[35.5626,32.4747],[35.5725,32.4567],[35.5594,32.4704]],[[35.5688,32.4829],[35.5778,32.4948],[35.58,32.4915],[35.5688,32.4829]],[[35.7716,32.7467],[35.7749,32.7473],[35.7882,32.7344],[35.7716,32.7467]]]}},{"type":"Feature","properties":{"territoryId":"cliopatria-q3185305-438ad53cce","name":"Kingdom of Israel","name_ko":"연합 이스라엘 왕국","color":"#ec518c","colorFamily":3,"startYear":-749,"endYear":-700,"source_name":"Cliopatria v0.2.0","source_url":"https://github.com/Seshat-Global-History-Databank/cliopatria","license":"CC BY 4.0","attribution":"Seshat Global History Databank, Cliopatria contributors"},"geometry":{"type":"Polygon","coordinates":[[[34.8725,32.4288],[35.0047,32.4288],[35.1406,32.236],[35.0365,31.9146],[35.5705,31.9146],[35.63,31.7218],[35.7062,31.7218],[35.8643,31.7861],[35.8051,31.9789],[35.8814,31.9789],[36.0456,32.1074],[35.8987,32.1717],[35.9103,32.3002],[36.3101,32.4931],[36.1751,32.6859],[35.9515,32.7502],[36.0704,33.2002],[35.7698,33.2645],[35.7759,33.3288],[35.4452,33.0716],[35.2213,33.1359],[35.2154,33.0716],[35.089,33.0205],[35.0654,32.9231],[35.0796,32.9058],[35.0628,32.8583],[35.0412,32.8388],[35.0218,32.6216],[34.8945,32.522],[34.8725,32.4288]],[[35.552,32.3679],[35.5533,32.3691],[35.5656,32.3134],[35.552,32.3679]],[[35.5568,32.3724],[35.5594,32.3748],[35.5656,32.3679],[35.5568,32.3724]],[[35.5585,32.5191],[35.5614,32.5192],[35.5674,32.5102],[35.5585,32.5191]],[[35.5594,32.4704],[35.5626,32.4747],[35.5725,32.4567],[35.5594,32.4704]],[[35.5688,32.4829],[35.5778,32.4948],[35.58,32.4915],[35.5688,32.4829]],[[35.7716,32.7467],[35.7749,32.7473],[35.7882,32.7344],[35.7716,32.7467]]]}},{"type":"Feature","properties":{"territoryId":"cliopatria-q48685-09a15d87d0","name":"Kingdom of Judah","name_ko":"유다 왕국","color":"#7e87e7","colorFamily":0,"startYear":-799,"endYear":-750,"source_name":"Cliopatria v0.2.0","source_url":"https://github.com/Seshat-Global-History-Databank/cliopatria","license":"CC BY 4.0","attribution":"Seshat Global History Databank, Cliopatria contributors"},"geometry":{"type":"Polygon","coordinates":[[[34.607,31.3362],[35.2161,31.3362],[35.4549,31.4335],[35.4593,31.4958],[35.4551,31.4335],[35.5316,31.4647],[35.5537,31.7218],[35.63,31.7218],[35.5705,31.9146],[35.0365,31.9146],[34.6122,31.4005],[34.607,31.3362]]]}},{"type":"Feature","properties":{"territoryId":"cliopatria-q48685-09a15d87d0","name":"Kingdom of Judah","name_ko":"유다 왕국","color":"#7e87e7","colorFamily":0,"startYear":-749,"endYear":-700,"source_name":"Cliopatria v0.2.0","source_url":"https://github.com/Seshat-Global-History-Databank/cliopatria","license":"CC BY 4.0","attribution":"Seshat Global History Databank, Cliopatria contributors"},"geometry":{"type":"Polygon","coordinates":[[[34.607,31.3362],[35.2161,31.3362],[35.4549,31.4335],[35.4593,31.4958],[35.4551,31.4335],[35.5316,31.4647],[35.5537,31.7218],[35.63,31.7218],[35.5705,31.9146],[35.0365,31.9146],[34.6122,31.4005],[34.607,31.3362]]]}},{"type":"Feature","properties":{"territoryId":"cliopatria-q241790-c835c9c865","name":"Kingdom of Kush","name_ko":"쿠시 왕국","color":"#e13373","colorFamily":3,"startYear":-799,"endYear":-700,"source_name":"Cliopatria v0.2.0","source_url":"https://github.com/Seshat-Global-History-Databank/cliopatria","license":"CC BY 4.0","attribution":"Seshat Global History Databank, Cliopatria contributors"},"geometry":{"type":"MultiPolygon","coordinates":[[[[30.5372,23.3649],[30.742,22.8506],[30.7214,22.272],[30.5615,21.9505],[30.6358,21.9505],[30.6879,21.3077],[30.7621,21.3077],[30.7442,20.7934],[30.8184,20.7934],[30.8026,20.3434],[30.8768,20.3434],[31.147,17.6433],[31.2208,17.6433],[31.337,16.8076],[31.4771,16.6147],[31.3939,16.3576],[31.5364,16.229],[31.527,15.9718],[31.7337,15.5861],[32.0944,15.3933],[32.5334,15.329],[32.5286,15.2004],[33.8621,15.4575],[34.0981,15.8433],[34.6843,15.779],[34.5556,16.229],[34.7137,16.4861],[35.6713,16.4861],[36.0539,16.8076],[36.0033,17.3219],[35.5013,17.6433],[35.2998,18.0933],[34.939,18.2862],[34.8792,18.6076],[34.5974,18.9291],[34.4687,19.3791],[34.2575,19.6362],[33.8196,21.6291],[33.7453,21.6291],[33.7704,21.737],[33.5609,21.7091],[33.1811,21.9954],[31.4355,21.9954],[33.8307,21.9955],[33.7635,22.0791],[33.8378,22.0791],[33.8832,23.172],[33.8087,23.172],[33.7535,23.622],[33.389,23.8149],[31.6705,23.7506],[30.5372,23.3649]]],[[[33.1811,21.9954],[33.5584,21.711],[33.7707,21.7382],[33.8307,21.9955],[33.1811,21.9954]]]]}},{"type":"Feature","properties":{"territoryId":"cliopatria-q185068-c04c8d42fd","name":"Kingdom of Urartu","name_ko":"우라르투","color":"#3e76ea","colorFamily":0,"startYear":-799,"endYear":-750,"source_name":"Cliopatria v0.2.0","source_url":"https://github.com/Seshat-Global-History-Databank/cliopatria","license":"CC BY 4.0","attribution":"Seshat Global History Databank, Cliopatria contributors"},"geometry":{"type":"Polygon","coordinates":[[[41.2964,39.2557],[41.5916,39.1265],[41.4938,38.9972],[41.4842,38.9326],[41.7198,38.9326],[41.7696,38.7389],[42.005,38.7389],[42.6823,39.0618],[42.8981,38.9326],[43.2224,38.9972],[43.2807,38.868],[44.3182,38.4806],[44.4444,38.2869],[44.9925,38.2869],[45.1229,38.6097],[45.6364,38.868],[46.1075,38.8681],[46.0954,39.2557],[45.7578,39.5789],[45.961,39.8376],[45.6683,39.967],[45.6798,40.0317],[45.4543,40.0964],[45.1156,39.967],[45.0707,40.1612],[44.5175,40.1612],[44.4162,40.0317],[43.7953,40.0964],[43.8173,40.2259],[43.5911,40.2906],[43.5692,40.1612],[43.3321,40.1612],[43.2208,39.967],[42.4209,39.9023],[42.0443,39.5143],[41.4929,39.5143],[41.2964,39.2557]],[[44.692,39.793],[44.7746,39.7028],[44.7769,39.6984],[44.692,39.793]],[[44.8011,39.653],[44.8085,39.6391],[44.807,39.6399],[44.8011,39.653]],[[44.814,39.6362],[44.8723,39.6251],[44.8278,39.6288],[44.814,39.6362]],[[45.0922,39.3444],[45.096,39.3411],[45.1358,39.2785],[45.0922,39.3444]],[[45.753,39.5635],[45.7655,39.5616],[45.7739,39.5549],[45.753,39.5635]]]}},{"type":"Feature","properties":{"territoryId":"cliopatria-q185068-c04c8d42fd","name":"Kingdom of Urartu","name_ko":"우라르투","color":"#3e76ea","colorFamily":0,"startYear":-749,"endYear":-700,"source_name":"Cliopatria v0.2.0","source_url":"https://github.com/Seshat-Global-History-Databank/cliopatria","license":"CC BY 4.0","attribution":"Seshat Global History Databank, Cliopatria contributors"},"geometry":{"type":"Polygon","coordinates":[[[37.2901,38.6612],[38.075,38.1245],[38.0454,38.0933],[38.3116,38.0933],[38.423,38.3515],[38.658,38.3515],[38.8677,38.1578],[39.1807,38.1578],[39.4762,38.6097],[40.0162,38.5451],[40.1126,38.6743],[40.7494,38.7389],[40.8465,38.868],[41.3867,38.8034],[41.4842,38.9326],[41.7198,38.9326],[41.7696,38.7389],[42.005,38.7389],[42.7609,39.0618],[42.8981,38.9326],[43.2224,38.9972],[43.2807,38.868],[44.3182,38.4806],[44.4545,38.3515],[44.306,37.8998],[44.5889,37.7062],[44.6276,37.4483],[44.842,37.3193],[44.92,37.3193],[45.2417,37.3838],[45.2616,37.5128],[45.1255,37.6417],[45.1965,38.0933],[44.9822,38.2224],[45.0236,38.4806],[45.301,38.7389],[45.6364,38.868],[46.1075,38.868],[46.1406,39.0618],[46.062,39.0618],[46.0954,39.2557],[45.8816,39.385],[45.9041,39.5143],[45.7578,39.5789],[45.961,39.8376],[45.5333,40.0964],[45.1156,39.967],[45.0936,40.2906],[44.8908,40.4849],[44.9256,40.6792],[44.0653,40.744],[44.1907,41.0032],[44.0435,41.068],[44.0667,41.1977],[43.204,41.2625],[43.1019,41.1328],[42.8636,41.1328],[42.7508,40.9384],[42.5921,40.9384],[42.4664,41.1328],[41.9104,41.1328],[41.7879,40.8736],[41.5606,40.9384],[40.9328,40.4849],[40.7846,40.5496],[40.586,40.2906],[40.1214,40.3554],[39.7662,40.0964],[38.9253,40.2906],[38.2834,40.2259],[37.5989,39.2557],[37.4331,39.1911],[37.4782,38.9326],[37.3047,38.8034],[37.302,38.7818],[37.3685,38.7484],[37.2901,38.6612]],[[44.692,39.793],[44.7746,39.7028],[44.7769,39.6984],[44.692,39.793]],[[44.8011,39.653],[44.8085,39.6391],[44.807,39.6399],[44.8011,39.653]],[[44.814,39.6362],[44.8723,39.6251],[44.8278,39.6288],[44.814,39.6362]],[[45.0922,39.3444],[45.096,39.3411],[45.1358,39.2785],[45.0922,39.3444]],[[45.753,39.5635],[45.7655,39.5616],[45.7739,39.5549],[45.753,39.5635]]]}},{"type":"Feature","properties":{"territoryId":"cliopatria-q1154556-3ef19a7638","name":"Later Zhou","name_ko":"주 왕실","color":"#a87ee7","colorFamily":4,"startYear":-749,"endYear":-450,"source_name":"Cliopatria v0.2.0","source_url":"https://github.com/Seshat-Global-History-Databank/cliopatria","license":"CC BY 4.0","attribution":"Seshat Global History Databank, Cliopatria contributors"},"geometry":{"type":"Polygon","coordinates":[[[112.1066,34.9366],[112.1837,34.9366],[112.1548,34.4863],[112.617,34.4863],[113.0303,34.7436],[113.0567,34.8079],[113.1339,34.8079],[113.1604,34.8723],[113.2376,34.8723],[113.2642,34.9366],[113.3414,34.9366],[113.5301,35.3871],[112.3199,35.4514],[112.1066,34.9366]]]}},{"type":"Feature","properties":{"territoryId":"cliopatria-q555994-eef6ef9869","name":"Lu","name_ko":"노나라","color":"#e6567d","colorFamily":3,"startYear":-749,"endYear":-480,"source_name":"Cliopatria v0.2.0","source_url":"https://github.com/Seshat-Global-History-Databank/cliopatria","license":"CC BY 4.0","attribution":"Seshat Global History Databank, Cliopatria contributors"},"geometry":{"type":"Polygon","coordinates":[[[114.9554,35.6445],[115.2311,35.3871],[115.9898,35.7089],[116.2856,35.3227],[116.6721,35.3227],[116.9603,35.4514],[117.5871,35.6445],[118.2549,35.5802],[118.3036,35.5158],[118.056,35.1297],[117.7683,35.001],[117.6355,34.8723],[117.9657,34.7436],[118.1199,34.7436],[118.2807,34.9366],[118.435,34.9366],[118.4284,34.7436],[119.1981,34.8055],[119.2073,35.0484],[119.358,35.0971],[119.4239,35.3135],[119.5319,35.3586],[119.648,35.5839],[119.7325,35.6208],[119.7439,35.5759],[119.8401,35.6579],[119.8602,35.6061],[119.9046,35.6246],[119.9016,35.6715],[119.9356,35.705],[119.9082,35.7449],[119.9378,35.7611],[120.0029,35.7278],[120.0388,35.8428],[120.0972,35.9008],[120.189,35.9453],[120.1753,35.89],[120.2941,36.0024],[120.2428,35.9736],[120.23,35.9999],[120.1753,35.9936],[120.1685,36.062],[120.0897,36.1117],[120.0972,36.2264],[120.2191,36.2219],[120.2163,36.1991],[120.2845,36.176],[120.2735,36.2343],[120.3064,36.2742],[120.3616,36.1916],[120.292,36.062],[120.3535,36.0408],[120.6278,36.1165],[120.6669,36.1321],[120.6836,36.2056],[120.6436,36.3225],[120.7107,36.3245],[120.6865,36.3872],[120.7109,36.4239],[120.5293,36.4816],[119.8951,36.2884],[117.3531,36.1596],[116.0465,35.8377],[115.765,35.902],[115.8017,36.1596],[115.5977,36.224],[115.1169,35.8377],[115.0394,35.8377],[114.9554,35.6445]]]}},{"type":"Feature","properties":{"territoryId":"cliopatria-q10914393-eb81b2e3a5","name":"Neo-Assyrian Empire","name_ko":"신아시리아 제국","color":"#3eea8a","colorFamily":2,"startYear":-799,"endYear":-750,"source_name":"Cliopatria v0.2.0","source_url":"https://github.com/Seshat-Global-History-Databank/cliopatria","license":"CC BY 4.0","attribution":"Seshat Global History Databank, Cliopatria contributors"},"geometry":{"type":"MultiPolygon","coordinates":[[[[35.7698,33.2645],[36.7665,33.2645],[36.7279,33.6502],[37.0546,33.8432],[37.2347,34.1004],[37.3885,34.1004],[37.325,34.229],[37.744,34.5506],[37.7579,34.6793],[38.1787,35.001],[38.8036,35.0653],[40.0557,34.5506],[40.1178,34.422],[40.4183,34.3577],[40.4728,34.1647],[40.8499,34.1004],[40.9117,33.9718],[41.2116,33.9075],[41.4886,33.6502],[42.5783,33.1359],[42.7085,32.943],[43.1526,32.8145],[44.459,31.5933],[44.5814,31.3362],[44.8098,31.3362],[45.0158,31.1434],[45.9365,31.2076],[46.0437,31.4647],[45.9227,31.7218],[46.617,31.7861],[46.3771,32.3002],[46.4103,32.5574],[46.6056,32.8788],[46.5547,33.0716],[46.8282,33.3931],[46.6835,33.4574],[46.7868,33.6502],[46.2845,33.9075],[46.3792,34.0361],[46.1485,34.0361],[46.1752,34.229],[45.862,34.7436],[45.8984,35.001],[46.2257,35.1297],[46.2443,35.2584],[46.0403,35.4514],[46.0685,35.6445],[46.3293,35.8377],[45.3502,36.0308],[45.4466,36.1596],[45.369,36.1596],[45.388,36.2884],[45.1998,36.4173],[45.1108,36.4025],[45.1933,36.4218],[45.1059,36.4816],[45.0663,36.7393],[44.8617,36.9326],[44.8518,37.3838],[44.6374,37.5128],[44.5988,37.7707],[44.4624,37.8998],[44.306,37.8998],[44.4444,38.2869],[44.3182,38.4806],[43.2807,38.868],[43.2224,38.9972],[42.8981,38.9326],[42.6823,39.0618],[42.005,38.7389],[41.7696,38.7389],[41.7198,38.9326],[41.4842,38.9326],[41.4747,38.868],[40.8558,38.9326],[40.7494,38.7389],[40.2001,38.7389],[39.9378,38.5451],[39.5634,38.6743],[39.3106,38.5451],[39.1025,38.1578],[38.5097,38.416],[38.2581,38.2869],[38.3281,38.2224],[38.2334,38.0933],[38.0454,38.0933],[37.6019,37.6259],[36.204,36.8682],[36.2649,36.6105],[35.8486,36.3528],[35.9901,36.224],[35.9559,35.902],[35.8816,35.8692],[35.9156,35.5158],[36.2318,35.5802],[36.373,35.4514],[36.3527,35.2584],[36.1849,35.1297],[36.165,34.9366],[36.3128,34.8723],[36.2029,34.5506],[36.2799,34.5506],[36.2347,34.1004],[36.0493,33.7789],[36.0244,33.5217],[35.7759,33.3288],[35.7698,33.2645]],[[45.1108,36.4025],[45.0837,36.4128],[45.0791,36.4197],[45.1108,36.4025]],[[36.2318,33.8525],[36.3178,33.8272],[36.3006,33.8287],[36.2318,33.8525]],[[36.2672,33.9104],[36.2886,33.9465],[36.2691,33.9073],[36.2672,33.9104]],[[36.2699,33.906],[36.3111,33.872],[36.2753,33.8972],[36.2699,33.906]],[[36.6665,36.2657],[36.6691,36.2599],[36.6681,36.2532],[36.6665,36.2657]],[[42.7157,37.3553],[42.7805,37.3755],[42.788,37.3732],[42.7157,37.3553]],[[42.7951,37.371],[42.8011,37.3691],[42.8141,37.3468],[42.7951,37.371]],[[44.5699,37.5144],[44.5732,37.5275],[44.5793,37.477],[44.5699,37.5144]],[[44.7525,37.1131],[44.7649,37.1394],[44.7544,37.1084],[44.7525,37.1131]],[[44.8666,36.7801],[44.9227,36.7759],[44.8772,36.7765],[44.8666,36.7801]],[[44.9962,36.7417],[45.0353,36.6896],[45.0373,36.6808],[44.9962,36.7417]],[[45.0355,36.633],[45.0426,36.6569],[45.0443,36.6493],[45.0355,36.633]],[[45.0382,36.494],[45.0608,36.4472],[45.0391,36.4798],[45.0382,36.494]]],[[[34.4997,36.8278],[34.5249,36.8682],[34.5038,36.8682],[34.4997,36.8278]]]]}},{"type":"Feature","properties":{"territoryId":"cliopatria-q10914393-eb81b2e3a5","name":"Neo-Assyrian Empire","name_ko":"신아시리아 제국","color":"#3eea8a","colorFamily":2,"startYear":-749,"endYear":-700,"source_name":"Cliopatria v0.2.0","source_url":"https://github.com/Seshat-Global-History-Databank/cliopatria","license":"CC BY 4.0","attribution":"Seshat Global History Databank, Cliopatria contributors"},"geometry":{"type":"MultiPolygon","coordinates":[[[[35.7698,33.2645],[36.7665,33.2645],[36.7279,33.6502],[37.0546,33.8432],[37.2347,34.1004],[37.3885,34.1004],[37.325,34.229],[37.744,34.5506],[37.7579,34.6793],[38.1787,35.001],[38.8036,35.0653],[40.0557,34.5506],[40.1178,34.422],[40.4183,34.3577],[40.4728,34.1647],[40.8499,34.1004],[40.9117,33.9718],[41.2116,33.9075],[41.4886,33.6502],[42.5783,33.1359],[42.7085,32.943],[43.1526,32.8145],[44.459,31.5933],[44.5814,31.3362],[44.8098,31.3362],[45.0158,31.1434],[45.9365,31.2076],[46.0437,31.4647],[45.9227,31.7218],[46.617,31.7861],[46.3771,32.3002],[46.529,32.8788],[46.6056,32.8788],[46.5547,33.0716],[46.8194,33.3288],[46.6835,33.4574],[46.7868,33.6502],[46.2845,33.9075],[46.3792,34.0361],[46.1485,34.0361],[46.1752,34.229],[45.862,34.7436],[45.8984,35.001],[46.2257,35.1297],[46.2443,35.2584],[46.0403,35.4514],[46.0685,35.6445],[46.3293,35.8377],[45.3502,36.0308],[45.4466,36.1596],[45.1778,36.4137],[45.1108,36.4025],[45.174,36.4173],[45.1059,36.4816],[45.0663,36.7393],[44.9203,36.8037],[44.842,37.3193],[44.6276,37.4483],[44.5889,37.7062],[44.306,37.8998],[44.4545,38.3515],[44.3182,38.4806],[43.2807,38.868],[43.2224,38.9972],[42.8981,38.9326],[42.7609,39.0618],[42.005,38.7389],[41.7696,38.7389],[41.7198,38.9326],[41.4842,38.9326],[41.3867,38.8034],[40.8465,38.868],[40.7494,38.7389],[40.1126,38.6743],[40.0162,38.5451],[39.4762,38.6097],[39.1807,38.1578],[38.8677,38.1578],[38.658,38.3515],[38.423,38.3515],[38.3116,38.0933],[38.0454,38.0933],[37.6019,37.6259],[36.204,36.8682],[36.2649,36.6105],[35.8486,36.3528],[35.9901,36.224],[35.9559,35.902],[35.8816,35.8692],[35.9156,35.5158],[36.2318,35.5802],[36.373,35.4514],[36.3527,35.2584],[36.1849,35.1297],[36.165,34.9366],[36.3128,34.8723],[36.2029,34.5506],[36.2799,34.5506],[36.2347,34.1004],[36.0493,33.7789],[36.0244,33.5217],[35.7759,33.3288],[35.7698,33.2645]],[[45.1108,36.4025],[45.0837,36.4128],[45.0791,36.4197],[45.1108,36.4025]],[[36.2318,33.8525],[36.3178,33.8272],[36.3006,33.8287],[36.2318,33.8525]],[[36.2672,33.9104],[36.2886,33.9465],[36.2691,33.9073],[36.2672,33.9104]],[[36.2699,33.906],[36.3111,33.872],[36.2753,33.8972],[36.2699,33.906]],[[36.6665,36.2657],[36.6691,36.2599],[36.6681,36.2532],[36.6665,36.2657]],[[42.7157,37.3553],[42.7805,37.3755],[42.788,37.3732],[42.7157,37.3553]],[[42.7951,37.371],[42.8011,37.3691],[42.8141,37.3468],[42.7951,37.371]],[[44.5699,37.5144],[44.5732,37.5275],[44.5793,37.477],[44.5699,37.5144]],[[44.7525,37.1131],[44.7649,37.1394],[44.7544,37.1084],[44.7525,37.1131]],[[44.8666,36.7801],[44.9227,36.7759],[44.8772,36.7765],[44.8666,36.7801]],[[44.9962,36.7417],[45.0353,36.6896],[45.0373,36.6808],[44.9962,36.7417]],[[45.0355,36.633],[45.0426,36.6569],[45.0443,36.6493],[45.0355,36.633]],[[45.0382,36.494],[45.0608,36.4472],[45.0391,36.4798],[45.0382,36.494]]],[[[34.4997,36.8278],[34.5249,36.8682],[34.5038,36.8682],[34.4997,36.8278]]]]}},{"type":"Feature","properties":{"territoryId":"cliopatria-q7185566-26b698da41","name":"Philistia","name_ko":"불레셋","color":"#3eeab7","colorFamily":2,"startYear":-899,"endYear":-750,"source_name":"Cliopatria v0.2.0","source_url":"https://github.com/Seshat-Global-History-Databank/cliopatria","license":"CC BY 4.0","attribution":"Seshat Global History Databank, Cliopatria contributors"},"geometry":{"type":"Polygon","coordinates":[[[34.2972,31.2719],[34.7805,31.5933],[34.8567,31.5933],[35.0365,31.9146],[35.1406,32.236],[35.0047,32.4288],[34.8725,32.4288],[34.8377,32.2807],[34.781,32.1303],[34.813,31.9789],[34.6909,31.9134],[34.6028,31.7558],[34.6334,31.6575],[34.5572,31.6575],[34.2972,31.2719]]]}},{"type":"Feature","properties":{"territoryId":"cliopatria-q7185566-26b698da41","name":"Philistia","name_ko":"불레셋","color":"#3eeab7","colorFamily":2,"startYear":-749,"endYear":-700,"source_name":"Cliopatria v0.2.0","source_url":"https://github.com/Seshat-Global-History-Databank/cliopatria","license":"CC BY 4.0","attribution":"Seshat Global History Databank, Cliopatria contributors"},"geometry":{"type":"Polygon","coordinates":[[[34.2972,31.2719],[34.5361,31.4005],[34.6122,31.4005],[35.0365,31.9146],[35.1406,32.236],[35.0047,32.4288],[34.8725,32.4288],[34.8377,32.2807],[34.781,32.1303],[34.813,31.9789],[34.6909,31.9134],[34.6028,31.7558],[34.6334,31.6575],[34.5572,31.6575],[34.2972,31.2719]]]}},{"type":"Feature","properties":{"territoryId":"cliopatria-q41642-5b1186f2a7","name":"Phoenicia","name_ko":"페니키아","color":"#eabc3e","colorFamily":1,"startYear":-799,"endYear":-750,"source_name":"Cliopatria v0.2.0","source_url":"https://github.com/Seshat-Global-History-Databank/cliopatria","license":"CC BY 4.0","attribution":"Seshat Global History Databank, Cliopatria contributors"},"geometry":{"type":"MultiPolygon","coordinates":[[[[14.3688,32.5574],[14.5166,32.1717],[14.8248,32.3645],[14.9013,32.3645],[14.8033,32.4479],[14.3688,32.5574]]],[[[35.2213,33.1359],[35.4452,33.0716],[36.0244,33.5217],[36.0493,33.7789],[36.2347,34.1004],[36.2799,34.5506],[36.2029,34.5506],[36.3128,34.8723],[36.165,34.9366],[36.1849,35.1297],[36.3527,35.2584],[36.373,35.4514],[36.2318,35.5802],[35.9929,35.5158],[35.9153,35.2879],[35.9624,35.1979],[35.927,34.8723],[36.0682,34.7436],[36.0488,34.5506],[35.7921,34.2933],[35.7127,34.3279],[35.6652,34.3113],[35.6838,33.9718],[35.5909,33.9466],[35.572,33.91],[35.4705,33.9021],[35.4993,33.6502],[35.3944,33.65],[35.3653,33.5547],[35.3984,33.3931],[35.2272,33.2002],[35.2213,33.1359]]],[[[33.2382,35.001],[33.292,34.7436],[33.3939,34.7436],[33.4002,34.7734],[33.4387,34.7628],[33.6056,34.8218],[33.6541,34.9447],[33.7015,34.9729],[34.067,35.001],[34.022,35.057],[33.9431,35.0653],[34.0123,35.0638],[33.8999,35.1645],[33.9224,35.2734],[33.8086,35.3227],[33.4768,35.0027],[33.2382,35.001]],[[33.7592,34.9887],[33.7911,34.9824],[33.7874,34.98],[33.7592,34.9887]],[[33.6195,35.0168],[33.7115,34.9856],[33.7029,34.9879],[33.6195,35.0168]],[[33.6794,35.0349],[33.7022,35.0223],[33.6794,35.0339],[33.6794,35.0349]],[[33.6966,35.009],[33.7022,35.0223],[33.7002,35.0067],[33.6966,35.009]],[[33.8412,35.0511],[33.8801,35.0731],[33.8551,35.0534],[33.8412,35.0511]]],[[[10.5416,35.5158],[10.6192,35.3227],[11.0058,35.4514],[11.0057,35.3871],[11.0469,35.3871],[11.0577,35.4867],[11.0831,35.5053],[11.0392,35.5185],[11.0169,35.5986],[10.851,35.6445],[10.8245,35.7334],[10.8403,35.7644],[10.5416,35.5158]]],[[[14.3384,35.9455],[14.3457,35.8759],[14.3815,35.843],[14.5275,35.8012],[14.5618,35.8298],[14.5078,35.9285],[14.3494,35.9731],[14.3773,35.9936],[14.3389,35.9793],[14.3384,35.9455]]],[[[-6.2475,36.6105],[-5.9863,36.224],[-6.005,36.4816],[-6.1698,36.6105],[-6.2475,36.6105]]],[[[9.8397,36.7393],[10.2295,36.4172],[10.2299,36.2884],[10.4846,36.2356],[10.5077,36.3052],[10.4625,36.4172],[11.0062,36.8037],[11.0063,36.9971],[10.8751,36.9971],[10.5396,36.7393],[10.3553,36.7312],[10.2721,36.8161],[10.2472,36.7863],[10.1885,36.7976],[10.2529,36.8463],[10.3094,36.8346],[10.2282,36.8682],[9.9175,36.7393],[9.8397,36.7393]]],[[[7.2715,36.8682],[7.6651,36.546],[7.9057,36.8501],[7.7734,36.89],[7.7747,36.9326],[7.6596,36.9326],[7.6589,36.9844],[7.3463,37.0615],[7.2715,36.8682]]],[[[10.228,36.9326],[10.2282,36.8682],[10.306,36.8682],[10.3058,36.9218],[10.228,36.9326]]],[[[8.8429,36.9903],[8.9827,36.9326],[8.9833,36.8682],[9.2954,36.7393],[9.6828,36.9971],[9.9945,36.9326],[10.0716,37.126],[10.1804,37.081],[10.2244,37.0959],[10.2113,37.1376],[10.1281,37.1587],[10.2273,37.1639],[10.2272,37.1949],[10.1501,37.2337],[9.9934,37.1904],[9.925,37.213],[9.8799,37.1501],[9.8159,37.1518],[9.7718,37.2133],[9.8157,37.2491],[9.6158,37.3151],[9.0595,37.0615],[8.9723,37.0975],[8.8429,36.9903]]],[[[9.8196,37.2276],[9.8612,37.2338],[9.906,37.2193],[9.842,37.2404],[9.8196,37.2276]]]]}},{"type":"Feature","properties":{"territoryId":"cliopatria-q41642-5b1186f2a7","name":"Phoenicia","name_ko":"페니키아","color":"#eabc3e","colorFamily":1,"startYear":-749,"endYear":-675,"source_name":"Cliopatria v0.2.0","source_url":"https://github.com/Seshat-Global-History-Databank/cliopatria","license":"CC BY 4.0","attribution":"Seshat Global History Databank, Cliopatria contributors"},"geometry":{"type":"MultiPolygon","coordinates":[[[[14.3688,32.5574],[14.5166,32.1717],[14.8248,32.3645],[14.9013,32.3645],[14.8033,32.4479],[14.3688,32.5574]]],[[[35.2213,33.1359],[35.4452,33.0716],[36.0244,33.5217],[36.0493,33.7789],[36.2347,34.1004],[36.2799,34.5506],[36.2029,34.5506],[36.3128,34.8723],[36.165,34.9366],[36.1849,35.1297],[36.3527,35.2584],[36.373,35.4514],[36.2318,35.5802],[35.9929,35.5158],[35.9153,35.2879],[35.9624,35.1979],[35.927,34.8723],[36.0682,34.7436],[36.0488,34.5506],[35.7921,34.2933],[35.7127,34.3279],[35.6652,34.3113],[35.6838,33.9718],[35.5909,33.9466],[35.572,33.91],[35.4705,33.9021],[35.4993,33.6502],[35.3944,33.65],[35.3653,33.5547],[35.3984,33.3931],[35.2272,33.2002],[35.2213,33.1359]]],[[[33.2382,35.001],[33.292,34.7436],[33.3939,34.7436],[33.4002,34.7734],[33.4387,34.7628],[33.6056,34.8218],[33.6541,34.9447],[33.7015,34.9729],[34.067,35.001],[34.022,35.057],[33.9431,35.0653],[34.0123,35.0638],[33.8999,35.1645],[33.9224,35.2734],[33.8086,35.3227],[33.4768,35.0027],[33.2382,35.001]],[[33.7592,34.9887],[33.7911,34.9824],[33.7874,34.98],[33.7592,34.9887]],[[33.6195,35.0168],[33.7115,34.9856],[33.7029,34.9879],[33.6195,35.0168]],[[33.6794,35.0349],[33.7022,35.0223],[33.6794,35.0339],[33.6794,35.0349]],[[33.6966,35.009],[33.7022,35.0223],[33.7002,35.0067],[33.6966,35.009]],[[33.8412,35.0511],[33.8801,35.0731],[33.8551,35.0534],[33.8412,35.0511]]],[[[10.5416,35.5158],[10.6192,35.3227],[11.0058,35.4514],[11.0057,35.3871],[11.0469,35.3871],[11.0577,35.4867],[11.0831,35.5053],[11.0392,35.5185],[11.0169,35.5986],[10.851,35.6445],[10.8245,35.7334],[10.8403,35.7644],[10.5416,35.5158]]],[[[-6.2475,36.6105],[-6.2008,36.5122],[-6.1794,36.5135],[-6.1942,36.4983],[-6.0625,36.224],[-5.8311,36.224],[-5.5848,36.0308],[-5.5162,36.1596],[-5.315,36.2164],[-5.2282,36.4816],[-4.6888,36.546],[-4.4686,36.7393],[-3.8507,36.8037],[-4.5551,36.8682],[-5.3104,36.546],[-5.3059,36.4816],[-5.4521,36.3528],[-5.9179,36.3528],[-6.2475,36.6105]]],[[[9.8397,36.7393],[10.2295,36.4172],[10.2299,36.2884],[10.4846,36.2356],[10.5077,36.3052],[10.4625,36.4172],[11.0062,36.8037],[11.0063,36.9971],[10.8751,36.9971],[10.5396,36.7393],[10.3553,36.7312],[10.2721,36.8161],[10.2472,36.7863],[10.1885,36.7976],[10.2529,36.8463],[10.3094,36.8346],[10.2282,36.8682],[9.9175,36.7393],[9.8397,36.7393]]],[[[7.2715,36.8682],[7.6651,36.546],[7.9057,36.8501],[7.7734,36.89],[7.7747,36.9326],[7.6596,36.9326],[7.6589,36.9844],[7.3463,37.0615],[7.2715,36.8682]]],[[[10.228,36.9326],[10.2282,36.8682],[10.306,36.8682],[10.3058,36.9218],[10.228,36.9326]]],[[[8.8429,36.9903],[8.9827,36.9326],[8.9833,36.8682],[9.2954,36.7393],[9.6828,36.9971],[9.9945,36.9326],[10.0716,37.126],[10.1804,37.081],[10.2244,37.0959],[10.2113,37.1376],[10.1281,37.1587],[10.2273,37.1639],[10.2272,37.1949],[10.1501,37.2337],[9.9934,37.1904],[9.925,37.213],[9.8799,37.1501],[9.8159,37.1518],[9.7718,37.2133],[9.8157,37.2491],[9.6158,37.3151],[9.0595,37.0615],[8.9723,37.0975],[8.8429,36.9903]]],[[[9.8196,37.2276],[9.8612,37.2338],[9.906,37.2193],[9.842,37.2404],[9.8196,37.2276]]]]}},{"type":"Feature","properties":{"territoryId":"cliopatria-q32579-617756234b","name":"Phrygia","name_ko":"프리기아","color":"#f0db75","colorFamily":1,"startYear":-899,"endYear":-750,"source_name":"Cliopatria v0.2.0","source_url":"https://github.com/Seshat-Global-History-Databank/cliopatria","license":"CC BY 4.0","attribution":"Seshat Global History Databank, Cliopatria contributors"},"geometry":{"type":"Polygon","coordinates":[[[30.6743,40.0317],[30.727,39.7729],[31.6735,39.7729],[31.6599,39.6436],[31.8108,39.5789],[31.7052,39.3203],[31.7838,39.3203],[31.7573,39.0618],[31.8359,39.0618],[31.6592,38.868],[31.7968,38.6743],[32.1956,38.7389],[32.2609,38.6097],[32.4178,38.6097],[33.001,38.9326],[33.1442,38.8034],[33.1952,38.5451],[33.5872,38.5451],[33.7581,38.6743],[33.7008,38.868],[33.7865,38.9326],[33.4794,38.9972],[33.3578,39.3203],[33.2075,39.385],[33.1288,39.385],[33.1648,39.7083],[33.4161,39.8376],[33.525,40.0964],[33.209,40.0964],[32.9942,40.2906],[33.0092,40.4201],[32.146,40.4849],[32.1962,40.2259],[31.9591,40.2259],[31.7869,40.0964],[31.3129,40.0964],[31.2476,40.2259],[31.0172,40.2906],[30.9179,40.0964],[30.6743,40.0317]]]}},{"type":"Feature","properties":{"territoryId":"cliopatria-q32579-617756234b","name":"Phrygia","name_ko":"프리기아","color":"#f0db75","colorFamily":1,"startYear":-749,"endYear":-700,"source_name":"Cliopatria v0.2.0","source_url":"https://github.com/Seshat-Global-History-Databank/cliopatria","license":"CC BY 4.0","attribution":"Seshat Global History Databank, Cliopatria contributors"},"geometry":{"type":"Polygon","coordinates":[[[30.4504,40.1612],[30.5295,40.1612],[30.5098,39.967],[30.7401,39.9023],[30.727,39.7729],[31.6735,39.7729],[31.6599,39.6436],[31.8108,39.5789],[31.7052,39.3203],[31.7838,39.3203],[31.7573,39.0618],[31.8359,39.0618],[31.6592,38.868],[31.7968,38.6743],[32.1956,38.7389],[32.2609,38.6097],[32.4178,38.6097],[33.001,38.9326],[33.1442,38.8034],[33.1952,38.5451],[33.5872,38.5451],[33.7581,38.6743],[33.7008,38.868],[33.7865,38.9326],[33.4794,38.9972],[33.3578,39.3203],[33.1288,39.385],[33.1648,39.7083],[33.4161,39.8376],[33.5174,40.0317],[34.0703,40.0317],[33.9904,40.6792],[34.3947,40.744],[34.348,41.0032],[34.2686,41.0032],[34.3644,41.1328],[34.3727,41.1977],[34.54,41.2625],[34.5652,41.4571],[34.7329,41.522],[34.75,41.6518],[34.3517,41.6518],[34.4729,41.9734],[34.3313,41.9479],[34.0629,41.9764],[33.2771,41.9764],[32.8621,41.8465],[32.7973,41.8647],[32.6675,41.8369],[32.6947,41.7816],[32.1934,41.5869],[32.1459,41.6072],[32.0394,41.5756],[32.0265,41.522],[31.5068,41.3544],[31.3461,41.1328],[31.2312,41.092],[30.8851,41.0809],[30.9278,40.9384],[30.7552,40.8088],[30.7934,40.4201],[30.4703,40.3554],[30.4504,40.1612]]]}},{"type":"Feature","properties":{"territoryId":"cliopatria-q1143524-f9185e4bc5","name":"Qi","name_ko":"제나라","color":"#9e3ad9","colorFamily":4,"startYear":-749,"endYear":-550,"source_name":"Cliopatria v0.2.0","source_url":"https://github.com/Seshat-Global-History-Databank/cliopatria","license":"CC BY 4.0","attribution":"Seshat Global History Databank, Cliopatria contributors"},"geometry":{"type":"MultiPolygon","coordinates":[[[[115.4417,36.7393],[115.6357,36.4816],[115.5201,36.224],[115.8017,36.1596],[115.765,35.902],[116.0465,35.8377],[117.3531,36.1596],[119.8951,36.2884],[120.5293,36.4816],[120.7109,36.4239],[120.8069,36.4639],[120.8449,36.4172],[120.8976,36.4172],[120.9063,36.4524],[120.95,36.4592],[120.9363,36.497],[120.9636,36.5479],[120.9275,36.5329],[120.8504,36.6046],[120.7503,36.5408],[120.7506,36.6168],[120.8506,36.6509],[120.9774,36.5899],[121.0425,36.6277],[121.0809,36.6105],[121.1577,36.6686],[121.4017,36.7124],[121.3778,36.7315],[121.4534,36.7574],[121.4595,36.8287],[121.5116,36.8086],[121.6072,36.845],[121.5032,36.7886],[121.5247,36.7543],[121.6227,36.7994],[121.6375,36.8314],[121.6842,36.8428],[121.6494,36.8161],[121.6704,36.8214],[121.786,36.8912],[121.9498,36.9389],[121.9263,36.9936],[122.0492,36.9799],[122.0365,36.8993],[122.0943,36.9509],[122.1429,36.9458],[122.1661,37.0141],[122.1627,36.9458],[122.2659,36.898],[122.1969,36.898],[122.1852,36.8595],[122.3212,36.8231],[122.4364,36.8707],[122.4058,36.9222],[122.5111,36.9351],[122.54,37.0277],[122.4092,37.0063],[122.457,37.0659],[122.4364,37.0898],[122.4539,37.1543],[122.4707,37.1103],[122.5735,37.2601],[122.5497,37.3198],[122.5947,37.2952],[122.5708,37.3448],[122.6847,37.4102],[122.2965,37.4182],[122.2454,37.4597],[122.1832,37.4182],[122.1299,37.4835],[122.1491,37.5098],[122.1211,37.5128],[122.1218,37.5627],[122.0671,37.5627],[122.0256,37.528],[121.9778,37.4717],[121.988,37.4256],[121.9498,37.4256],[121.9378,37.4643],[121.635,37.4813],[121.5874,37.4536],[121.6761,37.4392],[121.5703,37.4287],[121.4769,37.468],[121.3817,37.5661],[121.4298,37.5969],[121.3936,37.6225],[121.354,37.6379],[121.3745,37.6105],[121.3081,37.5812],[121.1716,37.5771],[121.1344,37.6105],[121.138,37.7012],[121.0326,37.7104],[120.9409,37.774],[120.9258,37.8193],[120.738,37.834],[120.3685,37.6947],[120.2157,37.6841],[120.3064,37.6652],[120.3225,37.6324],[120.1876,37.5118],[119.8589,37.3602],[119.8973,37.2494],[119.7706,37.1518],[119.4412,37.1206],[119.2871,37.1373],[119.1455,37.1789],[118.9612,37.2956],[118.9446,37.3781],[118.97,37.5935],[119.0371,37.7221],[119.1201,37.7375],[119.1746,37.7085],[119.2164,37.794],[119.1169,37.8533],[119.0484,37.948],[118.9966,37.9631],[118.9248,38.0578],[118.95,38.0973],[118.7604,38.1551],[118.6549,38.1457],[118.543,38.0683],[118.3829,38.1183],[118.0652,38.1431],[118.0537,38.1733],[117.8372,38.2709],[117.6689,38.4521],[117.6025,38.4806],[117.609,38.5454],[117.5435,38.6213],[117.5596,38.6743],[117.2298,38.6743],[117.1971,38.6097],[116.5955,38.0288],[116.4394,37.7062],[116.2215,37.5773],[115.9611,37.1904],[115.4417,36.7393]]],[[[120.7502,37.8986],[120.7546,37.8967],[120.7549,37.8996],[120.7538,37.8998],[120.7502,37.8986]]]]}},{"type":"Feature","properties":{"territoryId":"cliopatria-q1471995-0331a0045d","name":"Qin","name_ko":"진나라 (秦)","color":"#eb7ab8","colorFamily":3,"startYear":-749,"endYear":-450,"source_name":"Cliopatria v0.2.0","source_url":"https://github.com/Seshat-Global-History-Databank/cliopatria","license":"CC BY 4.0","attribution":"Seshat Global History Databank, Cliopatria contributors"},"geometry":{"type":"Polygon","coordinates":[[[107.9426,34.5506],[109.6896,34.4863],[110.3586,34.229],[110.8203,34.229],[110.8196,34.422],[110.6911,34.4863],[110.7168,34.7436],[110.5884,34.8079],[110.6662,35.001],[111.0029,35.2584],[111.1628,35.6445],[111.0618,35.7733],[111.2303,36.3528],[111.4133,36.4172],[112.1722,37.2549],[112.0942,37.2549],[109.6546,36.4816],[108.7896,35.7089],[108.2215,35.6445],[108.1695,35.5158],[108.3497,35.3871],[108.2982,35.2584],[108.4528,35.2584],[107.9426,34.5506]]]}},{"type":"Feature","properties":{"territoryId":"cliopatria-q201038-720aec7802","name":"Roman Kingdom","name_ko":"로마 왕정","color":"#75f0b9","colorFamily":2,"startYear":-749,"endYear":-700,"source_name":"Cliopatria v0.2.0","source_url":"https://github.com/Seshat-Global-History-Databank/cliopatria","license":"CC BY 4.0","attribution":"Seshat Global History Databank, Cliopatria contributors"},"geometry":{"type":"Polygon","coordinates":[[[11.9725,42.1063],[12.1311,41.9764],[12.1305,41.9131],[12.4482,41.7816],[12.4517,42.1063],[11.9725,42.1063]]]}},{"type":"Feature","properties":{"territoryId":"cliopatria-q940785-f47d030c11","name":"Sabaeans","name_ko":"사바인","color":"#ec516b","colorFamily":3,"startYear":-799,"endYear":-700,"source_name":"Cliopatria v0.2.0","source_url":"https://github.com/Seshat-Global-History-Databank/cliopatria","license":"CC BY 4.0","attribution":"Seshat Global History Databank, Cliopatria contributors"},"geometry":{"type":"MultiPolygon","coordinates":[[[[45.8444,15.329],[45.9179,15.329],[45.9215,15.3933],[45.8479,15.3933],[45.8444,15.329]]],[[[43.8656,15.4575],[43.9391,15.4575],[43.9426,15.5218],[43.869,15.5218],[43.8656,15.4575]]],[[[43.9426,15.5218],[44.0161,15.5218],[44.0196,15.5861],[43.946,15.5861],[43.9426,15.5218]]],[[[43.9391,15.4575],[43.9957,15.1361],[45.1755,15.2004],[45.8479,15.3933],[45.9433,15.779],[45.3656,15.9718],[45.0675,15.9076],[44.9275,16.0361],[44.4787,15.9076],[43.9391,15.4575]]]]}},{"type":"Feature","properties":{"territoryId":"cliopatria-q7462-bd1189c356","name":"Song","name_ko":"송나라","color":"#33d3e1","colorFamily":6,"startYear":-749,"endYear":-480,"source_name":"Cliopatria v0.2.0","source_url":"https://github.com/Seshat-Global-History-Databank/cliopatria","license":"CC BY 4.0","attribution":"Seshat Global History Databank, Cliopatria contributors"},"geometry":{"type":"Polygon","coordinates":[[[114.3412,34.7436],[114.6466,34.5506],[115.4942,34.5506],[115.5947,34.422],[116.107,34.3577],[116.6157,34.1004],[117.2311,34.1004],[117.6198,34.2933],[117.6741,34.422],[117.5747,34.5506],[116.65,34.5506],[116.7045,34.6793],[116.5056,34.9366],[116.1969,34.9366],[116.0975,35.0653],[116.1805,35.2584],[116.2578,35.2584],[116.2856,35.3227],[115.9898,35.7089],[115.2311,35.3871],[114.499,34.9366],[114.4721,34.8723],[114.3412,34.7436]]]}},{"type":"Feature","properties":{"territoryId":"cliopatria-q727710-aab26fa84c","name":"Tabal Kingdom","name_ko":"타발","color":"#e34566","colorFamily":3,"startYear":-899,"endYear":-750,"source_name":"Cliopatria v0.2.0","source_url":"https://github.com/Seshat-Global-History-Databank/cliopatria","license":"CC BY 4.0","attribution":"Seshat Global History Databank, Cliopatria contributors"},"geometry":{"type":"Polygon","coordinates":[[[34.5249,36.7455],[34.7358,36.8217],[34.8526,36.7813],[34.9079,36.7404],[34.9004,36.7199],[34.9823,36.7208],[35.3207,36.5642],[35.6036,36.6188],[35.6956,36.7062],[35.6087,36.6469],[35.6226,36.6807],[35.7092,36.7199],[35.6481,36.7332],[35.634,36.6994],[35.5794,36.6851],[35.6067,36.7404],[35.6135,36.7199],[35.6477,36.754],[35.789,36.7737],[35.9734,36.9277],[36.0586,36.9184],[36.1564,36.8462],[36.835,37.1591],[37.6019,37.6259],[38.075,38.1245],[37.2901,38.6612],[37.3685,38.7484],[37.2661,38.7998],[36.785,38.7323],[36.5593,38.4435],[36.3662,38.612],[36.2322,38.5597],[36.1848,38.3507],[35.7538,38.1226],[35.633,37.853],[35.077,37.7501],[34.5249,36.7455]]]}},{"type":"Feature","properties":{"territoryId":"cliopatria-q727710-aab26fa84c","name":"Tabal Kingdom","name_ko":"타발","color":"#e34566","colorFamily":3,"startYear":-749,"endYear":-700,"source_name":"Cliopatria v0.2.0","source_url":"https://github.com/Seshat-Global-History-Databank/cliopatria","license":"CC BY 4.0","attribution":"Seshat Global History Databank, Cliopatria contributors"},"geometry":{"type":"Polygon","coordinates":[[[34.5249,36.7455],[34.7358,36.8217],[34.8526,36.7813],[34.9079,36.7404],[34.9004,36.7199],[34.9823,36.7208],[35.3207,36.5642],[35.6036,36.6188],[35.6956,36.7062],[35.6087,36.6469],[35.6226,36.6807],[35.7092,36.7199],[35.6481,36.7332],[35.634,36.6994],[35.5794,36.6851],[35.6067,36.7404],[35.6135,36.7199],[35.6477,36.754],[35.789,36.7737],[35.9734,36.9277],[36.0586,36.9184],[36.1564,36.8462],[36.835,37.1591],[37.6019,37.6259],[38.075,38.1245],[37.2901,38.6612],[37.3685,38.7484],[37.2661,38.7998],[36.785,38.7323],[36.5593,38.4435],[36.3662,38.612],[36.2322,38.5597],[36.1848,38.3507],[35.7538,38.1226],[35.633,37.853],[35.077,37.7501],[34.5249,36.7455]]]}},{"type":"Feature","properties":{"territoryId":"cliopatria-q1356151-ef23a41aa6","name":"Teng","name_ko":"등나라","color":"#3396e1","colorFamily":0,"startYear":-749,"endYear":-480,"source_name":"Cliopatria v0.2.0","source_url":"https://github.com/Seshat-Global-History-Databank/cliopatria","license":"CC BY 4.0","attribution":"Seshat Global History Databank, Cliopatria contributors"},"geometry":{"type":"Polygon","coordinates":[[[116.0975,35.0653],[116.1969,34.9366],[116.5056,34.9366],[116.7045,34.6793],[117.1785,35.0653],[116.9253,35.194],[116.9813,35.3227],[116.904,35.3227],[116.9603,35.4514],[116.6721,35.3227],[116.2856,35.3227],[116.2578,35.2584],[116.1805,35.2584],[116.0975,35.0653]]]}},{"type":"Feature","properties":{"territoryId":"cliopatria-q737629-61f739dd30","name":"Twenty-second Dynasty of Egypt","name_ko":"이집트 제22왕조","color":"#5345e3","colorFamily":0,"startYear":-799,"endYear":-750,"source_name":"Cliopatria v0.2.0","source_url":"https://github.com/Seshat-Global-History-Databank/cliopatria","license":"CC BY 4.0","attribution":"Seshat Global History Databank, Cliopatria contributors"},"geometry":{"type":"Polygon","coordinates":[[[28.231,25.615],[28.3059,25.615],[28.2886,25.165],[28.5688,24.6506],[29.6728,24.2006],[29.9595,23.8792],[30.1087,23.8792],[30.104,23.7506],[30.3952,23.5577],[30.4627,23.3649],[30.5372,23.3649],[31.6705,23.7506],[32.4165,23.7506],[32.3693,26.0008],[32.6074,26.258],[32.6313,26.708],[32.488,26.8366],[31.7368,26.8366],[31.166,27.4152],[31.0155,27.4152],[30.9859,28.251],[30.9104,28.251],[30.8496,28.5081],[30.9399,28.7652],[30.5697,28.8938],[30.6603,29.1509],[30.5885,29.2152],[30.2785,29.0867],[30.0591,29.2152],[29.6847,29.2795],[29.5667,28.5081],[30.0844,28.3153],[30.0775,28.1867],[30.2933,27.9938],[30.2831,27.8009],[30.1225,27.6081],[29.8967,27.6081],[29.9687,27.5438],[29.887,27.4152],[29.1225,27.158],[28.3481,26.6437],[28.231,25.615]]]}},{"type":"Feature","properties":{"territoryId":"cliopatria-q737629-61f739dd30","name":"Twenty-second Dynasty of Egypt","name_ko":"이집트 제22왕조","color":"#5345e3","colorFamily":0,"startYear":-749,"endYear":-700,"source_name":"Cliopatria v0.2.0","source_url":"https://github.com/Seshat-Global-History-Databank/cliopatria","license":"CC BY 4.0","attribution":"Seshat Global History Databank, Cliopatria contributors"},"geometry":{"type":"Polygon","coordinates":[[[28.231,25.615],[28.3059,25.615],[28.2886,25.165],[28.5688,24.6506],[29.6728,24.2006],[29.9595,23.8792],[30.1087,23.8792],[30.104,23.7506],[30.3952,23.5577],[30.4627,23.3649],[30.5372,23.3649],[31.6705,23.7506],[32.4165,23.7506],[32.3693,26.0008],[32.6074,26.258],[32.6313,26.708],[32.488,26.8366],[31.7368,26.8366],[31.166,27.4152],[31.0155,27.4152],[30.9859,28.251],[30.9104,28.251],[30.8496,28.5081],[30.9399,28.7652],[30.5697,28.8938],[30.6603,29.1509],[30.5885,29.2152],[30.2785,29.0867],[30.0591,29.2152],[29.6847,29.2795],[29.5667,28.5081],[30.0844,28.3153],[30.0775,28.1867],[30.2933,27.9938],[30.2831,27.8009],[30.1225,27.6081],[29.8967,27.6081],[29.9687,27.5438],[29.887,27.4152],[29.1225,27.158],[28.3481,26.6437],[28.231,25.615]]]}},{"type":"Feature","properties":{"territoryId":"cliopatria-q748170-b4d254f86c","name":"Twenty-third Dynasty of Egypt","name_ko":"이집트 제23왕조","color":"#e6d256","colorFamily":1,"startYear":-799,"endYear":-750,"source_name":"Cliopatria v0.2.0","source_url":"https://github.com/Seshat-Global-History-Databank/cliopatria","license":"CC BY 4.0","attribution":"Seshat Global History Databank, Cliopatria contributors"},"geometry":{"type":"MultiPolygon","coordinates":[[[[29.0931,30.822],[29.3054,30.565],[29.2938,30.3722],[29.8774,29.9865],[29.7902,29.7937],[30.0855,29.6652],[30.0022,29.5366],[30.3011,29.4723],[30.0629,29.2795],[30.0591,29.2152],[30.2785,29.0867],[30.5885,29.2152],[30.6603,29.1509],[30.5697,28.8938],[30.9399,28.7652],[30.9744,29.3438],[31.1376,29.5366],[31.5918,29.5366],[31.6,29.6652],[31.9786,29.6652],[32.2143,29.7937],[32.3983,29.7406],[32.5095,29.8668],[32.4729,29.882],[32.4769,29.9322],[32.5134,29.9616],[32.5715,29.9426],[32.5778,30.0114],[32.5715,29.9289],[32.6019,29.9223],[32.5573,30.3722],[32.7896,30.4364],[32.7321,30.6935],[32.8222,30.8863],[32.7462,30.8863],[32.8364,31.0791],[32.7313,31.0388],[32.6665,31.0523],[32.7614,31.0791],[32.6016,31.061],[32.3133,31.2076],[32.2625,31.1696],[32.3039,31.0791],[32.1045,31.0791],[32.1198,31.0529],[32.0903,31.0791],[31.9996,31.0791],[31.9576,31.2094],[31.9264,31.187],[31.9266,31.2106],[31.8994,31.2032],[31.9063,31.2516],[31.8858,31.2236],[31.8573,31.2391],[31.7806,31.2076],[31.8077,31.2812],[31.7691,31.2988],[31.7959,31.311],[31.7972,31.3595],[31.8352,31.3561],[31.8304,31.4086],[31.8551,31.41],[31.8584,31.4433],[31.8242,31.4433],[31.8741,31.4647],[31.5568,31.4433],[31.2658,31.4647],[31.1215,31.5275],[31.1192,31.4931],[31.0291,31.5185],[30.9807,31.4365],[30.9397,31.457],[30.8924,31.4191],[30.7985,31.4465],[30.7344,31.3881],[30.6751,31.4216],[30.6267,31.3887],[30.5427,31.395],[30.5579,31.4222],[30.6916,31.4647],[30.369,31.4647],[30.3986,31.4433],[30.352,31.4647],[30.3019,31.3422],[30.3388,31.2719],[30.3019,31.2719],[30.2887,31.2379],[30.2688,31.2653],[30.2205,31.2202],[30.2068,31.2379],[30.1652,31.2168],[30.1401,31.2372],[30.1726,31.2714],[29.9904,31.2719],[29.8982,31.2032],[29.877,31.2136],[29.8635,31.1964],[29.8846,31.1895],[29.8315,31.1513],[29.8696,31.0791],[29.6332,30.9506],[29.5543,30.9848],[29.4481,30.9336],[29.3971,30.822],[29.0931,30.822]]],[[[30.1795,31.2714],[30.1849,31.2719],[30.1795,31.2719],[30.1795,31.2714]]],[[[30.2409,31.2653],[30.2648,31.2719],[30.2479,31.2719],[30.2409,31.2653]]],[[[30.9691,31.5785],[30.9739,31.5799],[30.9739,31.5867],[30.9695,31.5854],[30.9691,31.5785]]],[[[30.978,31.5843],[31.119,31.5305],[31.1608,31.5935],[30.978,31.5843]]]]}},{"type":"Feature","properties":{"territoryId":"cliopatria-q748170-b4d254f86c","name":"Twenty-third Dynasty of Egypt","name_ko":"이집트 제23왕조","color":"#e6d256","colorFamily":1,"startYear":-749,"endYear":-700,"source_name":"Cliopatria v0.2.0","source_url":"https://github.com/Seshat-Global-History-Databank/cliopatria","license":"CC BY 4.0","attribution":"Seshat Global History Databank, Cliopatria contributors"},"geometry":{"type":"MultiPolygon","coordinates":[[[[29.0931,30.822],[29.3054,30.565],[29.2938,30.3722],[29.8774,29.9865],[29.7902,29.7937],[30.0855,29.6652],[30.0022,29.5366],[30.3011,29.4723],[30.0629,29.2795],[30.0591,29.2152],[30.2785,29.0867],[30.5885,29.2152],[30.6603,29.1509],[30.5697,28.8938],[30.9399,28.7652],[30.9744,29.3438],[31.1376,29.5366],[31.5918,29.5366],[31.6,29.6652],[31.9786,29.6652],[32.2143,29.7937],[32.3983,29.7406],[32.5095,29.8668],[32.4729,29.882],[32.4769,29.9322],[32.5134,29.9616],[32.5715,29.9426],[32.5778,30.0114],[32.5715,29.9289],[32.6019,29.9223],[32.5573,30.3722],[32.7896,30.4364],[32.7321,30.6935],[32.8222,30.8863],[32.7462,30.8863],[32.8364,31.0791],[32.7313,31.0388],[32.6665,31.0523],[32.7614,31.0791],[32.6016,31.061],[32.3133,31.2076],[32.2625,31.1696],[32.3039,31.0791],[32.1045,31.0791],[32.1198,31.0529],[32.0903,31.0791],[31.9996,31.0791],[31.9576,31.2094],[31.9264,31.187],[31.9266,31.2106],[31.8994,31.2032],[31.9063,31.2516],[31.8858,31.2236],[31.8573,31.2391],[31.7806,31.2076],[31.8077,31.2812],[31.7691,31.2988],[31.7959,31.311],[31.7972,31.3595],[31.8352,31.3561],[31.8304,31.4086],[31.8551,31.41],[31.8584,31.4433],[31.8242,31.4433],[31.8741,31.4647],[31.5568,31.4433],[31.2658,31.4647],[31.1215,31.5275],[31.1192,31.4931],[31.0291,31.5185],[30.9807,31.4365],[30.9397,31.457],[30.8924,31.4191],[30.7985,31.4465],[30.7344,31.3881],[30.6751,31.4216],[30.6267,31.3887],[30.5427,31.395],[30.5579,31.4222],[30.6916,31.4647],[30.369,31.4647],[30.3986,31.4433],[30.352,31.4647],[30.3019,31.3422],[30.3388,31.2719],[30.3019,31.2719],[30.2887,31.2379],[30.2688,31.2653],[30.2205,31.2202],[30.2068,31.2379],[30.1652,31.2168],[30.1401,31.2372],[30.1726,31.2714],[29.9904,31.2719],[29.8982,31.2032],[29.877,31.2136],[29.8635,31.1964],[29.8846,31.1895],[29.8315,31.1513],[29.8696,31.0791],[29.6332,30.9506],[29.5543,30.9848],[29.4481,30.9336],[29.3971,30.822],[29.0931,30.822]]],[[[30.1795,31.2714],[30.1849,31.2719],[30.1795,31.2719],[30.1795,31.2714]]],[[[30.2409,31.2653],[30.2648,31.2719],[30.2479,31.2719],[30.2409,31.2653]]],[[[30.9691,31.5785],[30.9739,31.5799],[30.9739,31.5867],[30.9695,31.5854],[30.9691,31.5785]]],[[[30.978,31.5843],[31.119,31.5305],[31.1608,31.5935],[30.978,31.5843]]]]}},{"type":"Feature","properties":{"territoryId":"cliopatria-q1147897-ca7c9c4854","name":"Wey","name_ko":"위나라 (衛)","color":"#3392e1","colorFamily":0,"startYear":-749,"endYear":-550,"source_name":"Cliopatria v0.2.0","source_url":"https://github.com/Seshat-Global-History-Databank/cliopatria","license":"CC BY 4.0","attribution":"Seshat Global History Databank, Cliopatria contributors"},"geometry":{"type":"Polygon","coordinates":[[[114.226,35.3871],[114.3033,35.3871],[114.3307,35.4514],[114.4081,35.4514],[114.8565,35.7733],[115.0114,35.7733],[115.0394,35.8377],[115.1169,35.8377],[115.5977,36.224],[115.5201,36.224],[115.6357,36.4816],[115.4417,36.7393],[114.6098,36.0952],[114.3144,35.7733],[114.2809,35.5158],[114.226,35.3871]]]}},{"type":"Feature","properties":{"territoryId":"cliopatria-q274488-53068bce43","name":"Wu","name_ko":"오나라","color":"#e6ac56","colorFamily":8,"startYear":-749,"endYear":-550,"source_name":"Cliopatria v0.2.0","source_url":"https://github.com/Seshat-Global-History-Databank/cliopatria","license":"CC BY 4.0","attribution":"Seshat Global History Databank, Cliopatria contributors"},"geometry":{"type":"MultiPolygon","coordinates":[[[[116.0966,30.3079],[116.27,29.9223],[116.7364,29.7294],[117.1908,29.7294],[117.5269,29.6009],[117.9054,29.6009],[117.8842,29.5366],[117.9599,29.5366],[117.9811,29.6009],[118.3597,29.6009],[119.2257,29.9223],[119.7784,29.9865],[120.2424,29.7937],[121.3124,29.6009],[121.4369,29.475],[121.4434,29.5242],[121.511,29.549],[121.5308,29.51],[121.5743,29.5522],[121.6873,29.5626],[121.8624,29.708],[121.8731,29.7538],[121.9718,29.8156],[122.0108,29.8874],[121.9356,29.8874],[121.9149,29.9187],[121.7675,29.9732],[121.7219,29.9605],[121.7323,29.9786],[121.6202,30.0508],[121.5068,30.22],[121.4054,30.3079],[121.1328,30.3079],[120.8088,30.1151],[120.6944,30.1721],[120.6463,30.1269],[120.7837,30.0893],[120.7922,30.0661],[120.6825,30.0849],[120.6318,30.1224],[120.7314,30.2338],[120.6216,30.3726],[120.4505,30.3689],[120.3847,30.2496],[120.2744,30.2776],[120.1471,30.1989],[120.2579,30.2981],[120.379,30.2735],[120.4303,30.3898],[120.4791,30.4035],[120.6981,30.394],[120.7883,30.2938],[120.9354,30.449],[120.9981,30.5579],[121.1213,30.593],[121.2029,30.6651],[121.3335,30.7031],[121.5192,30.822],[121.9131,30.859],[121.9551,30.9713],[121.877,31.0991],[121.7252,31.2816],[121.3203,31.5048],[121.1444,31.6847],[120.7315,31.8139],[120.7171,31.8611],[120.7515,31.8247],[120.8078,31.8097],[120.8248,31.8287],[120.7504,31.9783],[120.4695,32.0251],[120.4558,31.9825],[120.23,31.9089],[120.0064,31.9503],[119.8556,32.087],[119.7725,32.1268],[119.7886,32.1986],[119.6904,32.2353],[119.606,32.1969],[119.649,32.2195],[119.6854,32.2924],[119.6129,32.3546],[119.8421,32.2991],[119.9005,32.1982],[119.9221,32.2174],[119.9122,32.1237],[119.992,32.0159],[120.1314,31.9432],[120.2671,31.9487],[120.4908,32.0825],[120.6344,32.077],[120.8108,32.0226],[120.9414,31.8925],[120.9407,31.8482],[121.1641,31.8265],[121.2864,31.8906],[121.5806,31.7861],[121.6118,31.7469],[121.8173,31.6909],[121.8617,31.6907],[121.9173,31.7616],[121.7986,31.9705],[121.6554,32.0629],[121.4434,32.1143],[121.3608,32.2316],[121.4193,32.2503],[121.3894,32.3849],[121.1573,32.4956],[121.1008,32.498],[121.0862,32.536],[120.8303,32.6977],[120.8401,32.7245],[120.8604,32.6898],[120.8524,32.756],[120.9048,32.8126],[120.8958,33.0136],[120.8259,33.0302],[120.8189,33.0922],[120.7922,33.1087],[120.807,33.1378],[120.7302,33.2049],[120.7503,33.2696],[120.6672,33.3251],[120.6344,33.4669],[120.4837,33.65],[120.5117,33.6567],[120.5049,33.7356],[120.3997,33.8693],[120.4133,33.8974],[120.3713,34.036],[120.2571,34.3118],[119.9072,34.4615],[119.6477,34.5338],[119.4566,34.6846],[119.4742,34.7153],[119.4422,34.746],[119.3467,34.7808],[119.3118,34.7551],[119.2293,34.7597],[119.2034,34.7119],[119.1991,34.8002],[118.4284,34.7436],[118.435,34.9366],[118.2807,34.9366],[118.1199,34.7436],[117.9657,34.7436],[117.6741,34.422],[117.6198,34.2933],[117.2311,34.1004],[117.7392,33.8432],[117.7629,33.7146],[118.0436,33.6502],[118.118,33.4574],[118.449,33.3288],[118.5746,33.0716],[118.9058,32.943],[118.3194,32.4288],[117.1096,31.6575],[117.0208,31.2076],[116.8374,30.6935],[116.1186,30.3722],[116.0966,30.3079]]],[[[119.7162,32.2726],[119.7498,32.228],[119.8193,32.2038],[119.792,32.1218],[119.9019,32.0734],[119.8143,32.2756],[119.7508,32.2931],[119.7162,32.2726]]],[[[121.212,31.8219],[121.4047,31.8032],[121.2641,31.8411],[121.212,31.8219]]],[[[121.304,31.6734],[121.3145,31.6556],[121.5175,31.5684],[121.5715,31.5294],[121.6292,31.5179],[121.6335,31.529],[121.304,31.6734]]],[[[121.5845,31.4414],[121.5968,31.4332],[121.6004,31.4425],[121.5845,31.4414]]],[[[121.6461,31.4005],[121.78,31.3252],[121.7206,31.4005],[121.6461,31.4005]]],[[[121.6698,29.5124],[121.73,29.5221],[121.7246,29.5385],[121.7109,29.5386],[121.6698,29.5124]]],[[[121.745,29.5447],[121.8255,29.5462],[121.8696,29.6273],[121.7961,29.6006],[121.745,29.5447]]],[[[121.7499,29.5253],[121.7633,29.5274],[121.764,29.5308],[121.7499,29.5253]]],[[[121.9336,29.9213],[121.9924,29.9083],[121.952,29.9467],[121.9336,29.9213]]]]}},{"type":"Feature","properties":{"territoryId":"cliopatria-q2650109-24ef6e0cc9","name":"Xu","name_ko":"서나라","color":"#d8e77e","colorFamily":7,"startYear":-749,"endYear":-450,"source_name":"Cliopatria v0.2.0","source_url":"https://github.com/Seshat-Global-History-Databank/cliopatria","license":"CC BY 4.0","attribution":"Seshat Global History Databank, Cliopatria contributors"},"geometry":{"type":"Polygon","coordinates":[[[116.65,34.5506],[117.5747,34.5506],[117.6741,34.422],[117.9657,34.7436],[117.6355,34.8723],[117.7683,35.001],[117.1785,35.0653],[116.7045,34.6793],[116.65,34.5506]]]}},{"type":"Feature","properties":{"territoryId":"cliopatria-q1472004-d755ed1057","name":"Yan","name_ko":"연나라","color":"#4579e3","colorFamily":0,"startYear":-749,"endYear":-404,"source_name":"Cliopatria v0.2.0","source_url":"https://github.com/Seshat-Global-History-Databank/cliopatria","license":"CC BY 4.0","attribution":"Seshat Global History Databank, Cliopatria contributors"},"geometry":{"type":"Polygon","coordinates":[[[115.8648,39.385],[116.1009,39.385],[116.0919,39.0618],[116.2618,38.9326],[116.1639,38.7389],[116.3993,38.7389],[116.1454,38.5451],[117.1971,38.6097],[117.2298,38.6743],[117.5596,38.6743],[117.584,38.8116],[117.7019,38.9953],[117.7604,39.0355],[117.7154,39.1114],[117.8856,39.2011],[118.0964,39.2024],[118.2249,39.0618],[118.4054,39.0618],[118.5291,39.1247],[118.5271,39.1492],[118.796,39.1518],[118.8738,39.2138],[118.8806,39.1728],[118.9894,39.1911],[119.2844,39.4496],[119.2564,39.4931],[119.2814,39.575],[119.2293,39.536],[119.243,39.5707],[119.209,39.5502],[119.2086,39.5696],[119.2849,39.5954],[119.3804,39.7729],[119.5264,39.832],[119.5356,39.8908],[119.7744,39.9505],[119.912,39.9981],[119.9153,40.0362],[119.9503,40.0565],[120.4722,40.2145],[120.5049,40.2491],[120.5018,40.3269],[120.5769,40.3608],[120.5884,40.3843],[120.5391,40.3829],[120.5974,40.4224],[120.6041,40.4652],[120.8001,40.6045],[120.8253,40.674],[120.9041,40.6858],[120.971,40.7381],[120.9363,40.7556],[120.9819,40.8268],[121.0296,40.8265],[121.0488,40.799],[121.0799,40.863],[121.227,40.9384],[119.3442,40.4201],[117.5675,40.3554],[116.4522,39.9023],[116.1365,39.9023],[115.8648,39.385]]]}},{"type":"Feature","properties":{"territoryId":"cliopatria-q197598-11282d6f0c","name":"Zheng","name_ko":"정나라","color":"#ec5186","colorFamily":3,"startYear":-749,"endYear":-450,"source_name":"Cliopatria v0.2.0","source_url":"https://github.com/Seshat-Global-History-Databank/cliopatria","license":"CC BY 4.0","attribution":"Seshat Global History Databank, Cliopatria contributors"},"geometry":{"type":"Polygon","coordinates":[[[113.3414,34.9366],[113.6738,34.8079],[114.4721,34.8723],[114.499,34.9366],[114.3759,35.194],[114.4081,35.4514],[114.3307,35.4514],[114.3033,35.3871],[113.5301,35.3871],[113.3414,34.9366]]]}},{"type":"Feature","properties":{"territoryId":"cliopatria-q35216-1489483393","name":"Zhou Dynasty","name_ko":"주나라","color":"#3e6cea","colorFamily":0,"startYear":-799,"endYear":-750,"source_name":"Cliopatria v0.2.0","source_url":"https://github.com/Seshat-Global-History-Databank/cliopatria","license":"CC BY 4.0","attribution":"Seshat Global History Databank, Cliopatria contributors"},"geometry":{"type":"MultiPolygon","coordinates":[[[[106.9845,35.2584],[107.139,35.2584],[107.0884,35.1297],[107.3468,35.001],[107.3737,34.8723],[108.1988,34.615],[110.6653,34.615],[110.7681,34.4863],[110.7171,34.3577],[111.0775,34.1004],[111.0021,33.9075],[111.1558,33.9075],[111.1058,33.7789],[111.2097,33.6502],[111.596,33.4574],[111.6756,33.2645],[112.7517,33.0716],[112.9326,32.943],[113.4932,33.0073],[113.7503,32.8788],[114.0294,33.0073],[114.0075,32.7502],[114.1396,32.4931],[114.3932,32.5574],[114.6505,32.4288],[114.6785,32.3002],[114.8313,32.3002],[114.7832,32.1717],[114.8881,32.0431],[115.0932,31.9789],[115.5228,32.1074],[115.4748,31.9789],[115.6798,31.9146],[115.714,31.5933],[115.9426,31.5933],[115.8957,31.4647],[116.0776,31.3362],[117.659,31.0791],[118.4432,31.1434],[118.9187,31.4005],[119.1233,31.3362],[119.2474,31.4647],[119.3517,31.3362],[120.2896,31.4005],[120.75,31.2076],[121.4836,31.3362],[121.5204,31.3835],[121.1444,31.6847],[120.7315,31.8139],[120.7171,31.8611],[120.8248,31.8287],[120.7504,31.9783],[120.4695,32.0251],[120.23,31.9089],[120.0064,31.9503],[119.7725,32.1268],[119.7886,32.1986],[119.6904,32.2353],[119.606,32.1969],[119.6854,32.2924],[119.6129,32.3546],[119.8421,32.2991],[119.992,32.0159],[120.1314,31.9432],[120.2671,31.9487],[120.4908,32.0825],[120.6344,32.077],[120.8108,32.0226],[120.9407,31.8503],[121.2864,31.8906],[121.8173,31.6909],[121.9095,31.7045],[121.9221,31.7544],[121.7986,31.9705],[121.4434,32.1143],[121.3608,32.2316],[121.4193,32.2503],[121.3894,32.3849],[121.1008,32.498],[120.8303,32.6977],[120.9048,32.8126],[120.8958,33.0136],[120.8259,33.0302],[120.807,33.1378],[120.7302,33.2049],[120.7503,33.2696],[120.6672,33.3251],[120.6344,33.4669],[120.4837,33.65],[120.5049,33.7356],[120.3997,33.8693],[120.2571,34.3118],[119.6477,34.5338],[119.3467,34.7808],[119.1922,34.7182],[119.2073,35.0484],[119.358,35.0971],[119.4239,35.3135],[119.5319,35.3586],[119.648,35.5839],[119.7325,35.6208],[119.7439,35.5759],[119.8401,35.6579],[119.8602,35.6061],[119.9046,35.6246],[119.9082,35.7449],[120.0029,35.7278],[120.0972,35.9008],[120.189,35.9453],[120.1753,35.89],[120.2941,36.0024],[120.1753,35.9936],[120.0897,36.1117],[120.0972,36.2264],[120.2845,36.176],[120.3064,36.2742],[120.3616,36.1916],[120.292,36.062],[120.3535,36.0408],[120.6669,36.1321],[120.6436,36.3225],[120.7107,36.3245],[120.7141,36.4287],[120.95,36.4592],[120.9636,36.5479],[120.8504,36.6046],[120.7503,36.5408],[120.7506,36.6168],[120.8506,36.6509],[120.9774,36.5899],[121.4017,36.7124],[121.4595,36.8287],[121.6072,36.845],[121.5032,36.7886],[121.5247,36.7543],[121.9498,36.9389],[121.9263,36.9936],[122.0492,36.9799],[122.0365,36.8993],[122.1429,36.9458],[122.1661,37.0141],[122.1627,36.9458],[122.2659,36.898],[122.1852,36.8595],[122.3552,36.8291],[122.4364,36.8707],[122.4058,36.9222],[122.5268,36.9528],[122.54,37.0277],[122.4024,37.0215],[122.4539,37.1543],[122.4707,37.1103],[122.5735,37.2601],[122.5497,37.3198],[122.5947,37.2952],[122.5708,37.3448],[122.6847,37.4102],[122.2965,37.4182],[122.2454,37.4597],[122.1832,37.4182],[122.1218,37.5627],[122.0256,37.528],[121.988,37.4256],[121.635,37.4813],[121.5874,37.4536],[121.6761,37.4392],[121.5703,37.4287],[121.3817,37.5661],[121.4298,37.5969],[121.3936,37.6225],[121.1716,37.5771],[121.138,37.7012],[121.0326,37.7104],[120.9258,37.8193],[120.738,37.834],[120.2157,37.6841],[120.3225,37.6324],[120.1876,37.5118],[119.8589,37.3602],[119.8973,37.2494],[119.7706,37.1518],[119.4412,37.1206],[119.1455,37.1789],[118.9724,37.2807],[118.9446,37.3781],[119.0371,37.7221],[119.1746,37.7085],[119.2164,37.794],[118.9966,37.9631],[118.9248,38.0578],[118.95,38.0973],[118.7604,38.1551],[118.543,38.0683],[118.0652,38.1431],[117.6025,38.4806],[117.5435,38.6213],[117.584,38.8116],[117.7474,39.071],[117.7154,39.1114],[118.0795,39.2557],[117.9902,39.385],[117.8328,39.385],[117.867,39.4496],[117.7095,39.4496],[117.7241,39.7729],[117.6011,39.8376],[117.6625,40.0964],[117.4608,40.1612],[117.5318,40.2906],[117.2945,40.2906],[117.0305,40.0964],[116.181,39.8376],[114.9186,39.8376],[114.5355,39.7083],[113.5447,38.9972],[112.2793,37.3193],[111.0426,36.0952],[110.9148,36.1596],[110.8875,36.0952],[110.81,36.0952],[110.5971,35.7733],[109.3846,35.8377],[109.438,35.9664],[109.1788,35.902],[108.9996,36.0308],[107.7328,35.9664],[107.3966,35.902],[106.9845,35.2584]]],[[[119.7162,32.2726],[119.8193,32.2038],[119.792,32.1218],[119.9019,32.0734],[119.8143,32.2756],[119.7162,32.2726]]],[[[120.7502,37.8986],[120.7546,37.8967],[120.7549,37.8996],[120.7538,37.8998],[120.7502,37.8986]]],[[[120.9433,31.8394],[120.9506,31.8252],[120.9778,31.8144],[120.9958,31.8158],[120.9433,31.8394]]],[[[121.3009,31.6786],[121.3145,31.6556],[121.5175,31.5684],[121.5715,31.5294],[121.6254,31.5186],[121.6335,31.529],[121.3009,31.6786]]]]}},{"type":"Feature","properties":{"territoryId":"cliopatria-q227007-9ce81a89ac","name":"Zhu","name_ko":"주나라 (邾)","color":"#b256e6","colorFamily":4,"startYear":-749,"endYear":-450,"source_name":"Cliopatria v0.2.0","source_url":"https://github.com/Seshat-Global-History-Databank/cliopatria","license":"CC BY 4.0","attribution":"Seshat Global History Databank, Cliopatria contributors"},"geometry":{"type":"Polygon","coordinates":[[[116.904,35.3227],[116.9813,35.3227],[116.9253,35.194],[117.1785,35.0653],[117.7683,35.001],[118.056,35.1297],[118.3036,35.5158],[118.2549,35.5802],[117.5871,35.6445],[116.9603,35.4514],[116.904,35.3227]]]}}]}
