{"type":"FeatureCollection","features":[{"type":"Feature","properties":{"territoryId":"cliopatria-q41642-371ce03e73","name":"(Phoenician Empire)","name_ko":"페니키아","color":"#2c41e8","colorFamily":0,"startYear":-899,"endYear":-800,"source_name":"Cliopatria v0.2.0","source_url":"https://github.com/Seshat-Global-History-Databank/cliopatria","license":"CC BY 4.0","attribution":"Seshat Global History Databank, Cliopatria contributors"},"geometry":{"type":"MultiPolygon","coordinates":[[[[14.3688,32.5574],[14.5166,32.1717],[14.8248,32.3645],[14.9013,32.3645],[14.8033,32.4479],[14.7268,32.4508],[14.6316,32.4957],[14.4695,32.519],[14.4091,32.5574],[14.3688,32.5574]]],[[[35.2213,33.1359],[35.4452,33.0716],[35.6992,33.3288],[35.8526,33.3288],[35.8587,33.3931],[36.1074,33.5859],[36.0493,33.7789],[36.203,33.7789],[36.1514,34.0361],[36.2411,34.1647],[36.3767,34.7436],[36.1782,35.0653],[36.3393,35.1297],[36.4071,35.7733],[36.2522,35.7733],[36.1884,35.902],[35.9017,35.902],[35.8736,35.8563],[35.8449,35.5802],[35.9929,35.5158],[35.9153,35.2879],[35.9624,35.1979],[35.927,34.8723],[36.0682,34.7436],[36.0488,34.5506],[35.7921,34.2933],[35.7127,34.3279],[35.6652,34.3113],[35.6525,34.2791],[35.6838,33.9718],[35.5909,33.9466],[35.572,33.91],[35.5173,33.9025],[35.4866,33.913],[35.4705,33.9021],[35.4832,33.8725],[35.47,33.7942],[35.4993,33.6502],[35.3944,33.65],[35.3653,33.5547],[35.3984,33.3931],[35.2272,33.2002],[35.2213,33.1359]]],[[[14.3384,35.9455],[14.3457,35.8759],[14.3815,35.843],[14.5275,35.8012],[14.548,35.836],[14.5618,35.8298],[14.548,35.89],[14.5139,35.9008],[14.5078,35.9285],[14.4451,35.9604],[14.3494,35.9731],[14.3773,35.9936],[14.3389,35.9793],[14.3384,35.9455]]],[[[9.4476,37.2549],[9.7882,37.1904],[9.7718,37.2133],[9.7927,37.238],[9.8617,37.2712],[9.759,37.3193],[9.4476,37.2549]]],[[[9.8196,37.2276],[9.8818,37.2271],[9.9152,37.2549],[9.8825,37.2636],[9.8196,37.2276]]]]}},{"type":"Feature","properties":{"territoryId":"cliopatria-q47690-5e1dd28d70","name":"Babylonia","name_ko":"바빌로니아","color":"#758ff0","colorFamily":0,"startYear":-899,"endYear":-800,"source_name":"Cliopatria v0.2.0","source_url":"https://github.com/Seshat-Global-History-Databank/cliopatria","license":"CC BY 4.0","attribution":"Seshat Global History Databank, Cliopatria contributors"},"geometry":{"type":"MultiPolygon","coordinates":[[[[43.4202,32.4931],[44.459,31.5933],[44.5814,31.3362],[44.9546,31.2719],[45.7705,30.4364],[46.5906,30.3079],[46.6151,29.858],[46.8497,29.9223],[46.994,29.858],[46.9794,29.7294],[47.2897,29.7937],[47.8662,29.5366],[48.0239,29.5848],[48.1734,29.5734],[48.0789,29.744],[48.0524,29.743],[47.9956,29.8277],[47.9348,30.1071],[47.969,30.0041],[48.1192,30.045],[48.434,29.9365],[48.5304,29.9564],[48.4766,29.984],[48.531,29.9613],[48.6587,29.9836],[48.6433,30.0554],[48.8904,30.0308],[48.9348,30.0797],[48.9417,30.1651],[48.8623,30.3456],[48.9348,30.4186],[48.9987,30.4157],[49.0194,30.4558],[48.9456,30.4797],[48.953,30.5002],[49.2705,30.5007],[49.2867,30.6292],[48.2528,31.4647],[48.1516,32.4288],[47.8632,32.5574],[47.7868,32.5574],[47.7437,32.236],[47.5909,32.236],[47.4723,32.4931],[47.0221,32.5574],[46.7587,32.8788],[46.1631,33.0073],[46.2059,33.3288],[45.8991,33.3288],[45.4654,32.943],[45.099,33.0716],[44.6311,33.0073],[44.5708,33.1359],[44.4175,33.1359],[44.2481,33.0073],[44.2084,32.6859],[43.9102,32.7502],[43.4279,32.5574],[43.4202,32.4931]],[[48.1351,30.4429],[48.1409,30.4419],[48.1705,30.4067],[48.1351,30.4429]],[[48.291,30.32],[48.2964,30.3198],[48.3014,30.3149],[48.291,30.32]],[[48.3292,30.2876],[48.397,30.221],[48.4026,30.2088],[48.3292,30.2876]],[[48.3811,30.1453],[48.3832,30.1481],[48.3831,30.1424],[48.3811,30.1453]],[[48.4082,30.1885],[48.4085,30.1961],[48.4106,30.1915],[48.4082,30.1885]],[[48.4239,30.0836],[48.4618,29.9949],[48.4531,30.0014],[48.4239,30.0836]]],[[[48.0108,29.9805],[48.1092,30.028],[48.0547,30.0245],[48.0108,29.9805]]],[[[48.0461,29.8005],[48.1858,29.6039],[48.229,29.5999],[48.3031,29.6452],[48.3527,29.7098],[48.3445,29.7906],[48.1621,29.9957],[48.1227,29.9697],[48.1974,29.9254],[48.1587,29.8792],[48.0951,29.8947],[48.1133,29.8391],[48.0461,29.8005]]],[[[48.9212,30.3808],[48.972,30.3642],[48.9893,30.3977],[48.9212,30.3808]]]]}},{"type":"Feature","properties":{"territoryId":"cliopatria-q128904-1175fc4c43","name":"Elam","name_ko":"엘람","color":"#f0b875","colorFamily":1,"startYear":-899,"endYear":-800,"source_name":"Cliopatria v0.2.0","source_url":"https://github.com/Seshat-Global-History-Databank/cliopatria","license":"CC BY 4.0","attribution":"Seshat Global History Databank, Cliopatria contributors"},"geometry":{"type":"MultiPolygon","coordinates":[[[[47.8632,32.5574],[48.1516,32.4288],[48.2528,31.4647],[49.2867,30.6292],[49.2705,30.5007],[49.213,30.5007],[49.2283,30.4544],[49.2638,30.4497],[49.2029,30.3466],[49.0852,30.4009],[49.0187,30.3079],[49.1646,30.2252],[49.2092,30.2715],[49.2364,30.1846],[49.283,30.1581],[49.4798,30.1561],[49.5041,30.0587],[49.5645,30.0168],[49.9146,30.2039],[50.0241,30.2163],[50.1407,30.1794],[50.477,30.4364],[50.3585,30.6935],[50.0714,30.822],[50.0048,31.4647],[50.1659,31.529],[50.2864,31.8503],[50.0171,32.1074],[50.0352,32.236],[49.9588,32.236],[49.7169,32.6859],[49.2488,32.6216],[49.2761,32.8145],[49.0464,32.8145],[48.9881,32.943],[48.6818,32.943],[48.5467,33.0716],[48.087,33.0716],[47.8632,32.5574]]],[[[49.1303,30.5007],[49.134,30.4975],[49.1433,30.5007],[49.1303,30.5007]]],[[[49.1682,30.477],[49.203,30.5007],[49.1727,30.5007],[49.1751,30.4975],[49.1682,30.477]]]]}},{"type":"Feature","properties":{"territoryId":"cliopatria-q210443-7a92a6ea60","name":"Greek Dark Ages","name_ko":"그리스 암흑기","color":"#5693e6","colorFamily":0,"startYear":-899,"endYear":-800,"source_name":"Cliopatria v0.2.0","source_url":"https://github.com/Seshat-Global-History-Databank/cliopatria","license":"CC BY 4.0","attribution":"Seshat Global History Databank, Cliopatria contributors"},"geometry":{"type":"MultiPolygon","coordinates":[[[[32.2717,35.0728],[32.3294,34.8864],[32.459,34.7219],[32.7099,34.6458],[32.8343,34.671],[32.9136,34.6567],[32.9425,34.5794],[33.0303,34.5685],[33.0156,34.6344],[33.0864,34.6948],[33.2601,34.7005],[33.3992,34.7453],[33.4002,34.7734],[33.4387,34.7628],[33.5917,34.8203],[33.6541,34.9447],[33.7015,34.9729],[33.7809,34.9763],[33.7592,34.9887],[33.828,34.9584],[34.0685,34.9979],[34.022,35.057],[33.9431,35.0653],[34.0123,35.0638],[33.8999,35.1645],[33.9121,35.26],[33.9517,35.3115],[34.0589,35.3241],[34.1377,35.4151],[34.5346,35.6332],[34.5384,35.671],[34.1817,35.5542],[34.0356,35.4714],[33.6603,35.3593],[33.4275,35.3289],[32.9231,35.3871],[32.9294,35.233],[32.8652,35.157],[32.6897,35.1839],[32.5141,35.1297],[32.4138,35.043],[32.3534,35.0479],[32.2866,35.0972],[32.2717,35.0728]],[[33.7592,34.9887],[33.7911,34.9824],[33.7874,34.98],[33.7592,34.9887]],[[32.712,35.1731],[32.7315,35.1432],[32.7127,35.1634],[32.712,35.1731]],[[33.4666,35.0051],[33.4675,35.0126],[33.4768,35.0027],[33.4666,35.0051]],[[33.6195,35.0168],[33.7115,34.9856],[33.7029,34.9879],[33.6195,35.0168]],[[33.6794,35.0349],[33.7022,35.0223],[33.6794,35.0339],[33.6794,35.0349]],[[33.6966,35.009],[33.7022,35.0223],[33.7002,35.0067],[33.6966,35.009]],[[33.8412,35.0511],[33.8801,35.0731],[33.8551,35.0534],[33.8412,35.0511]]],[[[23.6154,35.5158],[23.6792,35.2584],[24.4484,35.194],[24.7574,35.194],[24.8237,35.001],[26.1401,35.0653],[26.2253,35.194],[25.8469,35.1493],[25.7953,35.1151],[25.6806,35.1297],[25.6923,35.3227],[25.4536,35.2941],[25.3991,35.3227],[24.301,35.3227],[24.1499,35.3871],[24.1541,35.465],[24.0669,35.507],[24.1569,35.5158],[23.6154,35.5158]]],[[[27.708,36.1688],[27.714,36.1225],[27.7571,36.0844],[27.7311,35.9907],[27.7519,35.905],[27.8638,35.9413],[27.9934,36.062],[28.0896,36.0551],[28.0964,36.1035],[28.0617,36.1165],[28.1634,36.2377],[28.2311,36.4498],[27.8997,36.3402],[27.8032,36.2702],[27.772,36.1978],[27.708,36.1688]]],[[[26.9177,36.7161],[26.9303,36.7011],[26.9845,36.7229],[26.992,36.7536],[27.1854,36.8037],[27.1442,36.8811],[26.986,36.7676],[26.9264,36.7656],[26.9177,36.7161]]],[[[25.3418,37.083],[25.3936,36.9971],[25.5644,36.9971],[25.5727,37.126],[25.4128,37.126],[25.3418,37.083]]],[[[27.2288,37.0618],[27.2632,36.9634],[27.3081,36.9594],[27.3286,37.0141],[27.3765,37.0277],[27.3833,36.9936],[27.3968,37.0277],[27.4385,37.0277],[27.5476,36.9809],[27.6663,36.9971],[27.7538,37.126],[27.6028,37.1904],[27.5288,37.1904],[27.5651,37.1256],[27.4598,37.0895],[27.4385,37.124],[27.3833,37.1518],[27.3423,37.1301],[27.3363,37.152],[27.3218,37.124],[27.2529,37.124],[27.2944,37.1103],[27.2288,37.0618]]],[[[21.2436,37.8352],[21.6966,37.5128],[21.6664,37.4088],[21.6958,37.3164],[21.6031,37.1904],[21.681,37.1904],[21.7435,36.8682],[21.8992,36.8682],[21.9085,37.0615],[22.22,37.0615],[22.3356,36.7337],[22.388,36.7062],[22.3757,36.6749],[22.5118,36.6749],[22.5994,36.8682],[22.8328,36.8682],[23.0332,36.6946],[22.8532,37.2549],[22.7007,37.3193],[22.7144,37.5773],[22.7783,37.5969],[22.9486,37.5773],[23.1756,37.4483],[23.1685,37.3193],[23.278,37.3498],[23.2302,37.3846],[23.3849,37.4134],[23.36,37.5475],[23.3367,37.5355],[23.1686,37.6142],[23.1626,37.6417],[23.1083,37.6417],[23.0586,37.8427],[23.0125,37.8476],[22.9951,37.8821],[23.0151,37.9252],[23.0941,37.911],[23.2044,37.963],[23.2082,38.0288],[23.5746,38.0468],[23.5979,38.0211],[23.5597,37.9866],[23.9786,37.8352],[24.0021,38.2224],[24.0361,38.2224],[23.951,38.2909],[23.6729,38.3564],[23.5735,38.4534],[23.5929,38.4806],[23.3126,38.4806],[23.1826,38.6538],[23.1045,38.6384],[23.0698,38.7015],[22.9356,38.7389],[22.9149,38.7756],[22.8672,38.7551],[22.8293,38.7861],[22.7783,38.7817],[22.7026,38.8507],[22.5934,38.8302],[22.5539,38.8481],[22.5729,38.8643],[22.5404,38.8601],[22.3863,38.7389],[21.912,38.6743],[21.6015,38.7389],[21.278,38.5451],[21.2716,38.416],[21.3401,38.4065],[21.3533,38.4329],[21.3225,38.4963],[21.3601,38.4677],[21.3769,38.4015],[21.7163,38.3579],[21.7625,38.3284],[21.8312,38.3967],[21.8792,38.378],[21.9876,38.4106],[22.1326,38.3727],[22.1892,38.3231],[22.2249,38.3601],[22.3823,38.3427],[22.4016,38.4534],[22.4684,38.4211],[22.5625,38.2935],[22.6003,38.3026],[22.5872,38.3367],[22.6462,38.3618],[22.6268,38.3715],[22.6465,38.39],[22.6965,38.3169],[22.7988,38.2821],[22.7648,38.248],[22.8057,38.227],[22.895,38.2412],[22.9087,38.1928],[22.9695,38.1928],[22.9224,38.207],[22.9519,38.2253],[23.0667,38.1832],[23.1227,38.2081],[23.1489,38.1859],[23.1284,38.1723],[23.2234,38.1592],[23.1755,38.145],[23.2166,38.1033],[23.0686,38.0589],[22.9429,38.0835],[22.854,38.0351],[22.9754,37.979],[22.9463,37.9462],[22.8672,37.9395],[22.6804,38.0666],[22.3312,38.1789],[22.2185,38.1882],[22.0204,38.3132],[21.8495,38.3413],[21.7333,38.2514],[21.7286,38.1578],[21.4156,38.1578],[21.2436,37.8352]]],[[[22.344,39.385],[22.5615,39.0618],[22.5514,38.8835],[22.6216,38.9145],[22.689,38.878],[22.792,38.878],[22.8465,38.9264],[22.9845,38.9543],[23.0731,39.0363],[22.9639,39.009],[22.9981,39.0493],[22.9767,39.0983],[22.7973,39.0618],[22.8163,39.385],[23.1318,39.4489],[22.7569,39.7083],[22.7648,39.8376],[22.6109,39.9023],[22.6497,39.9853],[22.593,40.0329],[22.5319,39.9023],[22.5877,39.5143],[22.344,39.385]]],[[[22.833,38.8227],[22.9415,38.8412],[22.9694,38.8891],[23.1825,38.9326],[23.1787,38.868],[23.4888,38.8034],[23.3435,38.9972],[23.1116,38.9972],[23.0868,38.9543],[22.8748,38.8749],[22.833,38.8227]]],[[[23.0356,36.6926],[23.0463,36.6833],[23.0517,36.6872],[23.0498,36.6926],[23.0356,36.6926]]],[[[23.052,39.0977],[23.1132,39.0886],[23.1146,39.1106],[23.052,39.0977]]],[[[23.3122,37.6174],[23.3406,37.6003],[23.3536,37.5821],[23.3442,37.6327],[23.3122,37.6174]]],[[[23.4014,37.3193],[23.4024,37.3193],[23.4023,37.3198],[23.4014,37.3193]]],[[[23.5634,38.7389],[23.6355,38.5286],[23.594,38.4534],[23.6144,38.4609],[23.6492,38.4057],[24.0422,38.4015],[24.0669,38.351],[24.0254,38.3305],[24.1216,38.3095],[24.1094,38.2563],[24.1617,38.2698],[24.1789,38.5451],[24.0302,38.6743],[23.5634,38.7389]]],[[[24.1275,38.2224],[24.1591,38.2287],[24.1614,38.2661],[24.1275,38.2224]]],[[[25.8407,38.5224],[25.9439,38.4534],[25.9507,38.4057],[25.989,38.3793],[25.9644,38.3026],[25.885,38.2794],[25.8898,38.2206],[26.0115,38.1578],[26.0401,38.2002],[26.1121,38.2226],[26.1022,38.2617],[26.1581,38.329],[26.1541,38.4673],[26.1219,38.4875],[26.1636,38.5428],[26.1307,38.5672],[26.1082,38.5428],[26.0159,38.602],[25.8696,38.5831],[25.8407,38.5224]]],[[[23.4849,38.7389],[23.5634,38.7389],[23.5668,38.7946],[23.4888,38.8034],[23.4849,38.7389]]]]}},{"type":"Feature","properties":{"territoryId":"cliopatria-q3185305-438ad53cce","name":"Kingdom of Israel","name_ko":"연합 이스라엘 왕국","color":"#ec518c","colorFamily":3,"startYear":-899,"endYear":-800,"source_name":"Cliopatria v0.2.0","source_url":"https://github.com/Seshat-Global-History-Databank/cliopatria","license":"CC BY 4.0","attribution":"Seshat Global History Databank, Cliopatria contributors"},"geometry":{"type":"Polygon","coordinates":[[[34.8725,32.4288],[35.0047,32.4288],[35.1406,32.236],[35.0365,31.9146],[35.5705,31.9146],[35.63,31.7218],[35.7062,31.7218],[35.8643,31.7861],[35.8051,31.9789],[35.8814,31.9789],[36.0456,32.1074],[35.8987,32.1717],[35.9103,32.3002],[36.3101,32.4931],[36.1751,32.6859],[35.9515,32.7502],[36.0765,33.2645],[35.9292,33.3288],[35.6992,33.3288],[35.4452,33.0716],[35.2213,33.1359],[35.2154,33.0716],[35.089,33.0205],[35.0654,32.9231],[35.0796,32.9058],[35.0628,32.8583],[35.0412,32.8388],[35.0218,32.6216],[34.8945,32.522],[34.8725,32.4288]],[[35.552,32.3679],[35.5533,32.3691],[35.5656,32.3134],[35.552,32.3679]],[[35.5568,32.3724],[35.5594,32.3748],[35.5656,32.3679],[35.5568,32.3724]],[[35.5585,32.5191],[35.5614,32.5192],[35.5674,32.5102],[35.5585,32.5191]],[[35.5594,32.4704],[35.5626,32.4747],[35.5725,32.4567],[35.5594,32.4704]],[[35.5688,32.4829],[35.5778,32.4948],[35.58,32.4915],[35.5688,32.4829]],[[35.7716,32.7467],[35.7749,32.7473],[35.7882,32.7344],[35.7716,32.7467]]]}},{"type":"Feature","properties":{"territoryId":"cliopatria-q48685-09a15d87d0","name":"Kingdom of Judah","name_ko":"유다 왕국","color":"#7e87e7","colorFamily":0,"startYear":-899,"endYear":-800,"source_name":"Cliopatria v0.2.0","source_url":"https://github.com/Seshat-Global-History-Databank/cliopatria","license":"CC BY 4.0","attribution":"Seshat Global History Databank, Cliopatria contributors"},"geometry":{"type":"Polygon","coordinates":[[[34.8514,31.529],[34.9877,31.3362],[35.2161,31.3362],[35.4549,31.4335],[35.4593,31.4958],[35.4551,31.4335],[35.5316,31.4647],[35.5537,31.7218],[35.63,31.7218],[35.5705,31.9146],[35.0365,31.9146],[34.8567,31.5933],[34.8514,31.529]]]}},{"type":"Feature","properties":{"territoryId":"cliopatria-q241790-c835c9c865","name":"Kingdom of Kush","name_ko":"쿠시 왕국","color":"#e13373","colorFamily":3,"startYear":-999,"endYear":-800,"source_name":"Cliopatria v0.2.0","source_url":"https://github.com/Seshat-Global-History-Databank/cliopatria","license":"CC BY 4.0","attribution":"Seshat Global History Databank, Cliopatria contributors"},"geometry":{"type":"MultiPolygon","coordinates":[[[[30.5372,23.3649],[30.742,22.8506],[30.7214,22.272],[30.5615,21.9505],[30.6358,21.9505],[30.6879,21.3077],[30.7621,21.3077],[30.7442,20.7934],[30.8184,20.7934],[30.8026,20.3434],[30.8768,20.3434],[31.147,17.6433],[31.2208,17.6433],[31.337,16.8076],[31.4771,16.6147],[31.3939,16.3576],[31.5364,16.229],[31.527,15.9718],[31.7337,15.5861],[32.0944,15.3933],[32.5334,15.329],[32.5286,15.2004],[33.8621,15.4575],[34.0981,15.8433],[34.6843,15.779],[34.5556,16.229],[34.7137,16.4861],[35.6713,16.4861],[36.0539,16.8076],[36.0033,17.3219],[35.5013,17.6433],[35.2998,18.0933],[34.939,18.2862],[34.8792,18.6076],[34.5974,18.9291],[34.4687,19.3791],[34.2575,19.6362],[33.8196,21.6291],[33.7453,21.6291],[33.7704,21.737],[33.5609,21.7091],[33.1811,21.9954],[31.4355,21.9954],[33.8307,21.9955],[33.7635,22.0791],[33.8378,22.0791],[33.8832,23.172],[33.8087,23.172],[33.7535,23.622],[33.5382,23.8149],[32.0409,23.6863],[31.6705,23.7506],[30.5372,23.3649]]],[[[33.1811,21.9954],[33.5584,21.711],[33.7707,21.7382],[33.8307,21.9955],[33.1811,21.9954]]]]}},{"type":"Feature","properties":{"territoryId":"cliopatria-q10914393-eb81b2e3a5","name":"Neo-Assyrian Empire","name_ko":"신아시리아 제국","color":"#3eea8a","colorFamily":2,"startYear":-899,"endYear":-800,"source_name":"Cliopatria v0.2.0","source_url":"https://github.com/Seshat-Global-History-Databank/cliopatria","license":"CC BY 4.0","attribution":"Seshat Global History Databank, Cliopatria contributors"},"geometry":{"type":"Polygon","coordinates":[[[38.0149,36.2884],[38.1403,36.0308],[38.1108,35.7733],[38.2657,35.7733],[38.0817,35.5158],[38.2146,35.3227],[38.1015,35.001],[38.8036,35.0653],[39.0904,34.8723],[39.2521,34.9366],[39.5459,34.8079],[39.6082,34.6793],[40.4183,34.3577],[40.4728,34.1647],[40.8499,34.1004],[40.9117,33.9718],[41.2116,33.9075],[41.4886,33.6502],[42.5783,33.1359],[42.7085,32.943],[43.1526,32.8145],[43.3514,32.5574],[43.9102,32.7502],[44.2084,32.6859],[44.2481,33.0073],[44.4175,33.1359],[44.5708,33.1359],[44.6311,33.0073],[45.099,33.0716],[45.4654,32.943],[45.8991,33.3288],[46.1292,33.3288],[46.1378,33.3931],[45.8654,33.6502],[45.8827,33.7789],[45.4477,33.9718],[45.6189,34.1004],[45.6542,34.3577],[45.509,34.422],[45.5356,34.615],[45.7669,34.615],[45.7168,34.8079],[45.8801,34.8723],[45.8984,35.001],[45.3443,35.4514],[45.3627,35.5802],[45.0124,35.8377],[45.0309,35.9664],[44.6026,36.224],[44.6211,36.3528],[44.3975,36.4172],[44.3664,36.7393],[43.8499,36.9326],[43.7908,37.0615],[43.5572,37.0615],[43.6072,36.8682],[43.1586,36.9971],[43.0535,36.8037],[42.5868,36.8037],[42.6047,36.9326],[42.458,36.9971],[42.4759,37.126],[42.3382,37.2549],[41.8794,37.3193],[41.8973,37.4483],[42.1404,37.5128],[42.177,37.7707],[41.456,37.6417],[41.4048,37.8352],[40.936,37.8352],[40.9095,37.6417],[40.684,37.7062],[40.5885,37.5773],[40.1202,37.5773],[39.3601,37.126],[38.6276,36.8682],[38.6897,36.7393],[38.4487,36.6749],[38.5034,36.4816],[38.0149,36.2884]]]}},{"type":"Feature","properties":{"territoryId":"cliopatria-q770281-92e2a07ef0","name":"Neo-Hittite states","name_ko":"신히타이트","color":"#d751ec","colorFamily":4,"startYear":-899,"endYear":-800,"source_name":"Cliopatria v0.2.0","source_url":"https://github.com/Seshat-Global-History-Databank/cliopatria","license":"CC BY 4.0","attribution":"Seshat Global History Databank, Cliopatria contributors"},"geometry":{"type":"Polygon","coordinates":[[[35.7919,36.3099],[35.976,36.0102],[36.3903,35.8974],[37.0522,36.1756],[37.661,36.6299],[38.2794,37.1812],[38.6032,37.6357],[38.0803,38.1289],[37.6163,37.6244],[36.1585,36.8407],[36.2025,36.7692],[36.2112,36.6424],[35.7919,36.3099]],[[36.6665,36.2657],[36.6691,36.2599],[36.6681,36.2532],[36.6665,36.2657]]]}},{"type":"Feature","properties":{"territoryId":"cliopatria-q180568-878902576f","name":"New Kingdom of Egypt","name_ko":"이집트 신왕국","color":"#458de3","colorFamily":0,"startYear":-899,"endYear":-800,"source_name":"Cliopatria v0.2.0","source_url":"https://github.com/Seshat-Global-History-Databank/cliopatria","license":"CC BY 4.0","attribution":"Seshat Global History Databank, Cliopatria contributors"},"geometry":{"type":"MultiPolygon","coordinates":[[[[28.2489,26.0651],[28.2886,25.165],[28.6412,24.5864],[29.6728,24.2006],[29.9595,23.8792],[30.1087,23.8792],[30.104,23.7506],[30.3952,23.5577],[30.4627,23.3649],[31.6705,23.7506],[32.0409,23.6863],[33.4636,23.8149],[33.4664,23.8792],[33.3228,24.0077],[33.2742,24.5864],[33.1995,24.5864],[33.1973,26.0651],[33.1223,26.0651],[33.0783,26.6437],[32.8636,26.8366],[32.5276,27.5438],[32.5973,28.701],[32.7002,28.8591],[32.6255,28.9727],[32.6589,29.1108],[32.5214,29.4235],[32.3377,29.5925],[32.5095,29.8668],[32.4769,29.9322],[32.5715,29.9426],[32.5778,30.0114],[32.6019,29.9223],[32.5573,30.3722],[32.7137,30.4364],[32.6469,30.565],[32.8081,30.6935],[32.7509,30.9506],[32.8364,31.0791],[32.7007,31.0387],[32.6665,31.0523],[32.7614,31.0791],[32.6016,31.061],[32.2915,31.1839],[32.3039,31.0791],[31.9996,31.0791],[31.9063,31.2516],[31.7806,31.2076],[31.8077,31.2812],[31.7691,31.2988],[31.8741,31.4647],[31.2658,31.4647],[31.1215,31.5275],[31.0291,31.5185],[30.9807,31.4365],[30.7985,31.4465],[30.7344,31.3881],[30.5427,31.395],[30.6916,31.4647],[30.352,31.4647],[30.3019,31.3422],[30.3388,31.2719],[30.2887,31.2379],[29.9904,31.2719],[29.8315,31.1513],[29.8696,31.0791],[29.6332,30.9506],[29.5543,30.9848],[29.4481,30.9336],[29.3971,30.822],[28.865,30.822],[28.6447,30.9506],[28.9143,30.3722],[28.9568,29.7937],[29.0326,29.7937],[28.997,29.1509],[28.9214,29.1509],[28.9597,28.4438],[28.8023,28.3153],[28.7047,27.8652],[28.5479,27.7367],[28.6051,27.3509],[28.3564,26.8366],[28.2489,26.0651]]],[[[30.1795,31.2714],[30.1849,31.2719],[30.1795,31.2719],[30.1795,31.2714]]],[[[30.2409,31.2653],[30.2648,31.2719],[30.2479,31.2719],[30.2409,31.2653]]],[[[30.9691,31.5785],[30.9739,31.5799],[30.9739,31.5867],[30.9695,31.5854],[30.9691,31.5785]]],[[[30.978,31.5843],[31.119,31.5305],[31.1608,31.5935],[30.978,31.5843]]]]}},{"type":"Feature","properties":{"territoryId":"cliopatria-q7185566-26b698da41","name":"Philistia","name_ko":"불레셋","color":"#3eeab7","colorFamily":2,"startYear":-899,"endYear":-750,"source_name":"Cliopatria v0.2.0","source_url":"https://github.com/Seshat-Global-History-Databank/cliopatria","license":"CC BY 4.0","attribution":"Seshat Global History Databank, Cliopatria contributors"},"geometry":{"type":"Polygon","coordinates":[[[34.2972,31.2719],[34.7805,31.5933],[34.8567,31.5933],[35.0365,31.9146],[35.1406,32.236],[35.0047,32.4288],[34.8725,32.4288],[34.8377,32.2807],[34.781,32.1303],[34.813,31.9789],[34.6909,31.9134],[34.6028,31.7558],[34.6334,31.6575],[34.5572,31.6575],[34.2972,31.2719]]]}},{"type":"Feature","properties":{"territoryId":"cliopatria-q41642-5b1186f2a7","name":"Phoenicia","name_ko":"페니키아","color":"#eabc3e","colorFamily":1,"startYear":-899,"endYear":-800,"source_name":"Cliopatria v0.2.0","source_url":"https://github.com/Seshat-Global-History-Databank/cliopatria","license":"CC BY 4.0","attribution":"Seshat Global History Databank, Cliopatria contributors"},"geometry":{"type":"MultiPolygon","coordinates":[[[[14.3688,32.5574],[14.5166,32.1717],[14.8248,32.3645],[14.9013,32.3645],[14.8033,32.4479],[14.7268,32.4508],[14.6316,32.4957],[14.4695,32.519],[14.4091,32.5574],[14.3688,32.5574]]],[[[35.2213,33.1359],[35.4452,33.0716],[35.6992,33.3288],[35.8526,33.3288],[35.8587,33.3931],[36.1074,33.5859],[36.0493,33.7789],[36.203,33.7789],[36.1514,34.0361],[36.2411,34.1647],[36.3767,34.7436],[36.1782,35.0653],[36.3393,35.1297],[36.4071,35.7733],[36.2522,35.7733],[36.1884,35.902],[35.9017,35.902],[35.8736,35.8563],[35.8449,35.5802],[35.9929,35.5158],[35.9153,35.2879],[35.9624,35.1979],[35.927,34.8723],[36.0682,34.7436],[36.0488,34.5506],[35.7921,34.2933],[35.7127,34.3279],[35.6652,34.3113],[35.6525,34.2791],[35.6838,33.9718],[35.5909,33.9466],[35.572,33.91],[35.5173,33.9025],[35.4866,33.913],[35.4705,33.9021],[35.4832,33.8725],[35.47,33.7942],[35.4993,33.6502],[35.3944,33.65],[35.3653,33.5547],[35.3984,33.3931],[35.2272,33.2002],[35.2213,33.1359]]],[[[14.3384,35.9455],[14.3457,35.8759],[14.3815,35.843],[14.5275,35.8012],[14.548,35.836],[14.5618,35.8298],[14.548,35.89],[14.5139,35.9008],[14.5078,35.9285],[14.4451,35.9604],[14.3494,35.9731],[14.3773,35.9936],[14.3389,35.9793],[14.3384,35.9455]]],[[[9.4476,37.2549],[9.7882,37.1904],[9.7718,37.2133],[9.7927,37.238],[9.8617,37.2712],[9.759,37.3193],[9.4476,37.2549]]],[[[9.8196,37.2276],[9.8818,37.2271],[9.9152,37.2549],[9.8825,37.2636],[9.8196,37.2276]]]]}},{"type":"Feature","properties":{"territoryId":"cliopatria-q32579-617756234b","name":"Phrygia","name_ko":"프리기아","color":"#f0db75","colorFamily":1,"startYear":-899,"endYear":-750,"source_name":"Cliopatria v0.2.0","source_url":"https://github.com/Seshat-Global-History-Databank/cliopatria","license":"CC BY 4.0","attribution":"Seshat Global History Databank, Cliopatria contributors"},"geometry":{"type":"Polygon","coordinates":[[[30.6743,40.0317],[30.727,39.7729],[31.6735,39.7729],[31.6599,39.6436],[31.8108,39.5789],[31.7052,39.3203],[31.7838,39.3203],[31.7573,39.0618],[31.8359,39.0618],[31.6592,38.868],[31.7968,38.6743],[32.1956,38.7389],[32.2609,38.6097],[32.4178,38.6097],[33.001,38.9326],[33.1442,38.8034],[33.1952,38.5451],[33.5872,38.5451],[33.7581,38.6743],[33.7008,38.868],[33.7865,38.9326],[33.4794,38.9972],[33.3578,39.3203],[33.2075,39.385],[33.1288,39.385],[33.1648,39.7083],[33.4161,39.8376],[33.525,40.0964],[33.209,40.0964],[32.9942,40.2906],[33.0092,40.4201],[32.146,40.4849],[32.1962,40.2259],[31.9591,40.2259],[31.7869,40.0964],[31.3129,40.0964],[31.2476,40.2259],[31.0172,40.2906],[30.9179,40.0964],[30.6743,40.0317]]]}},{"type":"Feature","properties":{"territoryId":"cliopatria-q727710-aab26fa84c","name":"Tabal Kingdom","name_ko":"타발","color":"#e34566","colorFamily":3,"startYear":-899,"endYear":-750,"source_name":"Cliopatria v0.2.0","source_url":"https://github.com/Seshat-Global-History-Databank/cliopatria","license":"CC BY 4.0","attribution":"Seshat Global History Databank, Cliopatria contributors"},"geometry":{"type":"Polygon","coordinates":[[[34.5249,36.7455],[34.7358,36.8217],[34.8526,36.7813],[34.9079,36.7404],[34.9004,36.7199],[34.9823,36.7208],[35.3207,36.5642],[35.6036,36.6188],[35.6956,36.7062],[35.6087,36.6469],[35.6226,36.6807],[35.7092,36.7199],[35.6481,36.7332],[35.634,36.6994],[35.5794,36.6851],[35.6067,36.7404],[35.6135,36.7199],[35.6477,36.754],[35.789,36.7737],[35.9734,36.9277],[36.0586,36.9184],[36.1564,36.8462],[36.835,37.1591],[37.6019,37.6259],[38.075,38.1245],[37.2901,38.6612],[37.3685,38.7484],[37.2661,38.7998],[36.785,38.7323],[36.5593,38.4435],[36.3662,38.612],[36.2322,38.5597],[36.1848,38.3507],[35.7538,38.1226],[35.633,37.853],[35.077,37.7501],[34.5249,36.7455]]]}},{"type":"Feature","properties":{"territoryId":"cliopatria-q35216-1489483393","name":"Zhou Dynasty","name_ko":"주나라","color":"#3e6cea","colorFamily":0,"startYear":-999,"endYear":-800,"source_name":"Cliopatria v0.2.0","source_url":"https://github.com/Seshat-Global-History-Databank/cliopatria","license":"CC BY 4.0","attribution":"Seshat Global History Databank, Cliopatria contributors"},"geometry":{"type":"MultiPolygon","coordinates":[[[[106.9845,35.2584],[107.139,35.2584],[107.0884,35.1297],[107.3468,35.001],[107.3737,34.8723],[108.1988,34.615],[110.6653,34.615],[110.7681,34.4863],[110.7171,34.3577],[111.0775,34.1004],[111.0021,33.9075],[111.1558,33.9075],[111.1058,33.7789],[111.2097,33.6502],[111.596,33.4574],[111.6756,33.2645],[112.7517,33.0716],[112.9326,32.943],[113.4932,33.0073],[113.7503,32.8788],[114.0294,33.0073],[114.0075,32.7502],[114.1396,32.4931],[114.3932,32.5574],[114.6505,32.4288],[114.6785,32.3002],[114.8313,32.3002],[114.7832,32.1717],[114.8881,32.0431],[115.0932,31.9789],[115.5228,32.1074],[115.4748,31.9789],[115.6798,31.9146],[115.714,31.5933],[115.9426,31.5933],[115.8957,31.4647],[116.0776,31.3362],[117.659,31.0791],[118.4432,31.1434],[118.9187,31.4005],[119.1233,31.3362],[119.2474,31.4647],[119.3517,31.3362],[120.2896,31.4005],[120.75,31.2076],[121.4836,31.3362],[121.5204,31.3835],[121.1444,31.6847],[120.7315,31.8139],[120.7171,31.8611],[120.8248,31.8287],[120.7504,31.9783],[120.4695,32.0251],[120.23,31.9089],[120.0064,31.9503],[119.7725,32.1268],[119.7886,32.1986],[119.6904,32.2353],[119.606,32.1969],[119.6854,32.2924],[119.6129,32.3546],[119.8421,32.2991],[119.992,32.0159],[120.1314,31.9432],[120.2671,31.9487],[120.4908,32.0825],[120.6344,32.077],[120.8108,32.0226],[120.9407,31.8503],[121.2864,31.8906],[121.8173,31.6909],[121.9095,31.7045],[121.9221,31.7544],[121.7986,31.9705],[121.4434,32.1143],[121.3608,32.2316],[121.4193,32.2503],[121.3894,32.3849],[121.1008,32.498],[120.8303,32.6977],[120.9048,32.8126],[120.8958,33.0136],[120.8259,33.0302],[120.807,33.1378],[120.7302,33.2049],[120.7503,33.2696],[120.6672,33.3251],[120.6344,33.4669],[120.4837,33.65],[120.5049,33.7356],[120.3997,33.8693],[120.2571,34.3118],[119.6477,34.5338],[119.3467,34.7808],[119.1922,34.7182],[119.2073,35.0484],[119.358,35.0971],[119.4239,35.3135],[119.5319,35.3586],[119.648,35.5839],[119.7325,35.6208],[119.7439,35.5759],[119.8401,35.6579],[119.8602,35.6061],[119.9046,35.6246],[119.9082,35.7449],[120.0029,35.7278],[120.0972,35.9008],[120.189,35.9453],[120.1753,35.89],[120.2941,36.0024],[120.1753,35.9936],[120.0897,36.1117],[120.0972,36.2264],[120.2845,36.176],[120.3064,36.2742],[120.3616,36.1916],[120.292,36.062],[120.3535,36.0408],[120.6669,36.1321],[120.6436,36.3225],[120.7107,36.3245],[120.7141,36.4287],[120.95,36.4592],[120.9636,36.5479],[120.8504,36.6046],[120.7503,36.5408],[120.7506,36.6168],[120.8506,36.6509],[120.9774,36.5899],[121.4017,36.7124],[121.4595,36.8287],[121.6072,36.845],[121.5032,36.7886],[121.5247,36.7543],[121.9498,36.9389],[121.9263,36.9936],[122.0492,36.9799],[122.0365,36.8993],[122.1429,36.9458],[122.1661,37.0141],[122.1627,36.9458],[122.2659,36.898],[122.1852,36.8595],[122.3552,36.8291],[122.4364,36.8707],[122.4058,36.9222],[122.5268,36.9528],[122.54,37.0277],[122.4024,37.0215],[122.4539,37.1543],[122.4707,37.1103],[122.5735,37.2601],[122.5497,37.3198],[122.5947,37.2952],[122.5708,37.3448],[122.6847,37.4102],[122.2965,37.4182],[122.2454,37.4597],[122.1832,37.4182],[122.1218,37.5627],[122.0256,37.528],[121.988,37.4256],[121.635,37.4813],[121.5874,37.4536],[121.6761,37.4392],[121.5703,37.4287],[121.3817,37.5661],[121.4298,37.5969],[121.3936,37.6225],[121.1716,37.5771],[121.138,37.7012],[121.0326,37.7104],[120.9258,37.8193],[120.738,37.834],[120.2157,37.6841],[120.3225,37.6324],[120.1876,37.5118],[119.8589,37.3602],[119.8973,37.2494],[119.7706,37.1518],[119.4412,37.1206],[119.1455,37.1789],[118.9724,37.2807],[118.9446,37.3781],[119.0371,37.7221],[119.1746,37.7085],[119.2164,37.794],[118.9966,37.9631],[118.9248,38.0578],[118.95,38.0973],[118.7604,38.1551],[118.543,38.0683],[118.0652,38.1431],[117.6025,38.4806],[117.5435,38.6213],[117.584,38.8116],[117.7474,39.071],[117.7154,39.1114],[118.0795,39.2557],[117.9902,39.385],[117.8328,39.385],[117.867,39.4496],[117.7095,39.4496],[117.7241,39.7729],[117.6011,39.8376],[117.6625,40.0964],[117.4608,40.1612],[117.5318,40.2906],[117.2945,40.2906],[117.0305,40.0964],[116.181,39.8376],[114.9186,39.8376],[114.5355,39.7083],[113.5447,38.9972],[112.2793,37.3193],[111.0426,36.0952],[110.9148,36.1596],[110.8875,36.0952],[110.81,36.0952],[110.5971,35.7733],[109.3846,35.8377],[109.438,35.9664],[109.1788,35.902],[108.9996,36.0308],[107.7328,35.9664],[107.3966,35.902],[106.9845,35.2584]]],[[[119.7162,32.2726],[119.8193,32.2038],[119.792,32.1218],[119.9019,32.0734],[119.8143,32.2756],[119.7162,32.2726]]],[[[120.7502,37.8986],[120.7546,37.8967],[120.7549,37.8996],[120.7538,37.8998],[120.7502,37.8986]]],[[[120.9433,31.8394],[120.9506,31.8252],[120.9778,31.8144],[120.9958,31.8158],[120.9433,31.8394]]],[[[121.3009,31.6786],[121.3145,31.6556],[121.5175,31.5684],[121.5715,31.5294],[121.6254,31.5186],[121.6335,31.529],[121.3009,31.6786]]]]}}]}
