{"type":"FeatureCollection","features":[{"type":"Feature","properties":{"relationId":"cliopatria-relation-2b21df764f4d","name":"(Alliance between Elam and Babylonia)","name_ko":"엘람–바빌로니아 동맹","relationKind":"alliance","relation_kind_ko":"동맹","actor_ids":"cliopatria-q128904-1175fc4c43;cliopatria-q47690-5e1dd28d70","actor_names_ko":"엘람;바빌로니아","color":"#4fd1c5","startYear":-1199,"endYear":-1150,"source_name":"Cliopatria v0.2.0","source_url":"https://github.com/Seshat-Global-History-Databank/cliopatria","license":"CC BY 4.0","attribution":"Seshat Global History Databank, Cliopatria contributors"},"geometry":{"type":"MultiPolygon","coordinates":[[[[43.4202,32.4931],[44.459,31.5933],[44.5814,31.3362],[44.9546,31.2719],[45.7705,30.4364],[46.5906,30.3079],[46.6151,29.858],[46.8497,29.9223],[46.994,29.858],[46.9794,29.7294],[47.2897,29.7937],[47.8662,29.5366],[48.1734,29.5734],[47.9956,29.8277],[47.9348,30.1071],[47.969,30.0041],[48.1192,30.045],[48.434,29.9365],[48.5304,29.9564],[48.4766,29.984],[48.6587,29.9836],[48.6433,30.0554],[48.8904,30.0308],[48.9417,30.1651],[48.8623,30.3456],[49.0194,30.4558],[48.953,30.5002],[49.2112,30.5063],[49.2638,30.4497],[49.2029,30.3466],[49.0694,30.4058],[49.0187,30.3079],[49.1646,30.2252],[49.2092,30.2715],[49.283,30.1581],[49.4798,30.1561],[49.5322,30.0229],[49.9146,30.2039],[50.0734,30.1957],[50.1613,29.9263],[50.6553,29.4491],[50.6895,29.2908],[50.6435,29.1458],[50.8403,29.1406],[50.915,29.0867],[50.929,29.0097],[50.8345,28.8914],[51.0588,28.7359],[51.1092,28.472],[51.5567,28.7652],[51.8588,28.7652],[51.882,28.9581],[52.208,29.1509],[52.2402,29.4081],[51.7083,29.9865],[51.7251,30.1151],[51.5143,30.2436],[51.4724,30.5007],[51.1012,30.565],[50.9663,30.6935],[50.9835,30.822],[50.7052,31.0148],[50.7225,31.1434],[50.3856,31.4647],[50.4795,31.5933],[50.1659,31.529],[50.2864,31.8503],[50.0171,32.1074],[50.0352,32.236],[49.8241,32.3645],[49.8515,32.5574],[49.7169,32.6859],[49.2488,32.6216],[49.2761,32.8145],[49.0464,32.8145],[48.9881,32.943],[48.6818,32.943],[48.5467,33.0716],[47.5596,33.1359],[46.7515,33.3931],[46.6923,33.5217],[46.7868,33.6502],[46.4205,33.7789],[46.2845,33.9075],[46.3792,34.0361],[45.9178,34.0361],[45.9683,33.8432],[45.8915,33.8432],[45.8567,33.5859],[46.0697,33.4574],[46.0525,33.3288],[45.8991,33.3288],[45.4654,32.943],[44.7159,33.0716],[44.5384,32.8788],[44.3087,32.8788],[44.2084,32.6859],[43.9102,32.7502],[43.4279,32.5574],[43.4202,32.4931]],[[48.1351,30.4429],[48.1409,30.4419],[48.1705,30.4067],[48.1351,30.4429]],[[48.291,30.32],[48.2964,30.3198],[48.3014,30.3149],[48.291,30.32]],[[48.3292,30.2876],[48.397,30.221],[48.4026,30.2088],[48.3292,30.2876]],[[48.3811,30.1453],[48.3832,30.1481],[48.3831,30.1424],[48.3811,30.1453]],[[48.4082,30.1885],[48.4085,30.1961],[48.4106,30.1915],[48.4082,30.1885]],[[48.4239,30.0836],[48.4618,29.9949],[48.4531,30.0014],[48.4239,30.0836]]],[[[48.0108,29.9805],[48.0311,29.971],[48.0789,30.0041],[48.1061,30.0176],[48.1092,30.028],[48.0547,30.0245],[48.0108,29.9805]]],[[[48.0461,29.8005],[48.1858,29.6039],[48.3527,29.7098],[48.3445,29.7906],[48.1621,29.9957],[48.1227,29.9697],[48.1974,29.9254],[48.0951,29.8947],[48.1133,29.8391],[48.0461,29.8005]]],[[[48.9212,30.3808],[48.972,30.3642],[48.9893,30.3977],[48.9486,30.4011],[48.9318,30.3972],[48.9212,30.3808]]],[[[50.4618,31.4647],[50.538,31.4647],[50.5468,31.529],[50.4706,31.529],[50.4618,31.4647]]]]}}]}
