{"type":"FeatureCollection","features":[{"type":"Feature","properties":{"relationId":"cliopatria-relation-a2be1ae9280e","name":"(Allegiance of Seleucid Empire to Roman Republic)","name_ko":"셀레우코스 제국–로마 공화국 충성·복속 관계","relationKind":"allegiance","relation_kind_ko":"충성·복속 관계","actor_ids":"cliopatria-q705904-feafb1f01a;cliopatria-q175881-b6b4ba388a","actor_names_ko":"셀레우코스 제국;로마 공화국","color":"#e7b763","startYear":-202,"endYear":-202,"source_name":"Cliopatria v0.2.0","source_url":"https://github.com/Seshat-Global-History-Databank/cliopatria","license":"CC BY 4.0","attribution":"Seshat Global History Databank, Cliopatria contributors"},"geometry":{"type":"MultiPolygon","coordinates":[[[[6.3037,34.615],[6.9203,34.615],[7.1535,34.4863],[7.6149,34.5506],[8.0016,34.422],[8.0808,34.229],[8.311,34.2933],[8.9278,34.1647],[8.9238,34.6793],[8.7685,34.8079],[8.1507,34.8723],[7.9942,35.0653],[7.8222,36.4172],[7.2725,36.8037],[7.1191,36.6749],[7.2041,36.224],[6.7431,35.9664],[6.3642,35.5158],[6.3037,34.615]]],[[[14.3384,35.9455],[14.3815,35.843],[14.5618,35.8298],[14.5078,35.9285],[14.3773,35.9936],[14.3384,35.9455]]],[[[12.4905,37.7062],[13.192,37.5773],[13.6022,37.2505],[14.2779,37.126],[14.6723,36.7393],[15.0498,36.7393],[15.2051,37.1662],[15.0592,37.2549],[15.0665,37.6417],[15.3059,37.8998],[15.3895,38.1578],[15.5432,38.1578],[15.5865,38.2377],[14.0562,37.9643],[13.6652,37.9643],[13.3547,38.1578],[13.1199,38.1578],[13.0404,38.0288],[12.6522,38.0929],[12.4919,37.8998],[12.4905,37.7062]]],[[[15.6328,38.2203],[15.6982,37.9643],[15.8546,37.9643],[15.8621,38.2869],[15.6328,38.2203]]],[[[-7.5754,37.6417],[-7.5539,37.3838],[-7.4653,37.2549],[-6.9042,37.2549],[-6.8527,37.2952],[-6.8854,37.2549],[-6.6192,37.0288],[-6.4323,36.9971],[-6.3473,36.8187],[-6.3447,36.9013],[-6.1948,36.9321],[-6.3382,36.8837],[-6.3409,36.8054],[-6.0661,36.2289],[-5.8311,36.224],[-5.6403,36.0422],[-5.3215,36.2067],[-5.2282,36.4816],[-4.6888,36.546],[-4.4686,36.7393],[-2.6801,36.7393],[-2.5321,36.8682],[-2.0616,36.8037],[-1.8574,37.3193],[-1.6521,37.3626],[-1.7087,37.4483],[-1.2427,37.5792],[-1.1717,37.5518],[-0.7078,37.6411],[-0.8099,37.6669],[-0.8561,37.7425],[-0.788,37.8228],[-0.7607,37.7961],[-0.8035,38.0288],[-0.6609,38.2869],[0.0994,38.7389],[-0.3137,39.1265],[-0.3454,39.7083],[-0.1265,40.0317],[0.1825,40.1612],[0.2478,40.4201],[0.7093,40.6792],[0.6958,40.9384],[1.2384,41.1977],[2.1066,41.3274],[2.3336,41.5869],[2.8856,41.7167],[2.9545,41.9764],[2.8747,41.9764],[2.8692,42.1063],[2.7123,42.0413],[2.7179,41.9114],[1.997,41.9764],[1.422,42.3012],[0.859,42.3662],[0.7719,42.4962],[0.2992,42.3662],[0.1801,41.6518],[-0.0477,41.4571],[-0.1844,41.068],[-0.4189,41.0032],[-0.4113,40.8736],[-1.0106,40.2906],[-1.0029,40.1612],[-1.2321,40.0317],[-1.2205,39.8376],[-1.4493,39.7083],[-1.3511,39.385],[-1.4298,39.385],[-1.4182,39.1911],[-1.6309,38.8034],[-1.941,38.7389],[-2.2389,38.4806],[-4.2029,38.5451],[-4.6924,38.8034],[-4.702,38.9326],[-4.8542,38.868],[-4.9425,38.9972],[-5.3404,39.0618],[-5.4824,38.868],[-5.8699,38.8034],[-6.0114,38.6097],[-7.2224,38.0933],[-7.2845,37.8998],[-7.5754,37.6417]],[[-7.5297,37.5672],[-7.5236,37.5732],[-7.5275,37.5614],[-7.5297,37.5672]],[[-7.5223,37.5475],[-7.496,37.5121],[-7.5154,37.5293],[-7.5223,37.5475]],[[-7.445,37.3868],[-7.4276,37.2745],[-7.4322,37.2639],[-7.445,37.3868]]],[[[-0.7545,37.7744],[-0.7469,37.6838],[-0.7265,37.6652],[-0.7401,37.7025],[-0.7327,37.7477],[-0.7545,37.7744]]],[[[8.1567,40.7718],[8.1974,40.6912],[8.1618,40.5638],[8.1934,40.6175],[8.2163,40.5706],[8.312,40.5781],[8.386,40.3518],[8.4761,40.2921],[8.49,40.1045],[8.3772,40.0338],[8.4004,39.9361],[8.5453,39.8786],[8.5044,39.7215],[8.5658,39.7011],[8.4553,39.7561],[8.4634,39.5769],[8.374,39.3789],[8.4321,39.3018],[8.4095,39.1693],[8.5596,39.0567],[8.606,38.9088],[8.7166,38.9326],[8.8533,38.878],[9.0183,38.9953],[9.0183,39.1461],[9.0798,39.2246],[9.0139,39.2639],[9.166,39.1871],[9.2922,39.2213],[9.4052,39.1521],[9.5664,39.1492],[9.7111,39.9293],[9.6262,40.2631],[9.8225,40.5327],[9.6579,40.7999],[9.724,40.8449],[9.6141,40.8934],[9.6421,40.9206],[9.5042,40.9269],[9.6469,40.9922],[9.5119,41.0163],[9.5541,41.1239],[9.4691,41.1462],[9.4429,41.092],[9.4224,41.1807],[9.1711,41.2426],[9.1419,41.1528],[9.0055,41.1219],[8.8225,40.9473],[8.5205,40.827],[8.3102,40.8507],[8.1812,40.9341],[8.2153,40.8814],[8.1567,40.7718]]],[[[8.3533,39.0556],[8.4312,38.9661],[8.4839,39.0698],[8.3701,39.1131],[8.3533,39.0556]]],[[[9.3767,41.2147],[9.377,41.2133],[9.3953,41.2106],[9.4007,41.2115],[9.3767,41.2147]]],[[[9.437,41.1859],[9.4644,41.1727],[9.4749,41.1793],[9.4749,41.2014],[9.445,41.2055],[9.437,41.1859]]],[[[19.3044,40.6531],[19.4101,40.6792],[19.5625,40.5496],[19.5747,40.8088],[19.8126,40.8088],[19.9776,40.9384],[20.0768,41.3274],[19.7849,41.8465],[19.5034,41.8465],[19.5916,41.8188],[19.5576,41.6605],[19.613,41.6053],[19.4634,41.5595],[19.5297,41.522],[19.4438,41.3922],[19.5233,41.3922],[19.4555,41.1485],[19.5234,40.9206],[19.3688,40.8022],[19.3044,40.6531]]],[[[8.5453,42.2329],[8.5938,42.1745],[8.5596,42.154],[8.745,42.0566],[8.6457,41.9774],[8.8054,41.9069],[8.7508,41.8455],[8.7849,41.8244],[8.6551,41.7499],[8.9227,41.6946],[8.8018,41.6391],[8.7918,41.5612],[9.0798,41.4824],[9.0964,41.4035],[9.2255,41.3771],[9.2107,41.4482],[9.3506,41.5812],[9.2922,41.6264],[9.3467,41.6196],[9.4016,41.7064],[9.4032,41.9529],[9.5596,42.1466],[9.5281,42.5635],[9.4429,42.6406],[9.464,42.9901],[9.3467,43.0037],[9.3057,42.8393],[9.3425,42.7491],[9.2922,42.6748],[9.1178,42.732],[8.787,42.562],[8.7092,42.5792],[8.6595,42.4299],[8.5491,42.3771],[8.6878,42.2729],[8.5453,42.2329]]],[[[9.4566,42.6474],[9.4768,42.6191],[9.4769,42.6201],[9.4821,42.6201],[9.4566,42.6474]]],[[[10.1632,42.8164],[10.1963,42.7362],[10.3379,42.7648],[10.4307,42.7221],[10.3888,42.7635],[10.4367,42.8044],[10.4124,42.8734],[10.3473,42.8059],[10.1632,42.8164]]],[[[16.7921,42.9109],[17.1938,42.9263],[17.0321,42.9826],[16.7942,42.9702],[16.7921,42.9109]]],[[[17.0016,43.0515],[17.0462,42.9951],[17.196,42.9829],[17.1976,43.0271],[17.0016,43.0515]]],[[[8.5792,45.4968],[8.581,45.3659],[8.9094,45.1042],[10.2098,44.9734],[10.6159,44.7119],[10.6969,44.4507],[10.535,44.3854],[10.5351,44.2548],[10.3734,44.2548],[10.3736,44.1243],[10.2122,44.0591],[10.2125,43.9065],[10.3742,43.6678],[10.5391,43.0796],[11.0163,42.8213],[11.0159,42.6629],[11.176,42.6262],[11.2552,42.4312],[11.4152,42.4312],[11.569,42.3314],[11.6548,42.3662],[11.8128,42.1063],[12.1317,42.0413],[12.1305,41.9131],[13,41.3274],[13.7145,41.2625],[13.862,41.1328],[13.9506,41.1328],[14.1046,40.8736],[14.4219,40.8736],[14.4194,40.7517],[14.4741,40.7297],[14.4363,40.6792],[14.8934,40.6792],[14.9983,40.3976],[14.9638,40.2906],[15.4319,40.0317],[15.5349,40.0778],[15.7478,40.0317],[15.7136,39.978],[15.7648,39.9023],[16.2969,39.9023],[16.3815,40.0964],[16.5996,40.0363],[16.7015,40.2259],[16.6245,40.2906],[16.777,40.2906],[16.9137,40.4464],[16.868,40.4849],[17.0285,40.5496],[17.3452,40.5496],[17.4175,40.3554],[17.8131,40.3554],[18.1122,39.9023],[18.3489,39.9023],[18.4381,40.1612],[17.9812,40.6144],[17.5107,40.744],[17.2027,41.0032],[15.9439,41.3922],[15.8738,41.7167],[16.1149,41.7816],[16.1189,41.9114],[15.2414,41.9114],[14.7659,42.0413],[14.7178,42.1506],[14.6077,42.1063],[14.5308,42.2362],[14.3709,42.2362],[14.0565,42.4962],[13.9014,42.7563],[13.9329,42.8295],[13.8625,43.0186],[13.7471,43.0816],[13.6726,43.4072],[13.3874,43.6413],[13.0338,43.733],[13.019,43.8567],[12.8734,43.7982],[12.313,44.1896],[12.1537,44.4507],[12.1572,44.8426],[12.2377,44.7773],[12.303,44.8429],[12.4001,44.7989],[12.4026,45.0388],[12.3688,45.011],[12.16,45.1696],[12.1628,45.4968],[12.6522,45.5623],[12.8168,45.6933],[13.0658,45.6401],[13.1448,45.8243],[13.3896,45.8243],[13.1504,46.2177],[12.7406,46.1521],[12.0824,45.6278],[11.5112,45.4968],[10.8597,45.4968],[10.5337,45.6278],[8.9035,45.6278],[8.5792,45.4968]]],[[[26.1325,39.5143],[26.8934,39.5844],[26.9377,39.5143],[27.2353,39.5143],[27.4089,39.7083],[27.9721,39.8376],[28.84,39.8376],[29.3013,39.7083],[29.315,38.9972],[29.2365,38.9972],[29.2079,38.6743],[28.9614,38.5451],[28.8611,38.2869],[28.5267,38.0288],[28.1408,38.0933],[27.969,37.8998],[27.7296,37.8352],[27.5,37.8998],[27.5099,38.0288],[27.2753,38.0288],[27.2511,37.7062],[27.175,37.7024],[27.31,37.4483],[27.2461,37.3362],[27.4072,37.4127],[27.3942,37.3302],[28.2411,37.3838],[28.304,37.1904],[29.3686,36.8682],[30.6969,36.9326],[31.3916,36.8682],[31.9903,36.6105],[33.3751,37.2549],[33.6089,37.2549],[33.6738,37.126],[34.2191,37.126],[34.335,36.7393],[34.4128,36.7393],[34.5816,36.8682],[34.8929,36.8682],[34.9571,36.7393],[35.0349,36.7393],[35.2888,36.9326],[36.1449,36.9326],[36.2862,36.8037],[36.2649,36.6105],[35.8486,36.3528],[35.9901,36.224],[35.9767,36.001],[35.8811,35.8685],[35.8449,35.5802],[35.9929,35.5158],[35.9153,35.2879],[36.2688,35.194],[36.165,34.9366],[36.3128,34.8723],[36.293,34.6793],[36.4406,34.615],[36.5619,34.2933],[36.8698,34.2933],[37.0039,34.1004],[37.3885,34.1004],[37.5991,33.9075],[37.6493,33.6502],[37.7261,33.6502],[37.7395,33.7789],[37.9902,33.9718],[39.1238,34.4863],[40.2569,34.2933],[40.4033,34.229],[40.3115,34.1004],[40.7036,34.1647],[40.9117,33.9718],[41.2116,33.9075],[41.2733,33.7789],[41.427,33.7789],[41.4886,33.6502],[42.0031,33.4574],[42.0645,33.3288],[42.5783,33.1359],[42.7085,32.943],[43.1526,32.8145],[44.459,31.5933],[44.5814,31.3362],[44.9546,31.2719],[45.7705,30.4364],[46.5906,30.3079],[46.6151,29.858],[46.8497,29.9223],[46.994,29.858],[46.9794,29.7294],[47.2897,29.7937],[47.6464,29.6009],[48.1406,29.5464],[48.1809,29.5622],[47.9956,29.8277],[47.9348,30.1071],[47.969,30.0041],[48.1192,30.045],[48.434,29.9365],[48.5304,29.9564],[48.4766,29.984],[48.6587,29.9836],[48.6433,30.0554],[48.8904,30.0308],[48.9417,30.1651],[48.8623,30.3456],[49.0373,30.4325],[48.9456,30.4797],[48.9815,30.5156],[49.2112,30.5063],[49.2638,30.4497],[49.2029,30.3466],[49.062,30.4081],[48.9212,30.3808],[49.1614,30.2238],[49.2212,30.2646],[49.2457,30.1565],[49.4798,30.1561],[49.5322,30.0229],[50.0241,30.2163],[50.1277,30.1207],[50.1613,29.9263],[50.6553,29.4491],[50.6895,29.2908],[50.6435,29.1458],[50.8403,29.1406],[50.915,29.0867],[50.929,29.0097],[50.8345,28.8914],[51.0588,28.7359],[51.0807,28.5339],[51.2853,28.2409],[51.2698,28.1405],[51.4083,27.9323],[51.5842,27.8511],[52.0112,27.8327],[52.4596,27.6326],[52.6701,27.4486],[52.6098,27.4123],[52.6669,27.3271],[52.9326,27.1603],[53.4441,26.9757],[53.7161,26.7086],[54.0158,26.7495],[54.3081,26.715],[54.62,26.5082],[54.791,26.4958],[55.2708,26.7925],[55.5217,26.7846],[55.5804,26.8591],[55.5545,26.8999],[55.6659,26.9954],[55.9393,27.0267],[56.1237,27.1606],[56.353,27.2016],[56.8088,27.1396],[56.8846,27.0781],[56.8677,27.0123],[56.9733,27.003],[56.9273,26.9556],[57.0524,26.8366],[57.1331,26.2637],[57.2129,26.1662],[57.1668,26.083],[57.1986,25.995],[57.3397,25.7812],[57.5207,25.7436],[57.4826,26.0008],[57.7733,26.5794],[58.2621,26.9009],[58.4046,26.8366],[58.428,27.0295],[58.5942,27.158],[58.7446,27.158],[58.8359,27.2866],[58.9782,27.2223],[58.9945,27.3509],[59.3955,27.5438],[60.244,28.251],[61.0273,29.4723],[61.3701,29.7294],[61.6801,30.2436],[62.1239,30.6292],[63.3014,32.1074],[63.4421,32.0431],[63.6434,32.3002],[63.8726,32.3002],[64.4063,32.6859],[64.3552,32.8145],[64.687,32.943],[64.8287,33.2645],[64.982,33.2645],[65.1117,33.5217],[65.035,33.5217],[65.0617,33.6502],[65.2422,33.7789],[65.3873,34.1004],[65.7505,34.3577],[66.3524,34.2933],[66.4577,34.422],[66.5347,34.422],[66.5632,34.5506],[66.1436,34.7436],[65.6179,34.8079],[65.4149,34.9366],[64.7555,34.7436],[64.3699,34.7436],[64.1882,34.615],[63.9569,34.615],[63.8301,34.7436],[63.2767,34.6793],[63.1496,34.8079],[62.6231,34.8723],[62.1906,35.3871],[61.804,35.3871],[61.303,35.5802],[61.2346,36.3528],[61.157,36.3528],[61.2128,36.6105],[60.047,36.6105],[59.0742,36.4172],[58.453,36.4172],[57.7024,36.546],[57.4437,36.8037],[56.8343,36.8682],[56.2119,36.8682],[55.785,36.6749],[54.7744,36.6749],[54.0333,36.8682],[53.8892,36.7936],[53.65,36.8421],[53.0877,36.8037],[52.1082,36.546],[52.0076,36.4172],[50.8546,36.0308],[50.4804,35.6445],[49.6082,35.5158],[49.5001,35.3227],[49.0834,35.1297],[47.9542,35.3227],[46.031,35.3871],[45.1489,35.7089],[45.2105,36.4191],[45.1108,36.4025],[45.2107,36.4215],[45.2606,36.9971],[45.4261,37.0615],[45.4458,37.1904],[45.29,37.1904],[45.2517,37.4483],[45.1737,37.4483],[45.2238,37.7707],[45.6349,37.8998],[45.8539,38.2869],[46.1209,38.4806],[47.2516,38.6743],[48.326,38.0933],[48.7954,38.0933],[48.8206,38.6743],[48.7422,38.6743],[48.9275,39.2557],[48.7822,39.3203],[48.8065,39.4496],[48.6733,39.5789],[48.3035,39.7083],[47.5151,39.7083],[47.3812,39.8376],[47.0538,39.7729],[46.7736,39.967],[46.5367,39.967],[46.4932,40.1612],[45.5241,40.4849],[45.4922,40.744],[45.6747,40.8736],[45.4727,41.068],[45.2345,41.068],[45.2586,41.1977],[45.1791,41.1977],[45.1912,41.2625],[44.2373,41.2625],[44.034,41.4571],[43.7836,41.3922],[42.5561,41.6518],[42.5335,41.522],[42.2947,41.522],[42.3631,41.4571],[42.2502,41.2625],[41.5348,41.2625],[41.3598,40.6792],[41.122,40.6792],[40.9947,40.8736],[41.0051,40.9384],[40.5674,40.6792],[40.7744,40.4849],[40.7542,40.3554],[40.5069,40.2906],[40.3982,40.0964],[38.7904,39.9023],[38.9298,39.7729],[38.7449,39.5789],[38.9542,39.385],[39.2085,39.5143],[39.7506,39.4496],[39.848,39.5789],[40.4784,39.5789],[40.5097,39.2557],[40.6576,39.1911],[40.514,38.7389],[40.5201,38.2224],[39.45,38.416],[39.389,38.5451],[39.2322,38.5451],[39.2496,38.6743],[39.1102,38.8034],[38.8136,38.9326],[38.1262,38.4806],[37.3184,38.2869],[37.1146,37.8998],[36.3481,38.0288],[35.9981,37.7062],[35.6712,37.5773],[33.6685,37.8352],[33.5872,38.5451],[32.189,38.6743],[31.8033,38.7389],[31.7377,38.868],[31.4236,38.868],[31.443,39.0618],[31.233,39.3203],[31.3783,39.967],[30.5888,39.967],[30.6019,40.0964],[30.457,40.2259],[30.0682,40.2906],[29.923,40.4201],[29.936,40.5496],[29.4545,40.4849],[29.3503,40.2259],[28.955,40.2259],[28.7299,40.3554],[28.3344,40.3554],[28.3388,40.4037],[28.18,40.3984],[28.1644,40.2259],[27.4523,40.322],[27.2948,40.4059],[26.6819,40.3561],[26.4052,40.1887],[26.3622,40.0635],[26.236,39.9989],[26.1325,39.5143]],[[45.1108,36.4025],[45.0837,36.4128],[45.0791,36.4197],[45.1108,36.4025]],[[36.6665,36.2657],[36.6691,36.2599],[36.6681,36.2532],[36.6665,36.2657]],[[42.5355,41.4935],[42.555,41.5503],[42.5605,41.5555],[42.5355,41.4935]],[[42.5783,41.5723],[42.5852,41.5788],[42.5991,41.5805],[42.5783,41.5723]],[[42.661,41.5883],[42.8009,41.5792],[42.8199,41.5723],[42.661,41.5883]],[[42.7157,37.3553],[42.7805,37.3755],[42.788,37.3732],[42.7157,37.3553]],[[42.7951,37.371],[42.8011,37.3691],[42.8141,37.3468],[42.7951,37.371]],[[42.8066,41.5428],[42.8199,41.5723],[42.8068,41.543],[42.8066,41.5428]],[[44.5699,37.5144],[44.5732,37.5275],[44.5793,37.477],[44.5699,37.5144]],[[44.692,39.793],[44.7746,39.7028],[44.7769,39.6984],[44.692,39.793]],[[44.7525,37.1131],[44.7649,37.1394],[44.7544,37.1084],[44.7525,37.1131]],[[44.8011,39.653],[44.8085,39.6391],[44.807,39.6399],[44.8011,39.653]],[[44.814,39.6362],[44.8723,39.6251],[44.8278,39.6288],[44.814,39.6362]],[[44.8666,36.7801],[44.9227,36.7759],[44.8772,36.7765],[44.8666,36.7801]],[[44.9962,36.7417],[45.0353,36.6896],[45.0373,36.6808],[44.9962,36.7417]],[[45.0355,36.633],[45.0426,36.6569],[45.0443,36.6493],[45.0355,36.633]],[[45.0382,36.494],[45.0608,36.4472],[45.0391,36.4798],[45.0382,36.494]],[[45.0922,39.3444],[45.096,39.3411],[45.1358,39.2785],[45.0922,39.3444]],[[45.753,39.5635],[45.7655,39.5616],[45.7739,39.5549],[45.753,39.5635]],[[46.1064,38.8682],[46.1359,38.8637],[46.1261,38.8627],[46.1064,38.8682]],[[46.5901,38.9137],[46.6522,38.9929],[46.5992,38.9197],[46.5901,38.9137]],[[48.1351,30.4429],[48.1409,30.4419],[48.1705,30.4067],[48.1351,30.4429]],[[48.291,30.32],[48.2964,30.3198],[48.3014,30.3149],[48.291,30.32]],[[48.3292,30.2876],[48.397,30.221],[48.4026,30.2088],[48.3292,30.2876]],[[48.3811,30.1453],[48.3832,30.1481],[48.3831,30.1424],[48.3811,30.1453]],[[48.4082,30.1885],[48.4085,30.1961],[48.4106,30.1915],[48.4082,30.1885]],[[48.4239,30.0836],[48.4618,29.9949],[48.4531,30.0014],[48.4239,30.0836]],[[61.1016,35.2353],[61.1038,35.2494],[61.1124,35.202],[61.1016,35.2353]]],[[[26.253,40.0786],[26.3758,40.1535],[26.3655,40.1641],[26.2568,40.0964],[26.253,40.0786]]],[[[48.0108,29.9805],[48.0311,29.971],[48.0789,30.0041],[48.1061,30.0176],[48.1092,30.028],[48.0547,30.0245],[48.0108,29.9805]]],[[[48.0461,29.8005],[48.1858,29.6039],[48.3527,29.7098],[48.3445,29.7906],[48.1621,29.9957],[48.1227,29.9697],[48.1974,29.9254],[48.0951,29.8947],[48.1133,29.8391],[48.0461,29.8005]]],[[[55.2926,26.5485],[55.8766,26.7429],[55.947,26.6963],[56.2874,26.9551],[56.2124,27.003],[55.8977,26.9068],[55.758,26.954],[55.7742,26.7969],[55.3045,26.6564],[55.2926,26.5485]]],[[[55.8659,26.6592],[55.8978,26.6672],[55.8943,26.6794],[55.8683,26.6664],[55.8659,26.6592]]],[[[20.6195,37.8228],[20.7934,37.6685],[20.9261,37.7284],[20.886,37.814],[20.7247,37.8998],[20.6554,37.8998],[20.6195,37.8228]]],[[[25.8359,39.1822],[26.1021,39.1115],[26.2256,39.2076],[26.2935,39.1772],[26.1002,39.0858],[26.1657,39.0224],[26.5471,38.9879],[26.437,39.1035],[26.4893,39.1137],[26.5394,39.0194],[26.61,39.0229],[26.5397,39.166],[26.3822,39.2771],[26.4074,39.3347],[26.1658,39.3681],[26.0606,39.2895],[25.9226,39.2911],[25.8359,39.1822]]],[[[19.7578,39.6436],[19.9065,39.5814],[19.8391,39.6799],[19.9214,39.7729],[19.7637,39.7729],[19.7578,39.6436]]],[[[47.0656,39.8376],[47.1445,39.8376],[47.1564,39.9023],[47.0775,39.9023],[47.0656,39.8376]]],[[[46.9196,39.9023],[46.9986,39.9023],[47.0104,39.967],[46.9315,39.967],[46.9196,39.9023]]]]}},{"type":"Feature","properties":{"relationId":"cliopatria-relation-a2be1ae9280e","name":"(Allegiance of Seleucid Empire to Roman Republic)","name_ko":"셀레우코스 제국–로마 공화국 충성·복속 관계","relationKind":"allegiance","relation_kind_ko":"충성·복속 관계","actor_ids":"cliopatria-q705904-feafb1f01a;cliopatria-q175881-b6b4ba388a","actor_names_ko":"셀레우코스 제국;로마 공화국","color":"#e7b763","startYear":-201,"endYear":-197,"source_name":"Cliopatria v0.2.0","source_url":"https://github.com/Seshat-Global-History-Databank/cliopatria","license":"CC BY 4.0","attribution":"Seshat Global History Databank, Cliopatria contributors"},"geometry":{"type":"MultiPolygon","coordinates":[[[[2.5313,34.4863],[2.5334,34.422],[2.6104,34.422],[2.6083,34.4863],[2.5313,34.4863]]],[[[-2.9455,34.615],[-2.7878,34.5506],[-2.8543,34.3577],[-2.4592,34.1647],[-1.693,34.229],[-1.6097,34.1004],[-1.5391,34.229],[-1.3051,34.1647],[-1.2374,34.3577],[0.3026,34.3577],[0.4513,34.4863],[0.685,34.422],[1.2938,34.615],[2.4499,34.615],[2.9205,34.3577],[3.1515,34.3577],[3.4557,34.4863],[3.8427,34.422],[4.4539,34.615],[5.149,34.5506],[5.3774,34.6793],[6.1484,34.6793],[6.459,34.5506],[6.9203,34.615],[7.1535,34.4863],[7.6149,34.5506],[8.0016,34.422],[8.0808,34.229],[8.311,34.2933],[8.9278,34.1647],[8.9238,34.6793],[8.7685,34.8079],[8.1507,34.8723],[7.9942,35.0653],[7.9903,35.3871],[7.8222,36.4172],[7.666,36.4816],[7.6642,36.6105],[7.1202,36.6105],[6.9603,36.8682],[6.8047,36.8682],[6.8035,36.9326],[6.3404,36.7393],[5.9516,36.7393],[5.645,36.546],[5.4103,36.6105],[5.2581,36.4816],[4.8663,36.6105],[3.1565,36.6105],[2.7724,36.4816],[1.918,36.4816],[1.9138,36.5702],[1.5296,36.4816],[1.1787,36.5109],[0.9138,36.3528],[0.6818,36.3322],[0.6837,36.2884],[0.4537,36.224],[0.3877,35.9664],[0.0806,35.902],[-0.1459,35.7733],[-0.4587,35.8377],[-0.53,35.7089],[-0.9171,35.7089],[-1.0655,35.5802],[-1.1833,35.5765],[-1.1365,35.4514],[-1.3587,35.2584],[-1.5634,35.2584],[-1.6612,35.1297],[-1.9565,35.075],[-2.7425,35.1297],[-2.809,34.9366],[-2.8862,34.9366],[-2.9455,34.615]]],[[[14.3384,35.9455],[14.3815,35.843],[14.5618,35.8298],[14.5078,35.9285],[14.3773,35.9936],[14.3384,35.9455]]],[[[9.4476,37.2549],[9.6046,37.0615],[9.5283,36.8037],[9.7623,36.6749],[9.9955,36.6749],[10.074,36.4816],[10.307,36.4816],[10.3842,36.6749],[10.0728,36.8037],[10.0723,36.9326],[10.2806,36.9326],[10.1824,37.027],[10.2271,37.1177],[10.1281,37.1587],[10.2431,37.1891],[9.8673,37.2549],[9.8196,37.2276],[9.925,37.2131],[9.9143,37.1783],[9.8159,37.1518],[9.7718,37.2133],[9.8278,37.2549],[9.4476,37.2549]]],[[[-7.5754,37.6417],[-7.5539,37.3838],[-7.4653,37.2549],[-6.9042,37.2549],[-6.8527,37.2952],[-6.8854,37.2549],[-6.6192,37.0288],[-6.4323,36.9971],[-6.3473,36.8187],[-6.3447,36.9013],[-6.1948,36.9321],[-6.3382,36.8837],[-6.3409,36.8054],[-6.0661,36.2289],[-5.8311,36.224],[-5.6403,36.0422],[-5.3215,36.2067],[-5.2282,36.4816],[-4.6888,36.546],[-4.4686,36.7393],[-2.6801,36.7393],[-2.5321,36.8682],[-2.0616,36.8037],[-1.8574,37.3193],[-1.6521,37.3626],[-1.7087,37.4483],[-1.2427,37.5792],[-1.1717,37.5518],[-0.7078,37.6411],[-0.8099,37.6669],[-0.8561,37.7425],[-0.788,37.8228],[-0.7607,37.7961],[-0.8035,38.0288],[-0.6609,38.2869],[0.0994,38.7389],[-0.3137,39.1265],[-0.3454,39.7083],[-0.1265,40.0317],[0.1825,40.1612],[0.2478,40.4201],[0.7093,40.6792],[0.6958,40.9384],[1.2384,41.1977],[2.1066,41.3274],[2.3336,41.5869],[2.8856,41.7167],[2.9545,41.9764],[2.8747,41.9764],[2.8692,42.1063],[2.7123,42.0413],[2.7179,41.9114],[1.997,41.9764],[1.422,42.3012],[0.859,42.3662],[0.7719,42.4962],[0.2992,42.3662],[0.1801,41.6518],[-0.0477,41.4571],[-0.1844,41.068],[-0.4189,41.0032],[-0.4113,40.8736],[-1.0106,40.2906],[-1.0029,40.1612],[-1.2321,40.0317],[-1.2205,39.8376],[-1.4493,39.7083],[-1.3511,39.385],[-1.4298,39.385],[-1.4182,39.1911],[-1.6309,38.8034],[-1.941,38.7389],[-2.2389,38.4806],[-4.2029,38.5451],[-4.6924,38.8034],[-4.702,38.9326],[-4.8542,38.868],[-4.9425,38.9972],[-5.3404,39.0618],[-5.4824,38.868],[-5.8699,38.8034],[-6.0114,38.6097],[-7.2224,38.0933],[-7.2845,37.8998],[-7.5754,37.6417]],[[-7.5297,37.5672],[-7.5236,37.5732],[-7.5275,37.5614],[-7.5297,37.5672]],[[-7.5223,37.5475],[-7.496,37.5121],[-7.5154,37.5293],[-7.5223,37.5475]],[[-7.445,37.3868],[-7.4276,37.2745],[-7.4322,37.2639],[-7.445,37.3868]]],[[[-0.7545,37.7744],[-0.7469,37.6838],[-0.7265,37.6652],[-0.7401,37.7025],[-0.7327,37.7477],[-0.7545,37.7744]]],[[[8.1567,40.7718],[8.1974,40.6912],[8.1618,40.5638],[8.1934,40.6175],[8.2163,40.5706],[8.312,40.5781],[8.386,40.3518],[8.4761,40.2921],[8.49,40.1045],[8.3772,40.0338],[8.4004,39.9361],[8.5453,39.8786],[8.5044,39.7215],[8.5658,39.7011],[8.4553,39.7561],[8.4634,39.5769],[8.374,39.3789],[8.4321,39.3018],[8.4095,39.1693],[8.5596,39.0567],[8.606,38.9088],[8.7166,38.9326],[8.8533,38.878],[9.0183,38.9953],[9.0183,39.1461],[9.0798,39.2246],[9.0139,39.2639],[9.166,39.1871],[9.2922,39.2213],[9.4052,39.1521],[9.5664,39.1492],[9.7111,39.9293],[9.6262,40.2631],[9.8225,40.5327],[9.6579,40.7999],[9.724,40.8449],[9.6141,40.8934],[9.6421,40.9206],[9.5042,40.9269],[9.6469,40.9922],[9.5119,41.0163],[9.5541,41.1239],[9.4691,41.1462],[9.4429,41.092],[9.4224,41.1807],[9.1711,41.2426],[9.1419,41.1528],[9.0055,41.1219],[8.8225,40.9473],[8.5205,40.827],[8.3102,40.8507],[8.1812,40.9341],[8.2153,40.8814],[8.1567,40.7718]]],[[[8.3533,39.0556],[8.4312,38.9661],[8.4839,39.0698],[8.3701,39.1131],[8.3533,39.0556]]],[[[9.3767,41.2147],[9.377,41.2133],[9.3953,41.2106],[9.4007,41.2115],[9.3767,41.2147]]],[[[9.437,41.1859],[9.4644,41.1727],[9.4749,41.1793],[9.4749,41.2014],[9.445,41.2055],[9.437,41.1859]]],[[[8.5792,45.4968],[8.581,45.3659],[8.9094,45.1042],[10.2098,44.9734],[10.6159,44.7119],[10.6969,44.4507],[10.535,44.3854],[10.5351,44.2548],[10.3734,44.2548],[10.3736,44.1243],[10.2122,44.0591],[10.2125,43.9065],[10.3742,43.6678],[10.5391,43.0796],[11.0163,42.8213],[11.0159,42.6629],[11.176,42.6262],[11.2552,42.4312],[11.4152,42.4312],[11.569,42.3314],[11.6548,42.3662],[11.8128,42.1063],[12.1317,42.0413],[12.1305,41.9131],[13,41.3274],[13.7145,41.2625],[13.862,41.1328],[13.9506,41.1328],[14.1046,40.8736],[14.4219,40.8736],[14.4194,40.7517],[14.4741,40.7297],[14.4363,40.6792],[14.8934,40.6792],[15.0414,40.2259],[15.1995,40.2259],[15.4319,40.0317],[15.5349,40.0778],[15.7478,40.0317],[15.7136,39.978],[15.7736,39.8424],[15.8989,39.7729],[16.1165,39.0618],[16.2703,38.9326],[16.2652,38.7389],[15.9497,38.6743],[15.8621,38.2869],[15.6328,38.2203],[15.6982,37.9643],[15.9328,37.9643],[16.4919,38.416],[16.5024,38.8034],[17.1383,39.0618],[17.0697,39.385],[16.9162,39.5143],[16.4473,39.6436],[16.4567,39.967],[16.6769,40.1511],[16.6245,40.2906],[16.777,40.2906],[16.9137,40.4464],[16.868,40.4849],[17.0285,40.5496],[17.3452,40.5496],[17.4175,40.3554],[17.8131,40.3554],[18.1122,39.9023],[18.3489,39.9023],[18.4381,40.1612],[17.9812,40.6144],[17.5107,40.744],[17.2027,41.0032],[15.9439,41.3922],[15.8738,41.7167],[16.1149,41.7816],[16.1189,41.9114],[15.2414,41.9114],[14.7659,42.0413],[14.7178,42.1506],[14.6077,42.1063],[14.5308,42.2362],[14.3709,42.2362],[14.0565,42.4962],[13.9014,42.7563],[13.9329,42.8295],[13.8625,43.0186],[13.7471,43.0816],[13.6726,43.4072],[13.3874,43.6413],[13.0338,43.733],[13.019,43.8567],[12.8734,43.7982],[12.313,44.1896],[12.1537,44.4507],[12.1572,44.8426],[12.2377,44.7773],[12.303,44.8429],[12.4001,44.7989],[12.4026,45.0388],[12.3688,45.011],[12.16,45.1696],[12.1628,45.4968],[12.6522,45.5623],[12.8168,45.6933],[13.0658,45.6401],[13.1448,45.8243],[13.3896,45.8243],[13.1504,46.2177],[12.7406,46.1521],[12.0824,45.6278],[11.5112,45.4968],[10.8597,45.4968],[10.5337,45.6278],[8.9035,45.6278],[8.5792,45.4968]]],[[[12.4905,37.7062],[13.192,37.5773],[13.6022,37.2505],[14.2779,37.126],[14.6723,36.7393],[15.0498,36.7393],[15.2051,37.1662],[15.0592,37.2549],[15.0665,37.6417],[15.3895,38.1578],[15.5432,38.1578],[15.5865,38.2377],[14.0562,37.9643],[13.6652,37.9643],[13.3547,38.1578],[13.1199,38.1578],[13.0404,38.0288],[12.6522,38.0929],[12.4919,37.8998],[12.4905,37.7062]]],[[[8.5453,42.2329],[8.5938,42.1745],[8.5596,42.154],[8.745,42.0566],[8.6457,41.9774],[8.8054,41.9069],[8.7508,41.8455],[8.7849,41.8244],[8.6551,41.7499],[8.9227,41.6946],[8.8018,41.6391],[8.7918,41.5612],[9.0798,41.4824],[9.0964,41.4035],[9.2255,41.3771],[9.2107,41.4482],[9.3506,41.5812],[9.2922,41.6264],[9.3467,41.6196],[9.4016,41.7064],[9.4032,41.9529],[9.5596,42.1466],[9.5281,42.5635],[9.4429,42.6406],[9.464,42.9901],[9.3467,43.0037],[9.3057,42.8393],[9.3425,42.7491],[9.2922,42.6748],[9.1178,42.732],[8.787,42.562],[8.7092,42.5792],[8.6595,42.4299],[8.5491,42.3771],[8.6878,42.2729],[8.5453,42.2329]]],[[[9.4566,42.6474],[9.4768,42.6191],[9.4769,42.6201],[9.4821,42.6201],[9.4566,42.6474]]],[[[10.1632,42.8164],[10.1963,42.7362],[10.3379,42.7648],[10.4307,42.7221],[10.3888,42.7635],[10.4367,42.8044],[10.4124,42.8734],[10.3473,42.8059],[10.1632,42.8164]]],[[[16.7921,42.9109],[17.1938,42.9263],[17.0321,42.9826],[16.7942,42.9702],[16.7921,42.9109]]],[[[17.0016,43.0515],[17.0462,42.9951],[17.196,42.9829],[17.1976,43.0271],[17.0016,43.0515]]],[[[26.1325,39.5143],[26.8934,39.5844],[26.9377,39.5143],[27.2353,39.5143],[27.4089,39.7083],[27.9721,39.8376],[28.84,39.8376],[29.3013,39.7083],[29.315,38.9972],[29.2365,38.9972],[29.2079,38.6743],[28.9614,38.5451],[28.8611,38.2869],[28.5267,38.0288],[28.1408,38.0933],[27.969,37.8998],[27.7296,37.8352],[27.5,37.8998],[27.5099,38.0288],[27.2753,38.0288],[27.2511,37.7062],[27.175,37.7024],[27.31,37.4483],[27.2461,37.3362],[27.4072,37.4127],[27.3942,37.3302],[28.2411,37.3838],[28.304,37.1904],[29.3686,36.8682],[30.6969,36.9326],[31.3916,36.8682],[31.9903,36.6105],[33.3751,37.2549],[33.6089,37.2549],[33.6738,37.126],[34.2191,37.126],[34.335,36.7393],[34.4128,36.7393],[34.5816,36.8682],[34.8929,36.8682],[34.9571,36.7393],[35.0349,36.7393],[35.2888,36.9326],[36.1449,36.9326],[36.2862,36.8037],[36.2649,36.6105],[35.8486,36.3528],[35.9901,36.224],[35.9767,36.001],[35.8811,35.8685],[35.8449,35.5802],[35.9929,35.5158],[35.9153,35.2879],[36.2688,35.194],[36.165,34.9366],[36.3128,34.8723],[36.293,34.6793],[36.4406,34.615],[36.5619,34.2933],[36.8698,34.2933],[37.0039,34.1004],[37.3885,34.1004],[37.5991,33.9075],[37.6493,33.6502],[37.7261,33.6502],[37.7395,33.7789],[37.9902,33.9718],[39.1238,34.4863],[40.2569,34.2933],[40.4033,34.229],[40.3115,34.1004],[40.7036,34.1647],[40.9117,33.9718],[41.2116,33.9075],[41.2733,33.7789],[41.427,33.7789],[41.4886,33.6502],[42.0031,33.4574],[42.0645,33.3288],[42.5783,33.1359],[42.7085,32.943],[43.1526,32.8145],[44.459,31.5933],[44.5814,31.3362],[44.9546,31.2719],[45.7705,30.4364],[46.5906,30.3079],[46.6151,29.858],[46.8497,29.9223],[46.994,29.858],[46.9794,29.7294],[47.2897,29.7937],[47.6464,29.6009],[48.1406,29.5464],[48.1809,29.5622],[47.9956,29.8277],[47.9348,30.1071],[47.969,30.0041],[48.1192,30.045],[48.434,29.9365],[48.5304,29.9564],[48.4766,29.984],[48.6587,29.9836],[48.6433,30.0554],[48.8904,30.0308],[48.9417,30.1651],[48.8623,30.3456],[49.0373,30.4325],[48.9456,30.4797],[48.9815,30.5156],[49.2112,30.5063],[49.2638,30.4497],[49.2029,30.3466],[49.062,30.4081],[48.9212,30.3808],[49.1614,30.2238],[49.2212,30.2646],[49.2457,30.1565],[49.4798,30.1561],[49.5322,30.0229],[50.0241,30.2163],[50.1277,30.1207],[50.1613,29.9263],[50.6553,29.4491],[50.6895,29.2908],[50.6435,29.1458],[50.8403,29.1406],[50.915,29.0867],[50.929,29.0097],[50.8345,28.8914],[51.0588,28.7359],[51.0807,28.5339],[51.2853,28.2409],[51.2698,28.1405],[51.4083,27.9323],[51.5842,27.8511],[52.0112,27.8327],[52.4596,27.6326],[52.6701,27.4486],[52.6098,27.4123],[52.6669,27.3271],[52.9326,27.1603],[53.4441,26.9757],[53.7161,26.7086],[54.0158,26.7495],[54.3081,26.715],[54.62,26.5082],[54.791,26.4958],[55.2708,26.7925],[55.5217,26.7846],[55.5804,26.8591],[55.5545,26.8999],[55.6659,26.9954],[55.9393,27.0267],[56.1237,27.1606],[56.353,27.2016],[56.8088,27.1396],[56.8846,27.0781],[56.8677,27.0123],[56.9733,27.003],[56.9273,26.9556],[57.0524,26.8366],[57.1331,26.2637],[57.2129,26.1662],[57.1668,26.083],[57.1986,25.995],[57.3397,25.7812],[57.5207,25.7436],[57.4826,26.0008],[57.7733,26.5794],[58.2621,26.9009],[58.4046,26.8366],[58.428,27.0295],[58.5942,27.158],[58.7446,27.158],[58.8359,27.2866],[58.9782,27.2223],[58.9945,27.3509],[59.3955,27.5438],[60.244,28.251],[61.0273,29.4723],[61.3701,29.7294],[61.6801,30.2436],[62.1239,30.6292],[63.3014,32.1074],[63.4421,32.0431],[63.6434,32.3002],[63.8726,32.3002],[64.4063,32.6859],[64.3552,32.8145],[64.687,32.943],[64.8287,33.2645],[64.982,33.2645],[65.1117,33.5217],[65.035,33.5217],[65.0617,33.6502],[65.2422,33.7789],[65.3873,34.1004],[65.7505,34.3577],[66.3524,34.2933],[66.4577,34.422],[66.5347,34.422],[66.5632,34.5506],[66.1436,34.7436],[65.6179,34.8079],[65.4149,34.9366],[64.7555,34.7436],[64.3699,34.7436],[64.1882,34.615],[63.9569,34.615],[63.8301,34.7436],[63.2767,34.6793],[63.1496,34.8079],[62.6231,34.8723],[62.1906,35.3871],[61.804,35.3871],[61.303,35.5802],[61.2346,36.3528],[61.157,36.3528],[61.2128,36.6105],[60.047,36.6105],[59.0742,36.4172],[58.453,36.4172],[57.7024,36.546],[57.4437,36.8037],[56.8343,36.8682],[56.2119,36.8682],[55.785,36.6749],[54.7744,36.6749],[54.0333,36.8682],[53.8892,36.7936],[53.65,36.8421],[53.0877,36.8037],[52.1082,36.546],[52.0076,36.4172],[50.8546,36.0308],[50.4804,35.6445],[49.6082,35.5158],[49.5001,35.3227],[49.0834,35.1297],[47.9542,35.3227],[46.031,35.3871],[45.1489,35.7089],[45.2105,36.4191],[45.1108,36.4025],[45.2107,36.4215],[45.2606,36.9971],[45.4261,37.0615],[45.4458,37.1904],[45.29,37.1904],[45.2517,37.4483],[45.1737,37.4483],[45.2238,37.7707],[45.6349,37.8998],[45.8539,38.2869],[46.1209,38.4806],[47.2516,38.6743],[48.326,38.0933],[48.7954,38.0933],[48.8206,38.6743],[48.7422,38.6743],[48.9275,39.2557],[48.7822,39.3203],[48.8065,39.4496],[48.6733,39.5789],[48.3035,39.7083],[47.5151,39.7083],[47.3812,39.8376],[47.0538,39.7729],[46.7736,39.967],[46.5367,39.967],[46.4932,40.1612],[45.5241,40.4849],[45.4922,40.744],[45.6747,40.8736],[45.4727,41.068],[45.2345,41.068],[45.2586,41.1977],[45.1791,41.1977],[45.1238,41.3274],[44.9552,41.2627],[45.0514,41.3221],[44.2373,41.2625],[44.034,41.4571],[43.7836,41.3922],[42.5561,41.6518],[42.5335,41.522],[42.2947,41.522],[42.3631,41.4571],[42.2502,41.2625],[41.5348,41.2625],[41.3598,40.6792],[41.122,40.6792],[40.9947,40.8736],[41.0051,40.9384],[40.5674,40.6792],[40.7744,40.4849],[40.7542,40.3554],[40.5069,40.2906],[40.3982,40.0964],[38.7904,39.9023],[38.9298,39.7729],[38.7449,39.5789],[38.9542,39.385],[39.2085,39.5143],[39.7506,39.4496],[39.848,39.5789],[40.4784,39.5789],[40.5097,39.2557],[40.6576,39.1911],[40.514,38.7389],[40.5201,38.2224],[39.45,38.416],[39.389,38.5451],[39.2322,38.5451],[39.2496,38.6743],[39.1102,38.8034],[38.8136,38.9326],[38.1262,38.4806],[37.3184,38.2869],[37.1146,37.8998],[36.3481,38.0288],[35.9981,37.7062],[35.6712,37.5773],[33.6685,37.8352],[33.5872,38.5451],[32.189,38.6743],[31.8033,38.7389],[31.7377,38.868],[31.4236,38.868],[31.443,39.0618],[31.233,39.3203],[31.3783,39.967],[30.5888,39.967],[30.6019,40.0964],[30.457,40.2259],[30.0682,40.2906],[29.923,40.4201],[29.936,40.5496],[29.4545,40.4849],[29.3503,40.2259],[28.955,40.2259],[28.7299,40.3554],[28.3344,40.3554],[28.3388,40.4037],[28.18,40.3984],[28.1703,40.2906],[27.6167,40.2906],[27.2948,40.4059],[26.6819,40.3561],[26.4052,40.1887],[26.3622,40.0635],[26.236,39.9989],[26.1325,39.5143]],[[45.1108,36.4025],[45.0837,36.4128],[45.0791,36.4197],[45.1108,36.4025]],[[36.6665,36.2657],[36.6691,36.2599],[36.6681,36.2532],[36.6665,36.2657]],[[42.5355,41.4935],[42.555,41.5503],[42.5605,41.5555],[42.5355,41.4935]],[[42.5783,41.5723],[42.5852,41.5788],[42.5991,41.5805],[42.5783,41.5723]],[[42.661,41.5883],[42.8009,41.5792],[42.8199,41.5723],[42.661,41.5883]],[[42.7157,37.3553],[42.7805,37.3755],[42.788,37.3732],[42.7157,37.3553]],[[42.7951,37.371],[42.8011,37.3691],[42.8141,37.3468],[42.7951,37.371]],[[42.8066,41.5428],[42.8199,41.5723],[42.8068,41.543],[42.8066,41.5428]],[[44.5699,37.5144],[44.5732,37.5275],[44.5793,37.477],[44.5699,37.5144]],[[44.692,39.793],[44.7746,39.7028],[44.7769,39.6984],[44.692,39.793]],[[44.7525,37.1131],[44.7649,37.1394],[44.7544,37.1084],[44.7525,37.1131]],[[44.8011,39.653],[44.8085,39.6391],[44.807,39.6399],[44.8011,39.653]],[[44.814,39.6362],[44.8723,39.6251],[44.8278,39.6288],[44.814,39.6362]],[[44.8666,36.7801],[44.9227,36.7759],[44.8772,36.7765],[44.8666,36.7801]],[[44.9962,36.7417],[45.0353,36.6896],[45.0373,36.6808],[44.9962,36.7417]],[[45.0355,36.633],[45.0426,36.6569],[45.0443,36.6493],[45.0355,36.633]],[[45.0382,36.494],[45.0608,36.4472],[45.0391,36.4798],[45.0382,36.494]],[[45.0922,39.3444],[45.096,39.3411],[45.1358,39.2785],[45.0922,39.3444]],[[45.753,39.5635],[45.7655,39.5616],[45.7739,39.5549],[45.753,39.5635]],[[46.1064,38.8682],[46.1359,38.8637],[46.1261,38.8627],[46.1064,38.8682]],[[46.5901,38.9137],[46.6522,38.9929],[46.5992,38.9197],[46.5901,38.9137]],[[48.1351,30.4429],[48.1409,30.4419],[48.1705,30.4067],[48.1351,30.4429]],[[48.291,30.32],[48.2964,30.3198],[48.3014,30.3149],[48.291,30.32]],[[48.3292,30.2876],[48.397,30.221],[48.4026,30.2088],[48.3292,30.2876]],[[48.3811,30.1453],[48.3832,30.1481],[48.3831,30.1424],[48.3811,30.1453]],[[48.4082,30.1885],[48.4085,30.1961],[48.4106,30.1915],[48.4082,30.1885]],[[48.4239,30.0836],[48.4618,29.9949],[48.4531,30.0014],[48.4239,30.0836]],[[61.1016,35.2353],[61.1038,35.2494],[61.1124,35.202],[61.1016,35.2353]]],[[[26.253,40.0786],[26.3758,40.1535],[26.3655,40.1641],[26.2568,40.0964],[26.253,40.0786]]],[[[48.0108,29.9805],[48.0311,29.971],[48.0789,30.0041],[48.1061,30.0176],[48.1092,30.028],[48.0547,30.0245],[48.0108,29.9805]]],[[[48.0461,29.8005],[48.1858,29.6039],[48.3527,29.7098],[48.3445,29.7906],[48.1621,29.9957],[48.1227,29.9697],[48.1974,29.9254],[48.0951,29.8947],[48.1133,29.8391],[48.0461,29.8005]]],[[[55.2926,26.5485],[55.8766,26.7429],[55.947,26.6963],[56.2874,26.9551],[56.2124,27.003],[55.8977,26.9068],[55.758,26.954],[55.7742,26.7969],[55.3045,26.6564],[55.2926,26.5485]]],[[[55.8659,26.6592],[55.8978,26.6672],[55.8943,26.6794],[55.8683,26.6664],[55.8659,26.6592]]],[[[25.8359,39.1822],[26.1021,39.1115],[26.2256,39.2076],[26.2935,39.1772],[26.1002,39.0858],[26.1657,39.0224],[26.5471,38.9879],[26.437,39.1035],[26.4893,39.1137],[26.5394,39.0194],[26.61,39.0229],[26.5397,39.166],[26.3822,39.2771],[26.4074,39.3347],[26.1658,39.3681],[26.0606,39.2895],[25.9226,39.2911],[25.8359,39.1822]]],[[[19.7578,39.6436],[19.9065,39.5814],[19.8391,39.6799],[19.9214,39.7729],[19.7637,39.7729],[19.7578,39.6436]]],[[[47.0656,39.8376],[47.1445,39.8376],[47.1564,39.9023],[47.0775,39.9023],[47.0656,39.8376]]],[[[46.9196,39.9023],[46.9986,39.9023],[47.0104,39.967],[46.9315,39.967],[46.9196,39.9023]]],[[[19.3044,40.6531],[19.4101,40.6792],[19.5625,40.5496],[19.5747,40.8088],[19.8126,40.8088],[19.9776,40.9384],[20.0768,41.3274],[19.7849,41.8465],[19.5034,41.8465],[19.5916,41.8188],[19.5576,41.6605],[19.613,41.6053],[19.4634,41.5595],[19.5297,41.522],[19.4438,41.3922],[19.5233,41.3922],[19.4555,41.1485],[19.5234,40.9206],[19.3688,40.8022],[19.3044,40.6531]]]]}}]}
