{"type":"FeatureCollection","features":[{"type":"Feature","properties":{"relationId":"cliopatria-relation-a36833e323ea","name":"(Alliance between Han Dynasty and Xiongnu)","name_ko":"한나라–흉노 동맹","relationKind":"alliance","relation_kind_ko":"동맹","actor_ids":"cliopatria-q7209-2b87cb27ab;cliopatria-q188836-2224155b01","actor_names_ko":"한나라;흉노","color":"#4fd1c5","startYear":91,"endYear":105,"source_name":"Cliopatria v0.2.0","source_url":"https://github.com/Seshat-Global-History-Databank/cliopatria","license":"CC BY 4.0","attribution":"Seshat Global History Databank, Cliopatria contributors"},"geometry":{"type":"MultiPolygon","coordinates":[[[[108.6586,18.8016],[108.7107,18.4997],[109.136,18.3612],[109.1796,18.2932],[109.7249,18.2219],[109.7393,18.2587],[109.6704,18.273],[109.7318,18.273],[109.7461,18.3959],[110.0232,18.4307],[110.0825,18.4778],[110.0342,18.5119],[110.0881,18.5043],[110.2708,18.6682],[110.4035,18.7038],[110.3352,18.6733],[110.4035,18.6628],[110.469,18.7772],[110.5344,18.7856],[110.5034,18.8819],[110.4928,18.7931],[110.4315,18.8215],[110.5134,18.9064],[110.5823,19.1501],[110.5549,19.0873],[110.4792,19.1693],[110.5803,19.1552],[110.6697,19.3817],[110.7962,19.4846],[110.7944,19.6013],[110.8477,19.6225],[110.8218,19.5678],[110.8765,19.5398],[111.0347,19.6422],[110.9346,19.9951],[110.7883,20.0104],[110.6706,20.1505],[110.6056,20.1076],[110.6058,19.9232],[110.5276,20.0202],[110.3766,20.0538],[110.4109,19.9234],[110.3447,20.0581],[110.157,20.0674],[110.0682,19.9848],[110.1496,20.0066],[110.1227,19.9743],[109.9901,19.906],[109.9426,19.9909],[109.8355,19.9309],[109.8159,19.9912],[109.7181,19.9575],[109.719,20.0106],[109.527,19.9514],[109.5202,19.8825],[109.5817,19.8557],[109.465,19.8341],[109.3114,19.9195],[109.2551,19.8983],[109.2111,19.7497],[109.3074,19.7869],[109.3074,19.7111],[109.2112,19.7248],[108.9448,19.492],[108.7042,19.3779],[108.6586,18.8016]]],[[[109.9686,18.4035],[109.9734,18.4059],[109.9686,18.4055],[109.9686,18.4035]]],[[[73.0986,40.8088],[73.1353,40.6792],[73.2938,40.6792],[73.3305,40.5496],[73.4889,40.5496],[73.5257,40.4201],[73.8,40.2906],[73.5731,39.5789],[73.3953,39.5143],[75.7921,39.1265],[77.0253,38.8034],[77.2576,38.5451],[77.4144,38.5451],[77.5104,38.3515],[77.667,38.3515],[77.8415,38.1578],[77.8014,38.0288],[78.0931,37.7062],[78.3857,37.6417],[78.4244,37.5128],[79.1454,37.3193],[79.3982,37.126],[80.3713,36.9971],[81.0312,36.6105],[85.1134,37.4483],[85.3562,37.7062],[85.8129,37.8998],[86.0814,38.2224],[86.4401,38.3515],[87.6617,38.4806],[88.7458,38.868],[89.5801,38.9972],[91.1233,39.1265],[92.2484,39.385],[93.0882,39.3203],[93.9547,39.5143],[94.5061,39.5143],[94.9769,39.3203],[95.3185,39.385],[95.6823,38.9326],[96.3097,38.7389],[96.414,38.6097],[96.6493,38.6097],[96.7552,38.868],[96.6767,38.868],[96.7571,39.0618],[96.6785,39.0618],[96.7596,39.2557],[96.681,39.2557],[96.7629,39.4496],[97.4677,39.2557],[97.4916,39.1265],[97.8574,39.0618],[97.9602,38.9326],[98.1173,38.9326],[98.3841,39.1911],[98.9578,39.0618],[99.1198,39.2557],[99.0919,39.1911],[99.3786,39.1265],[99.8618,38.416],[100.1994,38.2869],[100.4138,38.6097],[100.6423,38.2224],[100.7988,38.2224],[100.7963,38.0288],[101.2901,37.8998],[101.3148,37.7707],[101.6007,37.7062],[101.7553,37.5128],[102.0961,37.7707],[102.0425,37.6417],[102.172,37.5773],[102.1705,37.3838],[102.5856,37.2549],[102.611,37.126],[102.871,37.1904],[103.2078,37.0615],[103.3627,36.8682],[103.3107,36.7393],[103.4402,36.6749],[103.3886,36.546],[103.5182,36.4816],[103.467,36.3528],[103.6488,36.224],[103.63,35.5802],[103.7353,35.4514],[103.4496,34.4863],[103.5267,34.4863],[103.3554,34.229],[103.4928,33.9718],[103.21,33.3931],[102.5516,33.2645],[101.8832,32.8788],[101.6869,32.7502],[101.4404,32.236],[100.9792,31.0148],[101.0553,31.0148],[100.9393,30.6292],[101.0153,30.6292],[100.9019,30.2436],[100.9778,30.2436],[100.8854,29.9223],[100.9612,29.9223],[100.8886,29.6652],[100.9643,29.6652],[100.8753,29.3438],[100.9509,29.3438],[100.8811,29.0867],[101.022,28.7652],[100.9547,28.5081],[101.0302,28.5081],[100.9641,28.251],[101.0395,28.251],[100.9153,28.0581],[101.0499,27.9938],[101.0143,27.5438],[101.0896,27.5438],[101.1965,26.3865],[101.3981,25.9365],[101.4623,25.165],[101.8109,24.2649],[102.9898,23.3649],[104.9046,23.2363],[104.9561,23.1077],[105.1166,23.172],[105.2198,22.9148],[105.1746,22.6577],[105.2491,22.6577],[104.874,22.2077],[105.128,21.9505],[105.0956,21.7577],[104.9255,21.6291],[104.9785,21.5005],[104.8513,21.1791],[105.0956,20.8577],[104.873,20.8577],[104.9053,20.6005],[104.6191,20.6648],[104.4396,20.472],[104.9806,20.1505],[104.8648,19.8934],[104.9921,19.7648],[104.94,19.4434],[105.014,19.4434],[105.0152,18.9934],[105.1423,18.8648],[105.0373,18.6719],[105.1851,18.6719],[105.1438,18.4148],[106.5337,16.9362],[106.7649,17.0005],[106.9623,17.1945],[106.6346,17.4704],[106.5044,17.6828],[106.4087,17.6828],[106.3831,17.7192],[106.4292,17.7311],[106.2852,17.7721],[106.4981,17.7106],[106.436,17.882],[106.5247,17.9496],[106.4348,18.1235],[106.3467,18.0595],[106.2708,18.2041],[106.0934,18.2587],[105.8792,18.5109],[105.7644,18.759],[105.7507,18.6628],[105.752,18.7863],[105.6133,18.9855],[105.6438,19.0654],[105.7371,19.1085],[105.7434,19.2319],[105.8088,19.2802],[105.7909,19.6035],[105.9233,19.7668],[105.8674,19.7732],[105.9289,19.7936],[105.9556,19.9255],[106.0252,19.9992],[106.0835,19.965],[106.1071,20.0333],[106.1071,19.965],[106.176,19.9923],[106.3807,20.212],[106.5635,20.231],[106.4981,20.3083],[106.5762,20.2697],[106.5942,20.4482],[106.5186,20.4373],[106.5799,20.5472],[106.5186,20.541],[106.6248,20.5946],[106.5868,20.6633],[106.6375,20.6281],[106.7031,20.6597],[106.6626,20.698],[106.8059,20.6776],[106.7,20.8828],[106.7551,20.9385],[106.6421,21.0202],[106.7981,21.0248],[106.8206,20.976],[106.7725,20.9574],[106.8679,20.8827],[106.8743,20.9376],[106.9431,20.9103],[106.8538,20.9923],[107.001,20.9511],[107.0256,21.0338],[107.0462,20.9997],[107.1492,21.0406],[107.0661,20.9587],[107.1956,20.955],[107.3743,21.0276],[107.3606,21.2392],[107.4431,21.2877],[107.4153,21.3287],[107.5266,21.2988],[107.5223,21.3485],[107.5906,21.2939],[107.635,21.3832],[107.7864,21.4584],[107.7669,21.5202],[107.9097,21.5265],[107.9167,21.4575],[108.0806,21.4857],[107.9912,21.5484],[108.1764,21.5758],[108.2383,21.6439],[108.2256,21.5094],[108.314,21.5819],[108.3413,21.7258],[108.471,21.6713],[108.3897,21.5751],[108.471,21.562],[108.5654,21.6785],[108.5188,21.6713],[108.5331,21.7191],[108.5051,21.6713],[108.4635,21.7402],[108.5051,21.7879],[108.4487,21.8658],[108.4778,21.945],[108.4631,21.863],[108.553,21.9518],[108.5603,21.8955],[108.6355,21.8903],[108.5714,21.8128],[108.5945,21.7402],[108.677,21.8153],[108.6492,21.7333],[108.7249,21.7464],[108.7127,21.6884],[108.8371,21.666],[108.7796,21.7258],[108.8347,21.7258],[108.8326,21.7838],[108.7796,21.8153],[108.8614,21.8153],[108.8695,21.7538],[108.9241,21.7668],[108.8655,21.7397],[108.8695,21.6713],[109.1358,21.603],[109.1387,21.4016],[109.2146,21.4174],[109.2388,21.4857],[109.245,21.4316],[109.5308,21.4916],[109.5728,21.5817],[109.4647,21.6645],[109.521,21.6658],[109.4927,21.6986],[109.5677,21.76],[109.608,21.5751],[109.677,21.6234],[109.6497,21.5205],[109.7698,21.4936],[109.7732,21.5819],[109.8312,21.4759],[109.9444,21.4931],[109.9241,21.3628],[109.8466,21.3582],[109.696,20.8577],[109.7702,20.8577],[109.7869,20.6911],[109.8604,20.7155],[109.7806,20.685],[109.8211,20.5546],[109.8482,20.5956],[109.8227,20.5207],[109.9232,20.451],[109.9309,20.5063],[110.0155,20.4184],[109.9824,20.3515],[109.9174,20.4171],[109.9172,20.2393],[110.0379,20.3017],[110.1275,20.248],[110.2939,20.2585],[110.4068,20.3052],[110.5342,20.4783],[110.4789,20.5677],[110.3008,20.6571],[110.3418,20.8215],[110.3565,20.7323],[110.4094,20.751],[110.369,20.8489],[110.1567,20.8489],[110.1431,20.9923],[110.1956,21.0713],[110.2188,21.0276],[110.3994,21.1766],[110.3281,21.3355],[110.3895,21.3287],[110.3585,21.4357],[110.4373,21.3975],[110.4339,21.3088],[110.4863,21.3355],[110.4448,21.3076],[110.4789,21.2734],[110.4243,21.2877],[110.4312,21.1915],[110.6365,21.2302],[110.6356,21.381],[110.76,21.4447],[110.6365,21.3703],[110.6433,21.3218],[110.6776,21.3485],[110.6509,21.2604],[110.7682,21.3975],[110.8699,21.3832],[111.0686,21.4726],[110.9797,21.4447],[111.0276,21.5409],[111.1436,21.4658],[111.2263,21.4993],[111.158,21.5136],[111.1924,21.5312],[111.3108,21.4671],[111.4043,21.5267],[111.3628,21.5412],[111.438,21.5341],[111.4322,21.603],[111.4761,21.5136],[111.5956,21.5341],[111.5819,21.5819],[111.6305,21.5299],[111.7796,21.6754],[111.6781,21.7812],[111.8351,21.7668],[111.8325,21.7233],[112.0003,21.7743],[111.9041,21.8153],[111.8904,21.9251],[111.9692,21.824],[112.0413,21.8842],[112.0282,21.7973],[112.1926,21.8432],[112.1824,21.753],[112.2902,21.7101],[112.4021,21.8014],[112.3565,21.9797],[112.3975,22.0685],[112.3906,21.9555],[112.4937,21.9661],[112.4111,21.9012],[112.426,21.8452],[112.5509,21.7729],[112.826,21.9661],[112.8752,21.8863],[112.9665,21.8863],[113.0851,22.2076],[113.1164,22.076],[113.2306,22.0432],[113.3027,22.1833],[113.402,22.1796],[113.1602,22.4876],[113.1653,22.5756],[113.4837,22.1551],[113.5877,22.2379],[113.6104,22.3702],[113.5464,22.4376],[113.5992,22.5752],[113.3775,22.7674],[113.4942,22.7748],[113.3504,22.8897],[113.213,22.9045],[113.484,22.9243],[113.5023,23.0204],[113.4175,23.097],[113.5091,23.0622],[113.7031,23.1578],[113.8301,23.1175],[113.7202,23.1379],[113.5364,23.0631],[113.5762,22.9387],[113.6172,23.0349],[113.5967,22.9182],[113.6382,23.0349],[113.5923,22.8891],[113.6536,22.7587],[113.7581,22.7534],[113.8695,22.5034],[114.0915,22.5344],[113.9808,22.4695],[113.9969,22.3606],[114.1048,22.3699],[114.1719,22.2887],[114.2555,22.3223],[114.2967,22.2583],[114.2584,22.3621],[114.3186,22.3894],[114.3576,22.3324],[114.3997,22.4361],[114.3476,22.4229],[114.3237,22.48],[114.2093,22.3987],[114.1675,22.4481],[114.3351,22.5064],[114.2093,22.5237],[114.2298,22.5558],[114.3958,22.6135],[114.5158,22.4526],[114.6049,22.5327],[114.4954,22.562],[114.5903,22.6439],[114.5066,22.6465],[114.5221,22.706],[114.6955,22.7926],[114.817,22.8004],[114.742,22.7327],[114.7438,22.6094],[114.8658,22.6017],[114.896,22.5475],[114.9666,22.6765],[114.8625,22.7632],[114.9853,22.6893],[115.0655,22.796],[115.1803,22.7848],[115.3038,22.903],[115.3202,22.8505],[115.2334,22.7882],[115.4112,22.7883],[115.3385,22.7331],[115.3735,22.6942],[115.5752,22.6683],[115.5901,22.7372],[115.5556,22.7144],[115.527,22.767],[115.6121,22.8636],[115.468,22.8493],[115.483,22.9018],[115.406,22.925],[115.5476,22.8954],[115.5606,22.8493],[115.7303,22.9342],[115.697,22.8507],[115.8075,22.8033],[116.0762,22.8679],[116.0421,22.9329],[116.1237,22.8947],[116.0865,22.8458],[116.1537,22.856],[116.2815,22.9579],[116.2136,22.9828],[116.4947,22.9394],[116.6045,23.2096],[116.5089,23.2341],[116.6115,23.2387],[116.6511,23.172],[116.7151,23.2438],[116.6672,23.2813],[116.8035,23.2346],[116.7486,23.3263],[116.573,23.3237],[116.5232,23.4185],[116.7732,23.3494],[116.9165,23.6627],[116.9507,23.6109],[117.0684,23.6513],[117.0842,23.5506],[117.2192,23.6296],[117.2295,23.6928],[117.239,23.6055],[117.2774,23.7822],[117.4343,23.7759],[117.4901,23.8326],[117.4166,23.9468],[117.5711,23.9033],[117.626,23.8149],[117.7088,24.0355],[117.6671,24.0627],[117.7633,24.0703],[117.7981,24.0218],[117.76,23.9716],[117.8952,24.0696],[117.9073,24.1863],[117.9436,24.2126],[117.9788,24.1621],[118.0867,24.2497],[118.0906,24.3415],[118.0159,24.3269],[118.043,24.4067],[117.9073,24.3849],[117.7913,24.4675],[118.0217,24.4457],[118.0581,24.5159],[117.9749,24.5527],[118.0374,24.5606],[118.0444,24.6177],[118.1104,24.5841],[118.1605,24.6934],[118.219,24.5414],[118.4048,24.6066],[118.4312,24.6997],[118.4281,24.6313],[118.6471,24.5746],[118.6421,24.6787],[118.763,24.7627],[118.7018,24.81],[118.638,24.7721],[118.572,24.8852],[118.6712,24.8747],[118.6677,24.9534],[118.7295,24.9005],[118.7161,24.8436],[118.9229,24.8959],[118.9116,24.9534],[119.009,24.9473],[119.0042,25.0502],[118.9537,25.003],[118.8491,25.0738],[118.943,25.1088],[118.9746,25.1826],[118.8756,25.2438],[119.0273,25.2782],[118.9693,25.2264],[119.0689,25.2167],[119.0291,25.1405],[119.0929,25.1136],[119.1531,25.1397],[119.1161,25.2138],[119.2813,25.1794],[119.2725,25.2318],[119.3475,25.2678],[119.243,25.3302],[119.2013,25.2597],[119.2034,25.3581],[119.1732,25.3251],[119.1025,25.4203],[119.2378,25.4818],[119.3052,25.6046],[119.3809,25.5909],[119.3565,25.5269],[119.4491,25.5053],[119.447,25.4388],[119.5073,25.4744],[119.4947,25.4033],[119.5476,25.3835],[119.576,25.4674],[119.6271,25.3636],[119.5794,25.5847],[119.4924,25.5648],[119.4491,25.6872],[119.5719,25.6802],[119.6209,25.7603],[119.5664,25.8721],[119.5999,25.8442],[119.6954,26.0026],[119.5191,26.0445],[119.3298,25.9443],[119.2468,25.9672],[119.1952,26.0876],[119.0935,26.1458],[119.4585,25.9825],[119.6682,26.2215],[119.6543,26.2724],[119.9253,26.3474],[119.8258,26.4269],[119.6819,26.3171],[119.6484,26.4374],[119.5664,26.4549],[119.6537,26.498],[119.7918,26.4133],[119.7849,26.5778],[119.6751,26.6188],[119.5999,26.5704],[119.5411,26.6563],[119.5999,26.6461],[119.606,26.6945],[119.5521,26.7491],[119.606,26.7969],[119.7249,26.6978],[119.6858,26.812],[119.7562,26.7377],[119.782,26.8285],[119.8463,26.8522],[119.7974,26.8164],[119.8401,26.79],[119.7918,26.6877],[119.8292,26.715],[119.9016,26.6597],[119.9251,26.7922],[120.0673,26.7965],[120.032,26.8999],[120.2374,26.9272],[120.1487,26.9819],[120.2552,26.9971],[120.2163,27.0371],[120.2783,27.0638],[120.2437,27.1327],[120.3618,27.1009],[120.4076,27.158],[120.3473,27.1805],[120.3473,27.2426],[120.1824,27.2169],[120.1958,27.2978],[120.3119,27.3177],[120.3031,27.2423],[120.4292,27.1737],[120.4217,27.2221],[120.5178,27.2016],[120.5493,27.321],[120.5049,27.345],[120.5459,27.4033],[120.6353,27.3797],[120.682,27.4816],[120.5966,27.5703],[120.6756,27.6597],[120.6353,27.7633],[120.7077,27.7134],[120.8408,27.9487],[120.589,28.0267],[120.5596,28.1128],[120.606,28.0422],[120.8803,27.9986],[120.9969,28.0425],[121.0689,28.1569],[121.1081,28.2834],[121.025,28.3046],[121.1138,28.3017],[121.169,28.3848],[121.2647,28.366],[121.2031,28.3319],[121.2845,28.1867],[121.3743,28.1867],[121.4089,28.3049],[121.4731,28.3306],[121.5795,28.2833],[121.6461,28.3235],[121.6077,28.4772],[121.5116,28.4895],[121.5816,28.5047],[121.5101,28.6571],[121.2584,28.6751],[121.2993,28.7229],[121.1423,28.8459],[121.3512,28.7119],[121.6214,28.7359],[121.6699,28.8253],[121.4918,28.9284],[121.5874,28.9631],[121.6842,28.9147],[121.6898,29.0171],[121.5321,29.0205],[121.6214,29.1133],[121.4017,29.1065],[121.5868,29.2933],[121.647,29.4723],[121.5696,29.4746],[121.4849,29.3905],[121.5049,29.4838],[121.4426,29.4154],[121.4434,29.5242],[121.6873,29.5626],[122.0074,29.8874],[121.7219,29.9605],[121.4054,30.3079],[121.1328,30.3079],[120.8088,30.1151],[120.6944,30.1721],[120.6463,30.1269],[120.7922,30.0661],[120.6318,30.1224],[120.7314,30.2338],[120.6216,30.3726],[120.4505,30.3689],[120.3847,30.2496],[120.2744,30.2776],[120.1471,30.1989],[120.2579,30.2981],[120.379,30.2735],[120.4791,30.4035],[120.6981,30.394],[120.7883,30.2938],[120.9981,30.5579],[121.5192,30.822],[121.9131,30.859],[121.9508,30.9821],[121.7252,31.2816],[121.3203,31.5048],[121.1444,31.6847],[120.7315,31.8139],[120.7171,31.8611],[120.8248,31.8287],[120.7504,31.9783],[120.4695,32.0251],[120.23,31.9089],[120.0064,31.9503],[119.7725,32.1268],[119.7886,32.1986],[119.6904,32.2353],[119.606,32.1969],[119.6854,32.2924],[119.6129,32.3546],[119.8421,32.2991],[119.992,32.0159],[120.1314,31.9432],[120.2671,31.9487],[120.4908,32.0825],[120.6344,32.077],[120.8108,32.0226],[120.9407,31.8503],[121.2864,31.8906],[121.8173,31.6909],[121.9095,31.7045],[121.9221,31.7544],[121.7986,31.9705],[121.4434,32.1143],[121.3608,32.2316],[121.4193,32.2503],[121.3894,32.3849],[121.1008,32.498],[120.8303,32.6977],[120.9048,32.8126],[120.8958,33.0136],[120.8259,33.0302],[120.807,33.1378],[120.7302,33.2049],[120.7503,33.2696],[120.6672,33.3251],[120.6344,33.4669],[120.4837,33.65],[120.5049,33.7356],[120.3997,33.8693],[120.2571,34.3118],[119.6477,34.5338],[119.3467,34.7808],[119.1922,34.7182],[119.1929,35.0004],[119.2212,35.064],[119.358,35.0971],[119.4239,35.3135],[119.5319,35.3586],[119.648,35.5839],[119.7325,35.6208],[119.7439,35.5759],[119.8401,35.6579],[119.8602,35.6061],[119.9046,35.6246],[119.9082,35.7449],[120.0029,35.7278],[120.0972,35.9008],[120.189,35.9453],[120.1753,35.89],[120.2941,36.0024],[120.1753,35.9936],[120.0897,36.1117],[120.0972,36.2264],[120.2845,36.176],[120.3064,36.2742],[120.3616,36.1916],[120.292,36.062],[120.3535,36.0408],[120.6669,36.1321],[120.6436,36.3225],[120.7107,36.3245],[120.7141,36.4287],[120.95,36.4592],[120.9636,36.5479],[120.8504,36.6046],[120.7503,36.5408],[120.7506,36.6168],[120.8506,36.6509],[120.9774,36.5899],[121.4017,36.7124],[121.4595,36.8287],[121.6072,36.845],[121.5032,36.7886],[121.5247,36.7543],[121.9498,36.9389],[121.9263,36.9936],[122.0492,36.9799],[122.0365,36.8993],[122.1429,36.9458],[122.1661,37.0141],[122.1627,36.9458],[122.2659,36.898],[122.1852,36.8595],[122.3552,36.8291],[122.4364,36.8707],[122.4058,36.9222],[122.5268,36.9528],[122.54,37.0277],[122.4024,37.0215],[122.4539,37.1543],[122.4707,37.1103],[122.5735,37.2601],[122.5497,37.3198],[122.5947,37.2952],[122.5708,37.3448],[122.6847,37.4102],[122.2965,37.4182],[122.2454,37.4597],[122.1832,37.4182],[122.1218,37.5627],[122.0256,37.528],[121.988,37.4256],[121.635,37.4813],[121.5874,37.4536],[121.6761,37.4392],[121.5703,37.4287],[121.3817,37.5661],[121.4298,37.5969],[121.3936,37.6225],[121.1716,37.5771],[121.138,37.7012],[121.0326,37.7104],[120.9258,37.8193],[120.738,37.834],[120.2157,37.6841],[120.3225,37.6324],[120.1876,37.5118],[119.8589,37.3602],[119.8973,37.2494],[119.7706,37.1518],[119.4412,37.1206],[119.1455,37.1789],[118.9724,37.2807],[118.9446,37.3781],[119.0371,37.7221],[119.1746,37.7085],[119.2164,37.794],[118.9966,37.9631],[118.9248,38.0578],[118.95,38.0973],[118.7604,38.1551],[118.543,38.0683],[118.0652,38.1431],[117.6025,38.4806],[117.5435,38.6213],[117.584,38.8116],[117.7474,39.071],[117.7154,39.1114],[118.028,39.2198],[118.2249,39.0618],[118.4054,39.0618],[118.5271,39.1492],[118.9894,39.1911],[119.2304,39.3617],[119.2814,39.575],[119.2293,39.536],[119.2086,39.5696],[119.2849,39.5954],[119.3804,39.7729],[119.5264,39.832],[119.5356,39.8908],[120.4722,40.2145],[120.5018,40.3269],[120.5888,40.3818],[120.5457,40.4024],[120.8253,40.674],[121.02,40.7192],[120.9395,40.7405],[120.9819,40.8268],[121.0684,40.8034],[121.2003,40.9307],[121.7565,40.8736],[121.8679,40.9958],[121.8259,40.9482],[121.8511,40.8323],[122.1594,40.7016],[122.1573,40.5993],[122.3019,40.5023],[122.1061,40.3101],[122.0916,40.2272],[121.9915,40.187],[121.9957,40.1239],[121.8269,40.0225],[121.8738,39.9914],[121.4811,39.8139],[121.4634,39.7435],[121.5501,39.6787],[121.5333,39.6223],[121.4639,39.6458],[121.2234,39.5286],[121.436,39.5086],[121.4976,39.385],[121.943,39.3994],[121.7798,39.3715],[121.628,39.2704],[121.5926,39.1922],[121.681,39.1364],[121.6741,39.088],[121.1399,38.9473],[121.1456,38.7389],[121.2367,38.7985],[121.485,38.8099],[121.7247,39.0302],[121.9232,39.009],[121.8884,39.0425],[122.0065,39.0618],[122.29,39.351],[122.8486,39.6179],[123.2295,39.7297],[123.252,39.8171],[123.3141,39.7761],[123.4171,39.8245],[123.4126,39.7834],[123.6085,39.836],[123.6567,39.9195],[123.6431,39.8786],[123.773,39.8183],[124.1182,39.8332],[124.2942,39.9338],[124.3702,40.0979],[124.4996,40.0225],[124.4058,40.0278],[124.3215,39.9127],[124.4177,39.8245],[124.5641,39.8143],[124.6436,39.6677],[124.7557,39.6883],[124.7461,39.7829],[125.117,39.5659],[125.2252,39.5912],[125.286,39.5212],[125.4518,39.5713],[125.3452,39.4537],[125.4592,39.3851],[125.4046,39.3647],[125.4449,39.3106],[125.4109,39.2138],[125.2874,39.1523],[125.2841,39.0896],[125.3351,39.0834],[125.2708,39.0806],[125.1986,38.9861],[125.1372,38.8035],[125.1883,38.7386],[125.241,38.7931],[125.2777,38.7033],[125.4478,38.7772],[125.6578,38.631],[125.4627,38.7073],[125.1566,38.6317],[125.1229,38.6641],[125.128,38.5803],[124.9839,38.5919],[125.0164,38.498],[124.8797,38.3452],[124.8723,38.2576],[124.993,38.227],[124.9209,38.1894],[124.856,38.227],[124.7681,38.1017],[124.8853,38.1317],[125.2649,38.0779],[125.2463,38.0201],[125.1067,38.0346],[125.1754,37.9699],[124.9795,37.9252],[125.2151,37.8913],[125.26,37.9327],[125.3084,37.8781],[125.2542,37.8346],[125.3084,37.8091],[125.3494,37.8644],[125.4449,37.8433],[125.3836,37.8918],[125.4244,37.9122],[125.5101,37.8943],[125.4791,37.8576],[125.5242,37.8178],[125.3899,37.7961],[125.4449,37.7744],[125.3638,37.7609],[125.3475,37.6756],[125.5343,37.7722],[125.6387,37.8647],[125.6306,37.9252],[125.7398,37.9252],[125.5969,38.0322],[125.7993,37.9929],[125.9216,37.8449],[125.9862,37.8228],[125.9595,37.9122],[126.0558,37.8706],[126.0628,37.8022],[126.4041,37.8846],[126.9374,38.3515],[127.0229,38.9326],[126.8541,39.1911],[126.9645,39.385],[126.7283,39.385],[126.8323,39.8376],[126.7095,40.0317],[126.4317,40.0964],[126.2693,40.3554],[126.4251,40.6144],[126.6228,40.6792],[126.7421,41.0032],[126.187,41.1328],[126.1084,41.2625],[125.4331,41.3274],[124.9955,41.1328],[124.6778,41.1328],[124.7174,41.1977],[124.4392,41.2625],[124.4789,41.3274],[124.2404,41.3274],[124.2802,41.3922],[124.0018,41.4571],[124.0417,41.522],[123.5643,41.6518],[123.6044,41.7167],[123.3654,41.7167],[123.4055,41.7816],[123.1268,41.8465],[123.167,41.9114],[121.0213,41.2625],[120.3059,41.2625],[120.3442,41.3274],[119.39,41.3274],[119.4281,41.3922],[118.7918,41.3922],[118.8298,41.4571],[118.6327,41.3922],[118.6706,41.4571],[118.4319,41.4571],[118.4699,41.522],[118.034,41.4571],[118.0719,41.522],[117.7913,41.5869],[117.7079,41.7167],[117.8226,41.9114],[117.7014,41.9764],[117.7373,42.1712],[117.3379,42.1712],[115.9924,41.7816],[114.8077,40.8088],[114.7721,40.744],[114.9744,40.6792],[114.5614,40.3554],[113.4883,40.4201],[112.7869,40.2906],[112.821,40.3554],[111.8717,40.3554],[111.9057,40.4201],[110.5604,40.4201],[109.7358,40.3554],[108.387,40.0317],[108.0544,39.8376],[107.6778,39.385],[107.4416,39.385],[107.3292,39.6436],[107.0617,39.5789],[106.0898,38.6743],[104.9625,38.6097],[104.9914,38.6743],[104.3926,38.7389],[104.2935,38.868],[103.6079,38.7389],[103.9386,39.1265],[104.6978,39.5789],[104.5704,39.6436],[104.5828,39.8376],[104.2672,39.8376],[103.3285,39.5143],[103.3383,39.4496],[103.2201,39.4496],[103.1907,39.385],[103.3481,39.385],[103.132,39.2557],[102.5445,38.9972],[102.4161,39.0618],[102.2803,38.9326],[102.0447,38.9326],[102.0731,38.9972],[101.7087,39.0618],[101.5874,39.3203],[101.2439,39.2557],[101.2103,39.7083],[100.6875,39.7729],[100.5388,39.967],[100.0945,40.0317],[100.124,40.0964],[99.3837,40.0317],[99.2842,40.1612],[99.0471,40.1612],[98.9478,40.2906],[98.2449,40.4849],[98.2249,40.6144],[98.0369,40.5496],[97.8881,40.744],[97.1843,40.9384],[97.2141,41.0032],[96.2117,41.068],[94.2197,40.8736],[94.2484,40.9384],[94.0103,40.9384],[94.0678,41.068],[93.8803,41.0032],[93.649,41.1977],[93.7069,41.3274],[93.4551,41.6518],[93.514,41.7816],[93.2838,41.9764],[93.3433,42.1063],[92.9439,42.6262],[92.4436,42.7563],[92.4738,42.8213],[90.8198,42.8864],[85.6867,42.8864],[84.1085,42.7563],[82.0557,42.2362],[80.5083,42.3662],[80.2392,42.4962],[80.1085,42.3662],[77.8749,41.522],[77.3738,41.4571],[77.3504,41.3922],[74.7506,41.0032],[73.3435,41.068],[73.0986,40.8088]],[[114.2298,22.5558],[114.183,22.5562],[114.179,22.5593],[114.2298,22.5558]],[[73.8198,39.7667],[73.8208,39.7783],[73.8295,39.747],[73.8198,39.7667]],[[73.8222,39.7962],[73.823,39.8057],[73.8287,39.8145],[73.8222,39.7962]],[[73.8286,39.4744],[73.8428,39.4856],[73.8383,39.4757],[73.8286,39.4744]],[[73.8381,39.8289],[73.8441,39.8381],[73.8807,39.865],[73.8381,39.8289]],[[73.8705,39.5468],[73.9268,39.5929],[73.9216,39.5821],[73.8705,39.5468]],[[73.9653,40.0301],[73.9664,40.0333],[73.9705,40.0363],[73.9653,40.0301]],[[76.5564,40.5657],[76.614,40.6065],[76.6094,40.5971],[76.5564,40.5657]],[[76.6217,40.6225],[76.6308,40.7289],[76.6242,40.6275],[76.6217,40.6225]],[[107.6804,21.6222],[107.7448,21.6575],[107.6903,21.6247],[107.6804,21.6222]],[[107.7986,21.6497],[107.8116,21.6478],[107.8324,21.6394],[107.7986,21.6497]],[[114.1487,22.5381],[114.162,22.5605],[114.1695,22.56],[114.1487,22.5381]],[[124.3806,40.1056],[124.5282,40.2141],[124.5487,40.2209],[124.3806,40.1056]]],[[[106.7656,20.8768],[106.8865,20.7961],[106.8246,20.9152],[106.7656,20.8768]]],[[[106.9099,20.8185],[106.9173,20.8113],[106.9303,20.8438],[106.9129,20.8369],[106.9099,20.8185]]],[[[107.3729,21.0596],[107.6062,21.2174],[107.5327,21.1989],[107.4553,21.2757],[107.3729,21.0596]]],[[[110.2459,20.986],[110.4322,21.0058],[110.4572,21.06],[110.2874,21.0744],[110.3352,21.0686],[110.2731,21.0611],[110.2459,20.986]]],[[[110.4177,20.6548],[110.4358,20.6385],[110.4573,20.5869],[110.4758,20.5959],[110.4714,20.6474],[110.437,20.6679],[110.4177,20.6548]]],[[[110.4177,21.1785],[110.42,21.1785],[110.4194,21.1791],[110.5587,21.1791],[110.5686,21.1915],[110.5432,21.2042],[110.4929,21.1839],[110.4634,21.1907],[110.4963,21.1952],[110.4998,21.2063],[110.4622,21.2051],[110.4177,21.1785]]],[[[110.5739,21.1791],[110.6006,21.1791],[110.617,21.1915],[110.617,21.1989],[110.594,21.2028],[110.5739,21.1791]]],[[[113.2642,22.1049],[113.3136,22.0764],[113.3648,22.1579],[113.2642,22.1049]]],[[[113.3094,22.0241],[113.3186,22.0162],[113.3689,22.0821],[113.3436,22.0685],[113.3094,22.0241]]],[[[113.3962,22.8981],[113.5946,22.7561],[113.4756,22.9007],[113.3962,22.8981]]],[[[113.4765,22.7195],[113.6418,22.6016],[113.5595,22.735],[113.4765,22.7195]]],[[[113.5058,22.9516],[113.51,22.9212],[113.545,22.88],[113.5535,22.8858],[113.5536,22.9113],[113.5292,22.9604],[113.5154,22.9692],[113.5058,22.9516]]],[[[113.5202,22.1849],[113.5247,22.1737],[113.5571,22.2025],[113.5492,22.1997],[113.5538,22.2115],[113.5365,22.2171],[113.5243,22.2126],[113.5352,22.2075],[113.5202,22.1849]]],[[[113.5322,22.1526],[113.54,22.1434],[113.5616,22.1434],[113.5741,22.1608],[113.5586,22.163],[113.5344,22.1612],[113.5322,22.1526]]],[[[113.6104,22.4133],[113.6212,22.3914],[113.6423,22.4002],[113.6424,22.4114],[113.6578,22.4238],[113.6496,22.4386],[113.6234,22.4399],[113.6118,22.4305],[113.6104,22.4133]]],[[[113.9972,22.317],[114.0189,22.2646],[114.0549,22.3363],[113.9972,22.317]]],[[[113.9975,22.265],[113.9976,22.245],[114.0073,22.2521],[113.9975,22.265]]],[[[113.9977,22.2379],[113.9978,22.2151],[114.0002,22.2161],[114.015,22.2271],[113.9977,22.2379]]],[[[114.1043,22.216],[114.1141,22.2161],[114.1108,22.1771],[114.1374,22.1788],[114.1454,22.1787],[114.1391,22.1911],[114.1546,22.2036],[114.1257,22.2052],[114.1328,22.2161],[114.1257,22.2134],[114.1067,22.2358],[114.1043,22.216]]],[[[114.1126,22.2715],[114.2561,22.2036],[114.2156,22.2856],[114.1126,22.2715]]],[[[116.9543,23.5441],[116.9953,23.5348],[117.0093,23.555],[116.9956,23.5635],[116.9543,23.5441]]],[[[117.3405,23.689],[117.3561,23.6892],[117.4185,23.758],[117.4136,23.7717],[117.3727,23.7667],[117.3767,23.7289],[117.3405,23.689]]],[[[118.07,24.4603],[118.1271,24.4312],[118.1814,24.5351],[118.0925,24.5562],[118.07,24.4603]]],[[[119.2092,26.0986],[119.2576,26.0015],[119.405,25.9779],[119.2092,26.0986]]],[[[119.2816,25.4832],[119.331,25.4647],[119.3465,25.5667],[119.2816,25.4832]]],[[[119.2835,25.4751],[119.2969,25.4229],[119.3222,25.4329],[119.2835,25.4751]]],[[[119.554,26.0956],[119.6441,26.0784],[119.5925,26.1257],[119.554,26.0956]]],[[[119.6685,25.4879],[119.7255,25.413],[119.8426,25.4716],[119.7988,25.5158],[119.8745,25.5568],[119.7078,25.615],[119.7162,25.5363],[119.7783,25.522],[119.6685,25.4879]]],[[[119.7162,32.2726],[119.8193,32.2038],[119.792,32.1218],[119.9019,32.0734],[119.8143,32.2756],[119.7162,32.2726]]],[[[119.8326,26.5505],[119.886,26.5244],[119.96,26.6113],[120.1344,26.6461],[120.1021,26.6892],[120.1428,26.7328],[120.0625,26.7723],[119.8326,26.5505]]],[[[120.7502,37.8986],[120.7546,37.8967],[120.7549,37.8996],[120.7538,37.8998],[120.7502,37.8986]]],[[[120.9419,31.8421],[120.9506,31.8252],[120.9778,31.8144],[121.0114,31.8171],[120.9419,31.8421]]],[[[121.2011,28.1867],[121.2671,28.1867],[121.2689,28.1939],[121.2564,28.2148],[121.2306,28.2197],[121.2109,28.209],[121.2041,28.1897],[121.2011,28.1867]]],[[[121.2202,31.7418],[121.4685,31.5894],[121.4544,31.6575],[121.2202,31.7418]]],[[[121.2655,39.4311],[121.2928,39.3905],[121.3643,39.4455],[121.3363,39.385],[121.4328,39.385],[121.4505,39.4503],[121.3406,39.4813],[121.2655,39.4311]]],[[[121.5735,31.529],[121.6292,31.5179],[121.6335,31.529],[121.5735,31.529]]],[[[121.5845,31.4414],[121.5968,31.4332],[121.6004,31.4425],[121.5845,31.4414]]],[[[121.6461,31.4005],[121.78,31.3252],[121.7206,31.4005],[121.6461,31.4005]]],[[[121.6562,29.5038],[121.7273,29.5302],[121.7246,29.5385],[121.7109,29.5386],[121.6562,29.5038]]],[[[121.7116,29.2152],[121.7743,29.2539],[121.7866,29.3745],[121.8406,29.3188],[121.7903,29.2152],[121.9384,29.2152],[121.9005,29.2987],[121.971,29.4491],[121.9104,29.5246],[121.9712,29.5933],[121.9158,29.6409],[121.7484,29.5626],[121.8474,29.5242],[121.7784,29.4694],[121.7432,29.5226],[121.7116,29.2152]]],[[[121.9336,29.9213],[121.9461,29.904],[121.9741,29.8998],[121.9924,29.9083],[121.9935,29.9188],[121.9771,29.9388],[121.952,29.9467],[121.9409,29.9377],[121.9336,29.9213]]],[[[124.8696,39.5805],[124.8697,39.5789],[124.9222,39.5711],[124.9097,39.5936],[124.9267,39.6048],[124.8805,39.6125],[124.8705,39.5809],[124.8696,39.5805]]],[[[124.9002,38.4957],[124.904,38.4944],[124.9016,38.4984],[124.9002,38.4957]]],[[[125.2673,37.7115],[125.2957,37.7276],[125.3377,37.7687],[125.3288,37.7667],[125.2887,37.7526],[125.2673,37.7115]]],[[[121.9946,30.0372],[122.0191,29.9972],[122.2798,29.9865],[122.2768,30.0676],[122.1033,30.1437],[122.0321,30.143],[121.9946,30.0372]]],[[[78.9473,46.2833],[79.653,45.4313],[79.5987,45.3004],[79.8967,45.0388],[79.8426,44.908],[80.3301,45.1042],[81.4697,45.3004],[81.7951,45.3004],[81.8205,45.1696],[82.255,45.235],[82.2269,45.1696],[82.5239,45.1042],[82.7751,45.4968],[83.4132,46.0209],[84.7827,46.8743],[85.5321,47.0716],[85.9348,47.4006],[88.0908,47.9278],[88.9018,48.0597],[89.5301,47.9938],[89.6283,47.8619],[89.9589,47.8619],[89.9253,47.7959],[90.2221,47.73],[90.9593,46.7429],[90.8631,46.2177],[90.9622,46.0865],[90.5439,45.5623],[90.6752,45.4968],[90.662,45.3004],[90.8247,45.3004],[90.9243,45.1696],[91.7054,45.1042],[91.6737,45.0388],[93.5094,44.9734],[93.477,44.908],[93.7205,44.908],[93.6881,44.8426],[93.9801,44.7773],[93.9964,44.6466],[94.3691,44.5813],[94.3366,44.516],[94.4986,44.516],[94.4661,44.4507],[94.628,44.4507],[94.725,44.3201],[95.3393,44.2548],[95.2743,44.1243],[95.7254,43.733],[95.7256,43.4072],[95.9193,43.1467],[96.257,43.0165],[96.4993,42.6912],[97.653,42.7563],[97.6209,42.6912],[98.1016,42.6912],[98.0694,42.6262],[98.8703,42.6262],[98.8379,42.5612],[101.4798,42.5612],[101.4465,42.4962],[101.6866,42.4962],[101.7001,42.3662],[101.8601,42.3662],[101.8737,42.2362],[102.2401,42.1712],[102.207,42.1063],[103.1785,41.9764],[103.1453,41.9114],[103.6704,41.8465],[103.6372,41.7816],[104.4678,41.8465],[104.4473,41.6518],[104.8919,41.5869],[105.732,41.9764],[106.8631,42.3012],[107.8132,42.4312],[109.3332,42.4312],[109.9658,42.5612],[110.7118,43.8634],[110.6268,43.9938],[110.7034,44.1243],[110.6226,44.1243],[110.6995,44.2548],[110.4492,44.516],[110.5266,44.6466],[110.1074,45.1696],[110.1856,45.3004],[109.7667,45.8243],[109.8457,45.9554],[109.5519,46.4145],[109.3881,46.4145],[109.3025,46.6772],[108.8905,46.8086],[108.9712,46.9401],[108.7628,47.269],[108.5982,47.269],[108.5559,47.4665],[108.391,47.4665],[108.4317,47.6641],[108.597,47.7959],[108.5144,47.7959],[108.5975,47.9278],[108.5148,47.9278],[108.8482,48.1917],[108.7653,48.1917],[108.85,48.3238],[108.7671,48.3238],[108.8523,48.4559],[108.729,48.522],[108.8148,48.6542],[108.6119,48.8527],[108.6156,48.9851],[108.449,48.9851],[108.6294,49.3826],[108.5459,49.3826],[108.5903,49.4489],[108.3398,49.4489],[108.3453,49.5816],[108.0555,49.6479],[107.9842,49.9136],[107.8167,49.9136],[107.8235,50.0465],[107.2363,50.0465],[107.2816,50.113],[106.7463,50.3125],[106.7919,50.3791],[106.3716,50.3791],[106.4172,50.4457],[105.0324,50.5122],[104.1809,50.246],[103.257,50.246],[103.3008,50.3125],[103.1328,50.3125],[103.1767,50.3791],[102.8404,50.3791],[102.8844,50.4457],[102.7162,50.4457],[102.7602,50.5122],[102.3834,50.5789],[102.3477,50.7788],[102.2634,50.7788],[102.3526,50.9122],[102.1101,51.1792],[102.2008,51.3128],[102.077,51.3797],[102.1227,51.4465],[101.8294,51.5134],[101.8752,51.5803],[101.027,51.5803],[101.0726,51.6472],[100.9029,51.6472],[100.9485,51.7142],[100.6938,51.7142],[100.7394,51.7811],[100.0599,51.7811],[100.1053,51.8481],[99.6407,51.9151],[99.6862,51.9822],[99.3459,51.9822],[99.3914,52.0492],[99.2212,52.0492],[99.2667,52.1163],[98.8864,52.1833],[98.932,52.2505],[98.5854,52.1163],[94.7081,51.6472],[93.2717,51.246],[92.7713,50.9789],[91.8924,50.7788],[91.3151,50.5122],[91.0627,50.5122],[90.7797,50.3125],[90.1162,50.1795],[89.8368,49.98],[89.5853,49.98],[89.5119,49.8471],[89.6065,49.7143],[88.7459,49.5152],[88.2445,49.5152],[87.819,49.1838],[87.6523,49.1838],[87.6667,49.0513],[86.9145,48.7204],[86.8476,48.5881],[86.5487,48.6542],[86.3993,48.522],[85.7855,48.4559],[85.3244,48.1917],[82.1213,47.5323],[79.7724,46.8743],[79.3077,46.9401],[79.2496,46.6115],[79.0856,46.6115],[78.9473,46.2833]],[[88.1155,49.3566],[88.1617,49.4301],[88.1682,49.4342],[88.1155,49.3566]],[[88.5588,48.2881],[88.5808,48.212],[88.5612,48.2683],[88.5588,48.2881]],[[88.5808,48.212],[88.6358,48.1758],[88.5962,48.1977],[88.5808,48.212]],[[88.8587,49.5274],[88.8682,49.5381],[88.8799,49.5375],[88.8587,49.5274]],[[98.8401,52.0328],[98.8556,52.1067],[98.8465,52.0393],[98.8401,52.0328]]]]}}]}
