{"type":"FeatureCollection","features":[{"type":"Feature","properties":{"relationId":"cliopatria-relation-723ea7f2bcd1","name":"(Allegiance of Duchy of Aquitaine to Kingdom of France)","name_ko":"아키텐 공국–프랑스 왕국 충성·복속 관계","relationKind":"allegiance","relation_kind_ko":"충성·복속 관계","actor_ids":"cliopatria-q7703611-2212ce4967;cliopatria-q70972-7b35f2920f","actor_names_ko":"아키텐 공국;프랑스 왕국","color":"#e7b763","startYear":990,"endYear":1002,"source_name":"Cliopatria v0.2.0","source_url":"https://github.com/Seshat-Global-History-Databank/cliopatria","license":"CC BY 4.0","attribution":"Seshat Global History Databank, Cliopatria contributors"},"geometry":{"type":"MultiPolygon","coordinates":[[[[-4.7849,48.4362],[-4.7684,48.3454],[-4.7045,48.3416],[-4.2899,48.4316],[-4.4537,48.3354],[-4.2694,48.3627],[-4.3247,48.3217],[-4.1875,48.3075],[-4.5155,48.2958],[-4.5467,48.3468],[-4.6163,48.2877],[-4.5472,48.2526],[-4.5575,48.1772],[-4.4855,48.2426],[-4.3793,48.2324],[-4.3024,48.1964],[-4.2854,48.1154],[-4.7002,48.0746],[-4.4346,47.9757],[-4.3473,47.8629],[-4.3718,47.8072],[-4.1654,47.8308],[-4.1856,47.8744],[-4.1112,47.8693],[-4.1322,47.9239],[-4.0367,47.855],[-3.9618,47.9],[-3.8517,47.801],[-3.5283,47.7799],[-3.4822,47.73],[-3.2826,47.7873],[-3.3465,47.73],[-3.2242,47.6564],[-3.1591,47.711],[-3.1932,47.7464],[-3.118,47.7321],[-3.2006,47.6396],[-3.1412,47.598],[-3.1317,47.4782],[-3.1233,47.5988],[-2.9399,47.5608],[-2.9747,47.6638],[-2.9194,47.5955],[-2.7891,47.6427],[-2.7086,47.6023],[-2.7065,47.6427],[-2.7202,47.5608],[-2.8096,47.5676],[-2.8292,47.5052],[-2.5768,47.5539],[-2.632,47.5198],[-2.3639,47.5062],[-2.4947,47.4912],[-2.3918,47.4237],[-2.5564,47.3832],[-2.4362,47.307],[-2.542,47.3001],[-2.23,47.2645],[-2.0101,47.3197],[-1.727,47.2108],[-2.0146,47.3001],[-2.1606,47.2712],[-2.1596,47.1236],[-1.9907,47.0354],[-2.1288,46.8935],[-2.1188,46.82],[-1.9099,46.6918],[-1.7954,46.4945],[-1.7892,46.5329],[-1.2401,46.2842],[-1.1107,46.3027],[-1.2108,46.1745],[-1.0487,46.0388],[-1.1107,46.0184],[-1.0734,45.9044],[-1.1517,45.8681],[-0.9872,45.7174],[-1.1443,45.8061],[-1.2131,45.7588],[-0.7955,45.4771],[-0.656,45.0991],[-0.4938,44.998],[-0.5962,45.0246],[-0.5347,44.895],[-0.716,45.1345],[-0.7662,45.3261],[-0.9153,45.4504],[-1.0317,45.5035],[-1.1434,45.4504],[-1.2201,44.7226],[-1.1722,44.7783],[-1.0447,44.6694],[-1.2063,44.6479],[-1.3355,44.0655],[-1.3214,43.8634],[-1.3925,43.8634],[-1.4599,43.5375],[-1.6914,43.3961],[-1.6876,43.3421],[-0.9639,43.3421],[-0.8579,42.9515],[-0.124,42.7563],[0.601,42.6912],[0.6738,42.8213],[0.9945,42.8213],[1.8923,42.4962],[2.1231,42.6912],[2.1201,42.7563],[2.9905,43.0165],[3.14,43.2769],[3.6171,43.4072],[3.8509,43.6027],[4.173,43.6027],[4.2583,43.4723],[4.3388,43.4723],[4.41,43.733],[4.5712,43.733],[4.7257,43.9286],[4.4766,44.1243],[4.4695,44.3201],[4.0575,44.516],[3.9609,44.908],[4.1232,44.908],[4.3592,45.1042],[4.3517,45.3004],[3.9423,45.3659],[4.013,45.6278],[3.9315,45.6278],[3.9178,45.9554],[4.0784,46.0209],[3.9829,46.3489],[4.1467,46.3489],[4.1439,46.4145],[4.2258,46.4145],[4.2312,46.2833],[4.4844,46.0865],[4.8835,46.3489],[5.033,46.7429],[5.2769,46.8086],[5.4367,46.9401],[5.4322,47.0716],[5.5945,47.1374],[5.5769,47.6641],[5.6594,47.6641],[5.6572,47.73],[5.8224,47.73],[5.8181,47.8619],[5.6462,48.0597],[5.4807,48.0597],[5.4738,48.2578],[5.3057,48.3238],[5.3033,48.3899],[4.8834,48.522],[4.8653,48.9851],[5.0267,49.1175],[4.6798,49.4489],[4.5768,49.9136],[3.9872,49.98],[3.9841,50.0465],[3.8163,50.0465],[3.726,50.1795],[3.6421,50.1795],[3.6323,50.3791],[3.5482,50.3791],[3.5383,50.5789],[4.0342,50.7788],[4.2631,51.3128],[3.5046,51.246],[3.4347,51.3936],[3.1248,51.3297],[2.5218,51.0875],[1.9214,50.9968],[1.5806,50.8688],[1.6104,50.5482],[1.5552,50.4048],[1.6104,50.3707],[1.5415,50.2779],[1.6725,50.1925],[1.521,50.2147],[1.2212,49.979],[0.5967,49.8572],[0.2359,49.7293],[0.0766,49.535],[0.2568,49.4641],[0.4932,49.4936],[0.4113,49.4521],[-0.2195,49.2801],[-0.9404,49.3923],[-1.0723,49.3968],[-1.1229,49.3454],[-1.2508,49.4489],[-1.336,49.7035],[-1.6067,49.6501],[-1.9352,49.7241],[-1.9456,49.678],[-1.8395,49.6198],[-1.8847,49.5309],[-1.8165,49.3837],[-1.6991,49.3559],[-1.6247,49.2193],[-1.5484,49.2255],[-1.6104,49.2159],[-1.5936,49.029],[-1.508,49.0337],[-1.6029,48.8494],[-1.5536,48.7471],[-1.3566,48.6433],[-1.796,48.6159],[-1.9867,48.6819],[-2.0287,48.6433],[-1.953,48.575],[-1.9803,48.5136],[-2.0524,48.6501],[-2.2137,48.5819],[-2.251,48.6501],[-2.3303,48.6296],[-2.282,48.6706],[-2.3161,48.6986],[-2.4875,48.6501],[-2.6824,48.509],[-2.9586,48.7697],[-3.0424,48.7879],[-3.0199,48.8256],[-3.1255,48.76],[-3.0915,48.8713],[-3.2205,48.7941],[-3.2297,48.8723],[-3.3976,48.8073],[-3.5153,48.8419],[-3.5815,48.7906],[-3.5283,48.7395],[-3.5848,48.6828],[-3.8101,48.7332],[-3.8517,48.6296],[-3.892,48.678],[-3.9547,48.6575],[-3.9699,48.7204],[-4.1938,48.6501],[-4.3433,48.6789],[-4.5636,48.6296],[-4.5301,48.6017],[-4.6077,48.603],[-4.5773,48.5682],[-4.722,48.5682],[-4.7849,48.4362]],[[1.6636,50.49],[1.7785,50.4457],[1.6944,50.4457],[1.6636,50.49]],[[3.8087,51.2053],[3.9378,51.2103],[3.927,51.2063],[3.8087,51.2053]]],[[[-2.2105,47.0058],[-2.2074,46.9679],[-2.1948,46.9619],[-2.1591,46.9165],[-2.1426,46.9099],[-2.1448,46.9575],[-2.2001,46.9854],[-2.2,47.0058],[-2.2105,47.0058]]],[[[-1.2275,45.9543],[-1.2227,45.8898],[-1.1778,45.8898],[-1.2275,45.9543]]]]}},{"type":"Feature","properties":{"relationId":"cliopatria-relation-723ea7f2bcd1","name":"(Allegiance of Duchy of Aquitaine to Kingdom of France)","name_ko":"아키텐 공국–프랑스 왕국 충성·복속 관계","relationKind":"allegiance","relation_kind_ko":"충성·복속 관계","actor_ids":"cliopatria-q7703611-2212ce4967;cliopatria-q70972-7b35f2920f","actor_names_ko":"아키텐 공국;프랑스 왕국","color":"#e7b763","startYear":1003,"endYear":1009,"source_name":"Cliopatria v0.2.0","source_url":"https://github.com/Seshat-Global-History-Databank/cliopatria","license":"CC BY 4.0","attribution":"Seshat Global History Databank, Cliopatria contributors"},"geometry":{"type":"MultiPolygon","coordinates":[[[[-4.7849,48.4362],[-4.7684,48.3454],[-4.7045,48.3416],[-4.2899,48.4316],[-4.4537,48.3354],[-4.2694,48.3627],[-4.3247,48.3217],[-4.1875,48.3075],[-4.5155,48.2958],[-4.5467,48.3468],[-4.6163,48.2877],[-4.5472,48.2526],[-4.5575,48.1772],[-4.4855,48.2426],[-4.3793,48.2324],[-4.3024,48.1964],[-4.2854,48.1154],[-4.7002,48.0746],[-4.4346,47.9757],[-4.3473,47.8629],[-4.3718,47.8072],[-4.1654,47.8308],[-4.1856,47.8744],[-4.1112,47.8693],[-4.1322,47.9239],[-4.0367,47.855],[-3.9618,47.9],[-3.8517,47.801],[-3.5283,47.7799],[-3.4822,47.73],[-3.2826,47.7873],[-3.3465,47.73],[-3.2242,47.6564],[-3.1591,47.711],[-3.1932,47.7464],[-3.118,47.7321],[-3.2006,47.6396],[-3.1412,47.598],[-3.1317,47.4782],[-3.1233,47.5988],[-2.9399,47.5608],[-2.9747,47.6638],[-2.9194,47.5955],[-2.7891,47.6427],[-2.7086,47.6023],[-2.7065,47.6427],[-2.7202,47.5608],[-2.8096,47.5676],[-2.8292,47.5052],[-2.5768,47.5539],[-2.632,47.5198],[-2.3639,47.5062],[-2.4947,47.4912],[-2.3918,47.4237],[-2.5564,47.3832],[-2.4362,47.307],[-2.542,47.3001],[-2.23,47.2645],[-2.0101,47.3197],[-1.727,47.2108],[-2.0146,47.3001],[-2.1606,47.2712],[-2.1596,47.1236],[-1.9907,47.0354],[-2.1288,46.8935],[-2.1188,46.82],[-1.9099,46.6918],[-1.7954,46.4945],[-1.7892,46.5329],[-1.2401,46.2842],[-1.1107,46.3027],[-1.2108,46.1745],[-1.0487,46.0388],[-1.1107,46.0184],[-1.0734,45.9044],[-1.1517,45.8681],[-0.9872,45.7174],[-1.1443,45.8061],[-1.2131,45.7588],[-0.7955,45.4771],[-0.656,45.0991],[-0.4938,44.998],[-0.5962,45.0246],[-0.5347,44.895],[-0.716,45.1345],[-0.7662,45.3261],[-0.9153,45.4504],[-1.0317,45.5035],[-1.1434,45.4504],[-1.2201,44.7226],[-1.1722,44.7783],[-1.0447,44.6694],[-1.2063,44.6479],[-1.3355,44.0655],[-1.3214,43.8634],[-1.3925,43.8634],[-1.4599,43.5375],[-1.6914,43.3961],[-1.6876,43.3421],[-0.9639,43.3421],[-0.8579,42.9515],[-0.124,42.7563],[0.601,42.6912],[0.6738,42.8213],[0.9945,42.8213],[1.8923,42.4962],[2.1231,42.6912],[2.1201,42.7563],[2.9905,43.0165],[3.14,43.2769],[3.6171,43.4072],[3.8509,43.6027],[4.173,43.6027],[4.2583,43.4723],[4.3388,43.4723],[4.41,43.733],[4.5712,43.733],[4.7257,43.9286],[4.4766,44.1243],[4.4695,44.3201],[4.0575,44.516],[3.9609,44.908],[4.1232,44.908],[4.3592,45.1042],[4.3517,45.3004],[3.9423,45.3659],[4.013,45.6278],[3.9315,45.6278],[3.9178,45.9554],[4.0784,46.0209],[3.9829,46.3489],[4.1467,46.3489],[4.1439,46.4145],[4.2258,46.4145],[4.2312,46.2833],[4.4844,46.0865],[4.8835,46.3489],[5.033,46.7429],[5.2769,46.8086],[5.4367,46.9401],[5.4322,47.0716],[5.5945,47.1374],[5.5769,47.6641],[5.6594,47.6641],[5.6572,47.73],[5.8224,47.73],[5.8181,47.8619],[5.6462,48.0597],[5.4807,48.0597],[5.4738,48.2578],[5.3057,48.3238],[5.3033,48.3899],[4.8834,48.522],[4.8653,48.9851],[5.0267,49.1175],[4.6798,49.4489],[4.5768,49.9136],[3.9872,49.98],[3.9841,50.0465],[3.8163,50.0465],[3.726,50.1795],[3.6421,50.1795],[3.6323,50.3791],[3.5482,50.3791],[3.5383,50.5789],[4.0342,50.7788],[4.2631,51.3128],[3.5046,51.246],[3.4347,51.3936],[3.1248,51.3297],[2.5218,51.0875],[1.9214,50.9968],[1.5806,50.8688],[1.6104,50.5482],[1.5552,50.4048],[1.6104,50.3707],[1.5415,50.2779],[1.6725,50.1925],[1.521,50.2147],[1.2212,49.979],[0.5967,49.8572],[0.2359,49.7293],[0.0766,49.535],[0.2568,49.4641],[0.4932,49.4936],[0.4113,49.4521],[-0.2195,49.2801],[-0.9404,49.3923],[-1.0723,49.3968],[-1.1229,49.3454],[-1.2508,49.4489],[-1.336,49.7035],[-1.6067,49.6501],[-1.9352,49.7241],[-1.9456,49.678],[-1.8395,49.6198],[-1.8847,49.5309],[-1.8165,49.3837],[-1.6991,49.3559],[-1.6247,49.2193],[-1.5484,49.2255],[-1.6104,49.2159],[-1.5936,49.029],[-1.508,49.0337],[-1.6029,48.8494],[-1.5536,48.7471],[-1.3566,48.6433],[-1.796,48.6159],[-1.9867,48.6819],[-2.0287,48.6433],[-1.953,48.575],[-1.9803,48.5136],[-2.0524,48.6501],[-2.2137,48.5819],[-2.251,48.6501],[-2.3303,48.6296],[-2.282,48.6706],[-2.3161,48.6986],[-2.4875,48.6501],[-2.6824,48.509],[-2.9586,48.7697],[-3.0424,48.7879],[-3.0199,48.8256],[-3.1255,48.76],[-3.0915,48.8713],[-3.2205,48.7941],[-3.2297,48.8723],[-3.3976,48.8073],[-3.5153,48.8419],[-3.5815,48.7906],[-3.5283,48.7395],[-3.5848,48.6828],[-3.8101,48.7332],[-3.8517,48.6296],[-3.892,48.678],[-3.9547,48.6575],[-3.9699,48.7204],[-4.1938,48.6501],[-4.3433,48.6789],[-4.5636,48.6296],[-4.5301,48.6017],[-4.6077,48.603],[-4.5773,48.5682],[-4.722,48.5682],[-4.7849,48.4362]],[[1.6636,50.49],[1.7785,50.4457],[1.6944,50.4457],[1.6636,50.49]],[[3.8087,51.2053],[3.9378,51.2103],[3.927,51.2063],[3.8087,51.2053]]],[[[-2.2105,47.0058],[-2.2074,46.9679],[-2.1948,46.9619],[-2.1591,46.9165],[-2.1426,46.9099],[-2.1448,46.9575],[-2.2001,46.9854],[-2.2,47.0058],[-2.2105,47.0058]]],[[[-1.2275,45.9543],[-1.2227,45.8898],[-1.1778,45.8898],[-1.2275,45.9543]]]]}},{"type":"Feature","properties":{"relationId":"cliopatria-relation-723ea7f2bcd1","name":"(Allegiance of Duchy of Aquitaine to Kingdom of France)","name_ko":"아키텐 공국–프랑스 왕국 충성·복속 관계","relationKind":"allegiance","relation_kind_ko":"충성·복속 관계","actor_ids":"cliopatria-q7703611-2212ce4967;cliopatria-q70972-7b35f2920f","actor_names_ko":"아키텐 공국;프랑스 왕국","color":"#e7b763","startYear":1010,"endYear":1017,"source_name":"Cliopatria v0.2.0","source_url":"https://github.com/Seshat-Global-History-Databank/cliopatria","license":"CC BY 4.0","attribution":"Seshat Global History Databank, Cliopatria contributors"},"geometry":{"type":"MultiPolygon","coordinates":[[[[-4.7849,48.4362],[-4.7684,48.3454],[-4.7045,48.3416],[-4.2899,48.4316],[-4.4537,48.3354],[-4.2694,48.3627],[-4.3247,48.3217],[-4.1875,48.3075],[-4.5155,48.2958],[-4.5467,48.3468],[-4.6163,48.2877],[-4.5472,48.2526],[-4.5575,48.1772],[-4.4855,48.2426],[-4.3793,48.2324],[-4.3024,48.1964],[-4.2854,48.1154],[-4.7002,48.0746],[-4.4346,47.9757],[-4.3473,47.8629],[-4.3718,47.8072],[-4.1654,47.8308],[-4.1856,47.8744],[-4.1112,47.8693],[-4.1322,47.9239],[-4.0367,47.855],[-3.9618,47.9],[-3.8517,47.801],[-3.5283,47.7799],[-3.4822,47.73],[-3.2826,47.7873],[-3.3465,47.73],[-3.2242,47.6564],[-3.1591,47.711],[-3.1932,47.7464],[-3.118,47.7321],[-3.2006,47.6396],[-3.1412,47.598],[-3.1317,47.4782],[-3.1233,47.5988],[-2.9399,47.5608],[-2.9747,47.6638],[-2.9194,47.5955],[-2.7891,47.6427],[-2.7086,47.6023],[-2.7065,47.6427],[-2.7202,47.5608],[-2.8096,47.5676],[-2.8292,47.5052],[-2.5768,47.5539],[-2.632,47.5198],[-2.3639,47.5062],[-2.4947,47.4912],[-2.3918,47.4237],[-2.5564,47.3832],[-2.4362,47.307],[-2.542,47.3001],[-2.23,47.2645],[-2.0101,47.3197],[-1.727,47.2108],[-2.0146,47.3001],[-2.1606,47.2712],[-2.1596,47.1236],[-1.9907,47.0354],[-2.1288,46.8935],[-2.1188,46.82],[-1.9099,46.6918],[-1.7954,46.4945],[-1.7892,46.5329],[-1.2401,46.2842],[-1.1107,46.3027],[-1.2108,46.1745],[-1.0487,46.0388],[-1.1107,46.0184],[-1.0734,45.9044],[-1.1517,45.8681],[-0.9872,45.7174],[-1.1443,45.8061],[-1.2131,45.7588],[-0.7955,45.4771],[-0.656,45.0991],[-0.4938,44.998],[-0.5962,45.0246],[-0.5347,44.895],[-0.716,45.1345],[-0.7662,45.3261],[-0.9153,45.4504],[-1.0317,45.5035],[-1.1434,45.4504],[-1.2201,44.7226],[-1.1722,44.7783],[-1.0447,44.6694],[-1.2063,44.6479],[-1.3355,44.0655],[-1.3214,43.8634],[-1.3925,43.8634],[-1.4599,43.5375],[-1.6914,43.3961],[-1.6876,43.3421],[-0.9639,43.3421],[-0.8579,42.9515],[-0.124,42.7563],[0.601,42.6912],[0.6738,42.8213],[0.9945,42.8213],[1.8923,42.4962],[2.1231,42.6912],[2.1201,42.7563],[2.9905,43.0165],[3.14,43.2769],[3.6171,43.4072],[3.8509,43.6027],[4.173,43.6027],[4.2583,43.4723],[4.3388,43.4723],[4.41,43.733],[4.5712,43.733],[4.7257,43.9286],[4.4766,44.1243],[4.4695,44.3201],[4.0575,44.516],[3.9609,44.908],[4.1232,44.908],[4.3592,45.1042],[4.3517,45.3004],[3.9423,45.3659],[4.013,45.6278],[3.9315,45.6278],[3.9178,45.9554],[4.0784,46.0209],[3.9829,46.3489],[4.2258,46.4145],[4.2312,46.2833],[4.5661,46.0865],[5.0378,46.6115],[5.0354,46.6772],[5.5945,47.1374],[5.5769,47.6641],[5.6594,47.6641],[5.6572,47.73],[5.8224,47.73],[5.8181,47.8619],[5.6462,48.0597],[5.4807,48.0597],[5.4738,48.2578],[5.3057,48.3238],[5.3033,48.3899],[4.8834,48.522],[4.8653,48.9851],[5.0267,49.1175],[4.6798,49.4489],[4.5768,49.9136],[3.9872,49.98],[3.9841,50.0465],[3.8163,50.0465],[3.8132,50.113],[3.7293,50.113],[3.5383,50.5789],[4.0342,50.7788],[4.1031,51.1124],[3.2543,51.1792],[3.1777,51.3404],[2.5218,51.0875],[1.9214,50.9968],[1.5806,50.8688],[1.6104,50.5482],[1.5552,50.4048],[1.6104,50.3707],[1.5415,50.2779],[1.6725,50.1925],[1.521,50.2147],[1.2212,49.979],[0.5967,49.8572],[0.2359,49.7293],[0.0766,49.535],[0.2568,49.4641],[0.4932,49.4936],[0.4113,49.4521],[-0.2195,49.2801],[-0.9404,49.3923],[-1.0723,49.3968],[-1.1229,49.3454],[-1.2508,49.4489],[-1.336,49.7035],[-1.6067,49.6501],[-1.9352,49.7241],[-1.9456,49.678],[-1.8395,49.6198],[-1.8847,49.5309],[-1.8165,49.3837],[-1.6991,49.3559],[-1.6247,49.2193],[-1.5484,49.2255],[-1.6104,49.2159],[-1.5936,49.029],[-1.508,49.0337],[-1.6029,48.8494],[-1.5536,48.7471],[-1.3566,48.6433],[-1.796,48.6159],[-1.9867,48.6819],[-2.0287,48.6433],[-1.953,48.575],[-1.9803,48.5136],[-2.0524,48.6501],[-2.2137,48.5819],[-2.251,48.6501],[-2.3303,48.6296],[-2.282,48.6706],[-2.3161,48.6986],[-2.4875,48.6501],[-2.6824,48.509],[-2.9586,48.7697],[-3.0424,48.7879],[-3.0199,48.8256],[-3.1255,48.76],[-3.0915,48.8713],[-3.2205,48.7941],[-3.2297,48.8723],[-3.3976,48.8073],[-3.5153,48.8419],[-3.5815,48.7906],[-3.5283,48.7395],[-3.5848,48.6828],[-3.8101,48.7332],[-3.8517,48.6296],[-3.892,48.678],[-3.9547,48.6575],[-3.9699,48.7204],[-4.1938,48.6501],[-4.3433,48.6789],[-4.5636,48.6296],[-4.5301,48.6017],[-4.6077,48.603],[-4.5773,48.5682],[-4.722,48.5682],[-4.7849,48.4362]],[[1.6636,50.49],[1.7785,50.4457],[1.6944,50.4457],[1.6636,50.49]]],[[[-2.2105,47.0058],[-2.2074,46.9679],[-2.1948,46.9619],[-2.1591,46.9165],[-2.1426,46.9099],[-2.1448,46.9575],[-2.2001,46.9854],[-2.2,47.0058],[-2.2105,47.0058]]],[[[-1.2275,45.9543],[-1.2227,45.8898],[-1.1778,45.8898],[-1.2275,45.9543]]]]}},{"type":"Feature","properties":{"relationId":"cliopatria-relation-723ea7f2bcd1","name":"(Allegiance of Duchy of Aquitaine to Kingdom of France)","name_ko":"아키텐 공국–프랑스 왕국 충성·복속 관계","relationKind":"allegiance","relation_kind_ko":"충성·복속 관계","actor_ids":"cliopatria-q7703611-2212ce4967;cliopatria-q70972-7b35f2920f","actor_names_ko":"아키텐 공국;프랑스 왕국","color":"#e7b763","startYear":1018,"endYear":1027,"source_name":"Cliopatria v0.2.0","source_url":"https://github.com/Seshat-Global-History-Databank/cliopatria","license":"CC BY 4.0","attribution":"Seshat Global History Databank, Cliopatria contributors"},"geometry":{"type":"MultiPolygon","coordinates":[[[[-4.7849,48.4362],[-4.7684,48.3454],[-4.7045,48.3416],[-4.2899,48.4316],[-4.4537,48.3354],[-4.2694,48.3627],[-4.3247,48.3217],[-4.1875,48.3075],[-4.5155,48.2958],[-4.5467,48.3468],[-4.6163,48.2877],[-4.5472,48.2526],[-4.5575,48.1772],[-4.4855,48.2426],[-4.3793,48.2324],[-4.3024,48.1964],[-4.2854,48.1154],[-4.7002,48.0746],[-4.4346,47.9757],[-4.3473,47.8629],[-4.3718,47.8072],[-4.1654,47.8308],[-4.1856,47.8744],[-4.1112,47.8693],[-4.1322,47.9239],[-4.0367,47.855],[-3.9618,47.9],[-3.8517,47.801],[-3.5283,47.7799],[-3.4822,47.73],[-3.2826,47.7873],[-3.3465,47.73],[-3.2242,47.6564],[-3.1591,47.711],[-3.1932,47.7464],[-3.118,47.7321],[-3.2006,47.6396],[-3.1412,47.598],[-3.1317,47.4782],[-3.1233,47.5988],[-2.9399,47.5608],[-2.9747,47.6638],[-2.9194,47.5955],[-2.7891,47.6427],[-2.7086,47.6023],[-2.7065,47.6427],[-2.7202,47.5608],[-2.8096,47.5676],[-2.8292,47.5052],[-2.5768,47.5539],[-2.632,47.5198],[-2.3639,47.5062],[-2.4947,47.4912],[-2.3918,47.4237],[-2.5564,47.3832],[-2.4362,47.307],[-2.542,47.3001],[-2.23,47.2645],[-2.0101,47.3197],[-1.727,47.2108],[-2.0146,47.3001],[-2.1606,47.2712],[-2.1596,47.1236],[-1.9907,47.0354],[-2.1288,46.8935],[-2.1188,46.82],[-1.9099,46.6918],[-1.7954,46.4945],[-1.7892,46.5329],[-1.2401,46.2842],[-1.1107,46.3027],[-1.2108,46.1745],[-1.0487,46.0388],[-1.1107,46.0184],[-1.0734,45.9044],[-1.1517,45.8681],[-0.9872,45.7174],[-1.1443,45.8061],[-1.2131,45.7588],[-0.7955,45.4771],[-0.656,45.0991],[-0.4938,44.998],[-0.5962,45.0246],[-0.5347,44.895],[-0.716,45.1345],[-0.7662,45.3261],[-0.9153,45.4504],[-1.0317,45.5035],[-1.1434,45.4504],[-1.2201,44.7226],[-1.1722,44.7783],[-1.0447,44.6694],[-1.2063,44.6479],[-1.3355,44.0655],[-1.3214,43.8634],[-1.3925,43.8634],[-1.4599,43.5375],[-1.6914,43.3961],[-1.6876,43.3421],[-0.9639,43.3421],[-0.8579,42.9515],[0.0401,42.6912],[0.601,42.6912],[0.6738,42.8213],[0.9945,42.8213],[1.8923,42.4962],[2.1231,42.6912],[2.1201,42.7563],[2.9905,43.0165],[3.14,43.2769],[3.6171,43.4072],[3.8509,43.6027],[4.173,43.6027],[4.2583,43.4723],[4.3388,43.4723],[4.41,43.733],[4.5712,43.733],[4.7257,43.9286],[4.4766,44.1243],[4.4695,44.3201],[4.0575,44.516],[3.9609,44.908],[4.1232,44.908],[4.3592,45.1042],[4.3517,45.3004],[3.9423,45.3659],[4.013,45.6278],[3.9315,45.6278],[3.9178,45.9554],[4.0784,46.0209],[3.9829,46.3489],[4.2258,46.4145],[4.2312,46.2833],[4.5661,46.0865],[5.0378,46.6115],[5.0354,46.6772],[5.5945,47.1374],[5.5769,47.6641],[5.6594,47.6641],[5.6572,47.73],[5.8224,47.73],[5.8181,47.8619],[5.6462,48.0597],[5.4807,48.0597],[5.4738,48.2578],[5.3057,48.3238],[5.3033,48.3899],[4.8834,48.522],[4.8653,48.9851],[5.0267,49.1175],[4.6798,49.4489],[4.5768,49.9136],[3.9872,49.98],[3.9841,50.0465],[3.8163,50.0465],[3.8132,50.113],[3.7293,50.113],[3.5383,50.5789],[4.0342,50.7788],[4.1031,51.1124],[3.2543,51.1792],[3.1777,51.3404],[2.5218,51.0875],[1.9214,50.9968],[1.5806,50.8688],[1.6104,50.5482],[1.5552,50.4048],[1.6104,50.3707],[1.5415,50.2779],[1.6725,50.1925],[1.521,50.2147],[1.2212,49.979],[0.5967,49.8572],[0.2359,49.7293],[0.0766,49.535],[0.2568,49.4641],[0.4932,49.4936],[0.4113,49.4521],[-0.2195,49.2801],[-0.9404,49.3923],[-1.0723,49.3968],[-1.1229,49.3454],[-1.2508,49.4489],[-1.336,49.7035],[-1.6067,49.6501],[-1.9352,49.7241],[-1.9456,49.678],[-1.8395,49.6198],[-1.8847,49.5309],[-1.8165,49.3837],[-1.6991,49.3559],[-1.6247,49.2193],[-1.5484,49.2255],[-1.6104,49.2159],[-1.5936,49.029],[-1.508,49.0337],[-1.6029,48.8494],[-1.5536,48.7471],[-1.3566,48.6433],[-1.796,48.6159],[-1.9867,48.6819],[-2.0287,48.6433],[-1.953,48.575],[-1.9803,48.5136],[-2.0524,48.6501],[-2.2137,48.5819],[-2.251,48.6501],[-2.3303,48.6296],[-2.282,48.6706],[-2.3161,48.6986],[-2.4875,48.6501],[-2.6824,48.509],[-2.9586,48.7697],[-3.0424,48.7879],[-3.0199,48.8256],[-3.1255,48.76],[-3.0915,48.8713],[-3.2205,48.7941],[-3.2297,48.8723],[-3.3976,48.8073],[-3.5153,48.8419],[-3.5815,48.7906],[-3.5283,48.7395],[-3.5848,48.6828],[-3.8101,48.7332],[-3.8517,48.6296],[-3.892,48.678],[-3.9547,48.6575],[-3.9699,48.7204],[-4.1938,48.6501],[-4.3433,48.6789],[-4.5636,48.6296],[-4.5301,48.6017],[-4.6077,48.603],[-4.5773,48.5682],[-4.722,48.5682],[-4.7849,48.4362]],[[1.6636,50.49],[1.7785,50.4457],[1.6944,50.4457],[1.6636,50.49]]],[[[-2.2105,47.0058],[-2.2074,46.9679],[-2.1948,46.9619],[-2.1591,46.9165],[-2.1426,46.9099],[-2.1448,46.9575],[-2.2001,46.9854],[-2.2,47.0058],[-2.2105,47.0058]]],[[[-1.2275,45.9543],[-1.2227,45.8898],[-1.1778,45.8898],[-1.2275,45.9543]]]]}},{"type":"Feature","properties":{"relationId":"cliopatria-relation-723ea7f2bcd1","name":"(Allegiance of Duchy of Aquitaine to Kingdom of France)","name_ko":"아키텐 공국–프랑스 왕국 충성·복속 관계","relationKind":"allegiance","relation_kind_ko":"충성·복속 관계","actor_ids":"cliopatria-q7703611-2212ce4967;cliopatria-q70972-7b35f2920f","actor_names_ko":"아키텐 공국;프랑스 왕국","color":"#e7b763","startYear":1028,"endYear":1033,"source_name":"Cliopatria v0.2.0","source_url":"https://github.com/Seshat-Global-History-Databank/cliopatria","license":"CC BY 4.0","attribution":"Seshat Global History Databank, Cliopatria contributors"},"geometry":{"type":"MultiPolygon","coordinates":[[[[-4.7849,48.4362],[-4.7684,48.3454],[-4.7045,48.3416],[-4.2899,48.4316],[-4.4537,48.3354],[-4.2694,48.3627],[-4.3247,48.3217],[-4.1875,48.3075],[-4.5155,48.2958],[-4.5467,48.3468],[-4.6163,48.2877],[-4.5472,48.2526],[-4.5575,48.1772],[-4.4855,48.2426],[-4.3793,48.2324],[-4.3024,48.1964],[-4.2854,48.1154],[-4.7002,48.0746],[-4.4346,47.9757],[-4.3473,47.8629],[-4.3718,47.8072],[-4.1654,47.8308],[-4.1856,47.8744],[-4.1112,47.8693],[-4.1322,47.9239],[-4.0367,47.855],[-3.9618,47.9],[-3.8517,47.801],[-3.5283,47.7799],[-3.4822,47.73],[-3.2826,47.7873],[-3.3465,47.73],[-3.2242,47.6564],[-3.1591,47.711],[-3.1932,47.7464],[-3.118,47.7321],[-3.2006,47.6396],[-3.1412,47.598],[-3.1317,47.4782],[-3.1233,47.5988],[-2.9399,47.5608],[-2.9747,47.6638],[-2.9194,47.5955],[-2.7891,47.6427],[-2.7086,47.6023],[-2.7065,47.6427],[-2.7202,47.5608],[-2.8096,47.5676],[-2.8292,47.5052],[-2.5768,47.5539],[-2.632,47.5198],[-2.3639,47.5062],[-2.4947,47.4912],[-2.3918,47.4237],[-2.5564,47.3832],[-2.4362,47.307],[-2.542,47.3001],[-2.23,47.2645],[-2.0101,47.3197],[-1.727,47.2108],[-2.0146,47.3001],[-2.1606,47.2712],[-2.1596,47.1236],[-1.9907,47.0354],[-2.1288,46.8935],[-2.1188,46.82],[-1.9099,46.6918],[-1.7954,46.4945],[-1.7892,46.5329],[-1.2401,46.2842],[-1.1107,46.3027],[-1.2108,46.1745],[-1.0487,46.0388],[-1.1107,46.0184],[-1.0734,45.9044],[-1.1517,45.8681],[-0.9872,45.7174],[-1.1443,45.8061],[-1.2131,45.7588],[-0.7955,45.4771],[-0.656,45.0991],[-0.4938,44.998],[-0.5962,45.0246],[-0.5347,44.895],[-0.716,45.1345],[-0.7662,45.3261],[-0.9153,45.4504],[-1.0317,45.5035],[-1.1434,45.4504],[-1.2201,44.7226],[-1.1722,44.7783],[-1.0447,44.6694],[-1.2063,44.6479],[-1.3355,44.0655],[-1.3214,43.8634],[-1.3925,43.8634],[-1.4599,43.5375],[-1.6914,43.3961],[-1.6876,43.3421],[-0.9639,43.3421],[-0.8579,42.9515],[0.0401,42.6912],[0.9945,42.8213],[1.4055,42.6262],[1.9692,42.5612],[1.9661,42.6262],[2.1231,42.6912],[2.1201,42.7563],[2.9905,43.0165],[3.14,43.2769],[3.6171,43.4072],[3.8509,43.6027],[4.173,43.6027],[4.2583,43.4723],[4.3388,43.4723],[4.41,43.733],[4.5712,43.733],[4.7257,43.9286],[4.4766,44.1243],[4.4695,44.3201],[4.0575,44.516],[3.9609,44.908],[4.1232,44.908],[4.3592,45.1042],[4.3517,45.3004],[3.9423,45.3659],[4.013,45.6278],[3.9315,45.6278],[3.9178,45.9554],[4.0784,46.0209],[3.9829,46.3489],[4.2258,46.4145],[4.2312,46.2833],[4.5661,46.0865],[5.0378,46.6115],[5.0354,46.6772],[5.5945,47.1374],[5.5769,47.6641],[5.6594,47.6641],[5.6572,47.73],[5.8224,47.73],[5.8181,47.8619],[5.6462,48.0597],[5.4807,48.0597],[5.4738,48.2578],[5.3057,48.3238],[5.3033,48.3899],[4.8834,48.522],[4.8653,48.9851],[5.0267,49.1175],[4.6798,49.4489],[4.5768,49.9136],[3.9872,49.98],[3.9841,50.0465],[3.8163,50.0465],[3.8132,50.113],[3.7293,50.113],[3.5383,50.5789],[4.0342,50.7788],[4.1031,51.1124],[3.2543,51.1792],[3.1777,51.3404],[2.5218,51.0875],[1.9214,50.9968],[1.5806,50.8688],[1.6104,50.5482],[1.5552,50.4048],[1.6104,50.3707],[1.5415,50.2779],[1.6725,50.1925],[1.521,50.2147],[1.2212,49.979],[0.5967,49.8572],[0.2359,49.7293],[0.0766,49.535],[0.2568,49.4641],[0.4932,49.4936],[0.4113,49.4521],[-0.2195,49.2801],[-0.9404,49.3923],[-1.0723,49.3968],[-1.1229,49.3454],[-1.2508,49.4489],[-1.336,49.7035],[-1.6067,49.6501],[-1.9352,49.7241],[-1.9456,49.678],[-1.8395,49.6198],[-1.8847,49.5309],[-1.8165,49.3837],[-1.6991,49.3559],[-1.6247,49.2193],[-1.5484,49.2255],[-1.6104,49.2159],[-1.5936,49.029],[-1.508,49.0337],[-1.6029,48.8494],[-1.5536,48.7471],[-1.3566,48.6433],[-1.796,48.6159],[-1.9867,48.6819],[-2.0287,48.6433],[-1.953,48.575],[-1.9803,48.5136],[-2.0524,48.6501],[-2.2137,48.5819],[-2.251,48.6501],[-2.3303,48.6296],[-2.282,48.6706],[-2.3161,48.6986],[-2.4875,48.6501],[-2.6824,48.509],[-2.9586,48.7697],[-3.0424,48.7879],[-3.0199,48.8256],[-3.1255,48.76],[-3.0915,48.8713],[-3.2205,48.7941],[-3.2297,48.8723],[-3.3976,48.8073],[-3.5153,48.8419],[-3.5815,48.7906],[-3.5283,48.7395],[-3.5848,48.6828],[-3.8101,48.7332],[-3.8517,48.6296],[-3.892,48.678],[-3.9547,48.6575],[-3.9699,48.7204],[-4.1938,48.6501],[-4.3433,48.6789],[-4.5636,48.6296],[-4.5301,48.6017],[-4.6077,48.603],[-4.5773,48.5682],[-4.722,48.5682],[-4.7849,48.4362]],[[1.6636,50.49],[1.7785,50.4457],[1.6944,50.4457],[1.6636,50.49]]],[[[-2.2105,47.0058],[-2.2074,46.9679],[-2.1948,46.9619],[-2.1591,46.9165],[-2.1426,46.9099],[-2.1448,46.9575],[-2.2001,46.9854],[-2.2,47.0058],[-2.2105,47.0058]]],[[[-1.2275,45.9543],[-1.2227,45.8898],[-1.1778,45.8898],[-1.2275,45.9543]]]]}},{"type":"Feature","properties":{"relationId":"cliopatria-relation-723ea7f2bcd1","name":"(Allegiance of Duchy of Aquitaine to Kingdom of France)","name_ko":"아키텐 공국–프랑스 왕국 충성·복속 관계","relationKind":"allegiance","relation_kind_ko":"충성·복속 관계","actor_ids":"cliopatria-q7703611-2212ce4967;cliopatria-q70972-7b35f2920f","actor_names_ko":"아키텐 공국;프랑스 왕국","color":"#e7b763","startYear":1034,"endYear":1039,"source_name":"Cliopatria v0.2.0","source_url":"https://github.com/Seshat-Global-History-Databank/cliopatria","license":"CC BY 4.0","attribution":"Seshat Global History Databank, Cliopatria contributors"},"geometry":{"type":"MultiPolygon","coordinates":[[[[-4.7849,48.4362],[-4.7684,48.3454],[-4.7045,48.3416],[-4.2899,48.4316],[-4.4537,48.3354],[-4.2694,48.3627],[-4.3247,48.3217],[-4.1875,48.3075],[-4.5155,48.2958],[-4.5467,48.3468],[-4.6163,48.2877],[-4.5472,48.2526],[-4.5575,48.1772],[-4.4855,48.2426],[-4.3793,48.2324],[-4.3024,48.1964],[-4.2854,48.1154],[-4.7002,48.0746],[-4.4346,47.9757],[-4.3473,47.8629],[-4.3718,47.8072],[-4.1654,47.8308],[-4.1856,47.8744],[-4.1112,47.8693],[-4.1322,47.9239],[-4.0367,47.855],[-3.9618,47.9],[-3.8517,47.801],[-3.5283,47.7799],[-3.4822,47.73],[-3.2826,47.7873],[-3.3465,47.73],[-3.2242,47.6564],[-3.1591,47.711],[-3.1932,47.7464],[-3.118,47.7321],[-3.2006,47.6396],[-3.1412,47.598],[-3.1317,47.4782],[-3.1233,47.5988],[-2.9399,47.5608],[-2.9747,47.6638],[-2.9194,47.5955],[-2.7891,47.6427],[-2.7086,47.6023],[-2.7065,47.6427],[-2.7202,47.5608],[-2.8096,47.5676],[-2.8292,47.5052],[-2.5768,47.5539],[-2.632,47.5198],[-2.3639,47.5062],[-2.4947,47.4912],[-2.3918,47.4237],[-2.5564,47.3832],[-2.4362,47.307],[-2.542,47.3001],[-2.23,47.2645],[-2.0101,47.3197],[-1.727,47.2108],[-2.0146,47.3001],[-2.1606,47.2712],[-2.1596,47.1236],[-1.9907,47.0354],[-2.1288,46.8935],[-2.1188,46.82],[-1.9099,46.6918],[-1.7954,46.4945],[-1.7892,46.5329],[-1.2401,46.2842],[-1.1107,46.3027],[-1.2108,46.1745],[-1.0487,46.0388],[-1.1107,46.0184],[-1.0734,45.9044],[-1.1517,45.8681],[-0.9872,45.7174],[-1.1443,45.8061],[-1.2131,45.7588],[-0.7955,45.4771],[-0.656,45.0991],[-0.4938,44.998],[-0.5962,45.0246],[-0.5347,44.895],[-0.716,45.1345],[-0.7662,45.3261],[-0.9153,45.4504],[-1.0317,45.5035],[-1.1434,45.4504],[-1.2201,44.7226],[-1.1722,44.7783],[-1.0447,44.6694],[-1.2063,44.6479],[-1.3355,44.0655],[-1.3214,43.8634],[-1.3925,43.8634],[-1.4599,43.5375],[-1.6914,43.3961],[-1.6876,43.3421],[-0.9639,43.3421],[-0.8579,42.9515],[0.0401,42.6912],[0.9945,42.8213],[1.4055,42.6262],[1.9692,42.5612],[1.9661,42.6262],[2.1231,42.6912],[2.1201,42.7563],[2.9905,43.0165],[3.14,43.2769],[3.6171,43.4072],[3.8509,43.6027],[4.173,43.6027],[4.2583,43.4723],[4.3388,43.4723],[4.41,43.733],[4.5712,43.733],[4.7257,43.9286],[4.4766,44.1243],[4.4695,44.3201],[4.0575,44.516],[3.9609,44.908],[4.1232,44.908],[4.3592,45.1042],[4.3517,45.3004],[3.9423,45.3659],[4.013,45.6278],[3.9315,45.6278],[3.9178,45.9554],[4.0784,46.0209],[3.9829,46.3489],[4.2258,46.4145],[4.2312,46.2833],[4.4844,46.0865],[4.8835,46.3489],[5.033,46.7429],[5.2769,46.8086],[5.4367,46.9401],[5.4322,47.0716],[5.5945,47.1374],[5.5769,47.6641],[5.8224,47.73],[5.8181,47.8619],[5.6462,48.0597],[5.4807,48.0597],[5.4738,48.2578],[5.2179,48.4559],[4.8834,48.522],[4.8653,48.9851],[5.0267,49.1175],[4.6798,49.4489],[4.5768,49.9136],[3.7293,50.113],[3.5383,50.5789],[4.0342,50.7788],[4.1031,51.1124],[3.2543,51.1792],[3.1777,51.3404],[2.5218,51.0875],[1.9214,50.9968],[1.5806,50.8688],[1.6104,50.5482],[1.5552,50.4048],[1.6104,50.3707],[1.5415,50.2779],[1.6725,50.1925],[1.521,50.2147],[1.2212,49.979],[0.5967,49.8572],[0.2359,49.7293],[0.0766,49.535],[0.2568,49.4641],[0.4932,49.4936],[0.4113,49.4521],[-0.2195,49.2801],[-0.9404,49.3923],[-1.0723,49.3968],[-1.1229,49.3454],[-1.2508,49.4489],[-1.336,49.7035],[-1.6067,49.6501],[-1.9352,49.7241],[-1.9456,49.678],[-1.8395,49.6198],[-1.8847,49.5309],[-1.8165,49.3837],[-1.6991,49.3559],[-1.6247,49.2193],[-1.5484,49.2255],[-1.6104,49.2159],[-1.5936,49.029],[-1.508,49.0337],[-1.6029,48.8494],[-1.5536,48.7471],[-1.3566,48.6433],[-1.796,48.6159],[-1.9867,48.6819],[-2.0287,48.6433],[-1.953,48.575],[-1.9803,48.5136],[-2.0524,48.6501],[-2.2137,48.5819],[-2.251,48.6501],[-2.3303,48.6296],[-2.282,48.6706],[-2.3161,48.6986],[-2.4875,48.6501],[-2.6824,48.509],[-2.9586,48.7697],[-3.0424,48.7879],[-3.0199,48.8256],[-3.1255,48.76],[-3.0915,48.8713],[-3.2205,48.7941],[-3.2297,48.8723],[-3.3976,48.8073],[-3.5153,48.8419],[-3.5815,48.7906],[-3.5283,48.7395],[-3.5848,48.6828],[-3.8101,48.7332],[-3.8517,48.6296],[-3.892,48.678],[-3.9547,48.6575],[-3.9699,48.7204],[-4.1938,48.6501],[-4.3433,48.6789],[-4.5636,48.6296],[-4.5301,48.6017],[-4.6077,48.603],[-4.5773,48.5682],[-4.722,48.5682],[-4.7849,48.4362]],[[1.6636,50.49],[1.7785,50.4457],[1.6944,50.4457],[1.6636,50.49]]],[[[-2.2105,47.0058],[-2.2074,46.9679],[-2.1948,46.9619],[-2.1591,46.9165],[-2.1426,46.9099],[-2.1448,46.9575],[-2.2001,46.9854],[-2.2,47.0058],[-2.2105,47.0058]]],[[[-1.2275,45.9543],[-1.2227,45.8898],[-1.1778,45.8898],[-1.2275,45.9543]]]]}},{"type":"Feature","properties":{"relationId":"cliopatria-relation-723ea7f2bcd1","name":"(Allegiance of Duchy of Aquitaine to Kingdom of France)","name_ko":"아키텐 공국–프랑스 왕국 충성·복속 관계","relationKind":"allegiance","relation_kind_ko":"충성·복속 관계","actor_ids":"cliopatria-q7703611-2212ce4967;cliopatria-q70972-7b35f2920f","actor_names_ko":"아키텐 공국;프랑스 왕국","color":"#e7b763","startYear":1040,"endYear":1045,"source_name":"Cliopatria v0.2.0","source_url":"https://github.com/Seshat-Global-History-Databank/cliopatria","license":"CC BY 4.0","attribution":"Seshat Global History Databank, Cliopatria contributors"},"geometry":{"type":"MultiPolygon","coordinates":[[[[-4.7849,48.4362],[-4.7684,48.3454],[-4.7045,48.3416],[-4.2899,48.4316],[-4.4537,48.3354],[-4.2694,48.3627],[-4.3247,48.3217],[-4.1875,48.3075],[-4.5155,48.2958],[-4.5467,48.3468],[-4.6163,48.2877],[-4.5472,48.2526],[-4.5575,48.1772],[-4.4855,48.2426],[-4.3793,48.2324],[-4.3024,48.1964],[-4.2854,48.1154],[-4.7002,48.0746],[-4.4346,47.9757],[-4.3473,47.8629],[-4.3718,47.8072],[-4.1654,47.8308],[-4.1856,47.8744],[-4.1112,47.8693],[-4.1322,47.9239],[-4.0367,47.855],[-3.9618,47.9],[-3.8517,47.801],[-3.5283,47.7799],[-3.4822,47.73],[-3.2826,47.7873],[-3.3465,47.73],[-3.2242,47.6564],[-3.1591,47.711],[-3.1932,47.7464],[-3.118,47.7321],[-3.2006,47.6396],[-3.1412,47.598],[-3.1317,47.4782],[-3.1233,47.5988],[-2.9399,47.5608],[-2.9747,47.6638],[-2.9194,47.5955],[-2.7891,47.6427],[-2.7086,47.6023],[-2.7065,47.6427],[-2.7202,47.5608],[-2.8096,47.5676],[-2.8292,47.5052],[-2.5768,47.5539],[-2.632,47.5198],[-2.3639,47.5062],[-2.4947,47.4912],[-2.3918,47.4237],[-2.5564,47.3832],[-2.4362,47.307],[-2.542,47.3001],[-2.23,47.2645],[-2.0101,47.3197],[-1.727,47.2108],[-2.0146,47.3001],[-2.1606,47.2712],[-2.1596,47.1236],[-1.9907,47.0354],[-2.1288,46.8935],[-2.1188,46.82],[-1.9099,46.6918],[-1.7954,46.4945],[-1.7892,46.5329],[-1.2401,46.2842],[-1.1107,46.3027],[-1.2108,46.1745],[-1.0487,46.0388],[-1.1107,46.0184],[-1.0734,45.9044],[-1.1517,45.8681],[-0.9872,45.7174],[-1.1443,45.8061],[-1.2131,45.7588],[-0.7955,45.4771],[-0.656,45.0991],[-0.4938,44.998],[-0.5962,45.0246],[-0.5347,44.895],[-0.716,45.1345],[-0.7662,45.3261],[-0.9153,45.4504],[-1.0317,45.5035],[-1.1434,45.4504],[-1.2201,44.7226],[-1.1722,44.7783],[-1.0447,44.6694],[-1.2063,44.6479],[-1.3355,44.0655],[-1.3214,43.8634],[-1.3925,43.8634],[-1.4599,43.5375],[-1.6914,43.3961],[-1.6876,43.3421],[-0.9639,43.3421],[-0.8579,42.9515],[-0.4486,42.8213],[0.601,42.6912],[0.6738,42.8213],[0.9945,42.8213],[1.8923,42.4962],[2.1231,42.6912],[2.1201,42.7563],[2.9905,43.0165],[3.14,43.2769],[3.6171,43.4072],[3.8509,43.6027],[4.173,43.6027],[4.2583,43.4723],[4.3388,43.4723],[4.41,43.733],[4.7279,43.8634],[4.4695,44.3201],[4.0575,44.516],[3.9609,44.908],[4.1232,44.908],[4.3592,45.1042],[4.3517,45.3004],[3.9423,45.3659],[4.013,45.6278],[3.9315,45.6278],[3.9178,45.9554],[4.0784,46.0209],[3.9829,46.3489],[4.2258,46.4145],[4.2312,46.2833],[4.5661,46.0865],[5.0378,46.6115],[5.0354,46.6772],[5.5945,47.1374],[5.5769,47.6641],[5.8224,47.73],[5.8181,47.8619],[5.6462,48.0597],[5.4807,48.0597],[5.4738,48.2578],[5.3057,48.3238],[5.3033,48.3899],[4.8834,48.522],[4.8653,48.9851],[5.0267,49.1175],[4.6798,49.4489],[4.5768,49.9136],[3.9872,49.98],[3.9841,50.0465],[3.8163,50.0465],[3.8132,50.113],[3.7293,50.113],[3.5383,50.5789],[4.0342,50.7788],[4.1031,51.1124],[3.2543,51.1792],[3.1777,51.3404],[2.5218,51.0875],[1.9214,50.9968],[1.5806,50.8688],[1.6104,50.5482],[1.5552,50.4048],[1.6104,50.3707],[1.5415,50.2779],[1.6725,50.1925],[1.521,50.2147],[1.2212,49.979],[0.5967,49.8572],[0.2359,49.7293],[0.0766,49.535],[0.2568,49.4641],[0.4932,49.4936],[0.4113,49.4521],[-0.2195,49.2801],[-0.9404,49.3923],[-1.0723,49.3968],[-1.1229,49.3454],[-1.2508,49.4489],[-1.336,49.7035],[-1.6067,49.6501],[-1.9352,49.7241],[-1.9456,49.678],[-1.8395,49.6198],[-1.8847,49.5309],[-1.8165,49.3837],[-1.6991,49.3559],[-1.6247,49.2193],[-1.5484,49.2255],[-1.6104,49.2159],[-1.5936,49.029],[-1.508,49.0337],[-1.6029,48.8494],[-1.5536,48.7471],[-1.3566,48.6433],[-1.796,48.6159],[-1.9867,48.6819],[-2.0287,48.6433],[-1.953,48.575],[-1.9803,48.5136],[-2.0524,48.6501],[-2.2137,48.5819],[-2.251,48.6501],[-2.3303,48.6296],[-2.282,48.6706],[-2.3161,48.6986],[-2.4875,48.6501],[-2.6824,48.509],[-2.9586,48.7697],[-3.0424,48.7879],[-3.0199,48.8256],[-3.1255,48.76],[-3.0915,48.8713],[-3.2205,48.7941],[-3.2297,48.8723],[-3.3976,48.8073],[-3.5153,48.8419],[-3.5815,48.7906],[-3.5283,48.7395],[-3.5848,48.6828],[-3.8101,48.7332],[-3.8517,48.6296],[-3.892,48.678],[-3.9547,48.6575],[-3.9699,48.7204],[-4.1938,48.6501],[-4.3433,48.6789],[-4.5636,48.6296],[-4.5301,48.6017],[-4.6077,48.603],[-4.5773,48.5682],[-4.722,48.5682],[-4.7849,48.4362]],[[1.6636,50.49],[1.7785,50.4457],[1.6944,50.4457],[1.6636,50.49]]],[[[-2.2105,47.0058],[-2.2074,46.9679],[-2.1948,46.9619],[-2.1591,46.9165],[-2.1426,46.9099],[-2.1448,46.9575],[-2.2001,46.9854],[-2.2,47.0058],[-2.2105,47.0058]]],[[[-1.2275,45.9543],[-1.2227,45.8898],[-1.1778,45.8898],[-1.2275,45.9543]]]]}},{"type":"Feature","properties":{"relationId":"cliopatria-relation-723ea7f2bcd1","name":"(Allegiance of Duchy of Aquitaine to Kingdom of France)","name_ko":"아키텐 공국–프랑스 왕국 충성·복속 관계","relationKind":"allegiance","relation_kind_ko":"충성·복속 관계","actor_ids":"cliopatria-q7703611-2212ce4967;cliopatria-q70972-7b35f2920f","actor_names_ko":"아키텐 공국;프랑스 왕국","color":"#e7b763","startYear":1046,"endYear":1055,"source_name":"Cliopatria v0.2.0","source_url":"https://github.com/Seshat-Global-History-Databank/cliopatria","license":"CC BY 4.0","attribution":"Seshat Global History Databank, Cliopatria contributors"},"geometry":{"type":"MultiPolygon","coordinates":[[[[-4.7849,48.4362],[-4.7684,48.3454],[-4.7045,48.3416],[-4.2899,48.4316],[-4.4537,48.3354],[-4.2694,48.3627],[-4.3247,48.3217],[-4.1875,48.3075],[-4.5155,48.2958],[-4.5467,48.3468],[-4.6163,48.2877],[-4.5472,48.2526],[-4.5575,48.1772],[-4.4855,48.2426],[-4.3793,48.2324],[-4.3024,48.1964],[-4.2854,48.1154],[-4.7002,48.0746],[-4.4346,47.9757],[-4.3473,47.8629],[-4.3718,47.8072],[-4.1654,47.8308],[-4.1856,47.8744],[-4.1112,47.8693],[-4.1322,47.9239],[-4.0367,47.855],[-3.9618,47.9],[-3.8517,47.801],[-3.5283,47.7799],[-3.4822,47.73],[-3.2826,47.7873],[-3.3465,47.73],[-3.2242,47.6564],[-3.1591,47.711],[-3.1932,47.7464],[-3.118,47.7321],[-3.2006,47.6396],[-3.1412,47.598],[-3.1317,47.4782],[-3.1233,47.5988],[-2.9399,47.5608],[-2.9747,47.6638],[-2.9194,47.5955],[-2.7891,47.6427],[-2.7086,47.6023],[-2.7065,47.6427],[-2.7202,47.5608],[-2.8096,47.5676],[-2.8292,47.5052],[-2.5768,47.5539],[-2.632,47.5198],[-2.3639,47.5062],[-2.4947,47.4912],[-2.3918,47.4237],[-2.5564,47.3832],[-2.4362,47.307],[-2.542,47.3001],[-2.23,47.2645],[-2.0101,47.3197],[-1.727,47.2108],[-2.0146,47.3001],[-2.1606,47.2712],[-2.1596,47.1236],[-1.9907,47.0354],[-2.1288,46.8935],[-2.1188,46.82],[-1.9099,46.6918],[-1.7954,46.4945],[-1.7892,46.5329],[-1.2401,46.2842],[-1.1107,46.3027],[-1.2108,46.1745],[-1.0487,46.0388],[-1.1107,46.0184],[-1.0734,45.9044],[-1.1517,45.8681],[-0.9872,45.7174],[-1.1443,45.8061],[-1.2131,45.7588],[-0.7955,45.4771],[-0.656,45.0991],[-0.4938,44.998],[-0.5962,45.0246],[-0.5347,44.895],[-0.716,45.1345],[-0.7662,45.3261],[-0.9153,45.4504],[-1.0317,45.5035],[-1.1434,45.4504],[-1.2201,44.7226],[-1.1722,44.7783],[-1.0447,44.6694],[-1.2063,44.6479],[-1.3355,44.0655],[-1.3214,43.8634],[-1.3925,43.8634],[-1.4599,43.5375],[-1.6914,43.3961],[-1.6876,43.3421],[-0.9639,43.3421],[-0.8579,42.9515],[0.0401,42.6912],[0.601,42.6912],[0.6738,42.8213],[0.9945,42.8213],[1.8923,42.4962],[2.1231,42.6912],[2.1201,42.7563],[2.9905,43.0165],[3.14,43.2769],[3.6171,43.4072],[3.8509,43.6027],[4.173,43.6027],[4.2583,43.4723],[4.3388,43.4723],[4.41,43.733],[4.7279,43.8634],[4.4695,44.3201],[4.0575,44.516],[3.9609,44.908],[4.1232,44.908],[4.3592,45.1042],[4.3517,45.3004],[3.9423,45.3659],[4.013,45.6278],[3.9315,45.6278],[3.9178,45.9554],[4.0784,46.0209],[3.9829,46.3489],[4.2258,46.4145],[4.2312,46.2833],[4.5661,46.0865],[5.0378,46.6115],[5.0354,46.6772],[5.5945,47.1374],[5.5769,47.6641],[5.8224,47.73],[5.8181,47.8619],[5.6462,48.0597],[5.4807,48.0597],[5.4738,48.2578],[5.3057,48.3238],[5.3033,48.3899],[4.8834,48.522],[4.8653,48.9851],[5.0267,49.1175],[4.6798,49.4489],[4.5768,49.9136],[3.9872,49.98],[3.9841,50.0465],[3.8163,50.0465],[3.8132,50.113],[3.7293,50.113],[3.5383,50.5789],[4.0342,50.7788],[4.1031,51.1124],[3.2543,51.1792],[3.1777,51.3404],[2.5218,51.0875],[1.9214,50.9968],[1.5806,50.8688],[1.6104,50.5482],[1.5552,50.4048],[1.6104,50.3707],[1.5415,50.2779],[1.6725,50.1925],[1.521,50.2147],[1.2212,49.979],[0.5967,49.8572],[0.2359,49.7293],[0.0766,49.535],[0.2568,49.4641],[0.4932,49.4936],[0.4113,49.4521],[-0.2195,49.2801],[-0.9404,49.3923],[-1.0723,49.3968],[-1.1229,49.3454],[-1.2508,49.4489],[-1.336,49.7035],[-1.6067,49.6501],[-1.9352,49.7241],[-1.9456,49.678],[-1.8395,49.6198],[-1.8847,49.5309],[-1.8165,49.3837],[-1.6991,49.3559],[-1.6247,49.2193],[-1.5484,49.2255],[-1.6104,49.2159],[-1.5936,49.029],[-1.508,49.0337],[-1.6029,48.8494],[-1.5536,48.7471],[-1.3566,48.6433],[-1.796,48.6159],[-1.9867,48.6819],[-2.0287,48.6433],[-1.953,48.575],[-1.9803,48.5136],[-2.0524,48.6501],[-2.2137,48.5819],[-2.251,48.6501],[-2.3303,48.6296],[-2.282,48.6706],[-2.3161,48.6986],[-2.4875,48.6501],[-2.6824,48.509],[-2.9586,48.7697],[-3.0424,48.7879],[-3.0199,48.8256],[-3.1255,48.76],[-3.0915,48.8713],[-3.2205,48.7941],[-3.2297,48.8723],[-3.3976,48.8073],[-3.5153,48.8419],[-3.5815,48.7906],[-3.5283,48.7395],[-3.5848,48.6828],[-3.8101,48.7332],[-3.8517,48.6296],[-3.892,48.678],[-3.9547,48.6575],[-3.9699,48.7204],[-4.1938,48.6501],[-4.3433,48.6789],[-4.5636,48.6296],[-4.5301,48.6017],[-4.6077,48.603],[-4.5773,48.5682],[-4.722,48.5682],[-4.7849,48.4362]],[[1.2964,47.4665],[1.3282,46.9401],[1.3321,46.8743],[1.2964,47.4665]],[[1.6636,50.49],[1.7785,50.4457],[1.6944,50.4457],[1.6636,50.49]]],[[[-2.2105,47.0058],[-2.2074,46.9679],[-2.1948,46.9619],[-2.1591,46.9165],[-2.1426,46.9099],[-2.1448,46.9575],[-2.2001,46.9854],[-2.2,47.0058],[-2.2105,47.0058]]],[[[-1.2275,45.9543],[-1.2227,45.8898],[-1.1778,45.8898],[-1.2275,45.9543]]]]}}]}
