{"type":"FeatureCollection","features":[{"type":"Feature","properties":{"relationId":"cliopatria-relation-723ea7f2bcd1","name":"(Allegiance of Duchy of Aquitaine to Kingdom of France)","name_ko":"아키텐 공국–프랑스 왕국 충성·복속 관계","relationKind":"allegiance","relation_kind_ko":"충성·복속 관계","actor_ids":"cliopatria-q7703611-2212ce4967;cliopatria-q70972-7b35f2920f","actor_names_ko":"아키텐 공국;프랑스 왕국","color":"#e7b763","startYear":1085,"endYear":1110,"source_name":"Cliopatria v0.2.0","source_url":"https://github.com/Seshat-Global-History-Databank/cliopatria","license":"CC BY 4.0","attribution":"Seshat Global History Databank, Cliopatria contributors"},"geometry":{"type":"MultiPolygon","coordinates":[[[[-1.8509,43.3769],[-1.8484,43.3421],[-1.768,43.3421],[-1.7706,43.3787],[-1.7755,43.3762],[-1.7941,43.386],[-1.8113,43.3951],[-1.8509,43.3769]]],[[[-4.7849,48.4362],[-4.7684,48.3454],[-4.7045,48.3416],[-4.2899,48.4316],[-4.4537,48.3354],[-4.2694,48.3627],[-4.3247,48.3217],[-4.1875,48.3075],[-4.5155,48.2958],[-4.5467,48.3468],[-4.6163,48.2877],[-4.5472,48.2526],[-4.5575,48.1772],[-4.4855,48.2426],[-4.3793,48.2324],[-4.3024,48.1964],[-4.2854,48.1154],[-4.7002,48.0746],[-4.4346,47.9757],[-4.3473,47.8629],[-4.3718,47.8072],[-4.1654,47.8308],[-4.1856,47.8744],[-4.1112,47.8693],[-4.1322,47.9239],[-4.0367,47.855],[-3.9618,47.9],[-3.8517,47.801],[-3.5283,47.7799],[-3.4822,47.73],[-3.2826,47.7873],[-3.3465,47.73],[-3.2242,47.6564],[-3.1591,47.711],[-3.1932,47.7464],[-3.118,47.7321],[-3.2006,47.6396],[-3.1412,47.598],[-3.1317,47.4782],[-3.1233,47.5988],[-2.9399,47.5608],[-2.9747,47.6638],[-2.9194,47.5955],[-2.7891,47.6427],[-2.7086,47.6023],[-2.7065,47.6427],[-2.7202,47.5608],[-2.8096,47.5676],[-2.8292,47.5052],[-2.5768,47.5539],[-2.632,47.5198],[-2.3639,47.5062],[-2.4947,47.4912],[-2.3918,47.4237],[-2.5564,47.3832],[-2.4362,47.307],[-2.542,47.3001],[-2.23,47.2645],[-2.0101,47.3197],[-1.727,47.2108],[-2.0146,47.3001],[-2.1606,47.2712],[-2.1596,47.1236],[-1.9907,47.0354],[-2.1288,46.8935],[-2.1188,46.82],[-1.9099,46.6918],[-1.7954,46.4945],[-1.7892,46.5329],[-1.2401,46.2842],[-1.1107,46.3027],[-1.2108,46.1745],[-1.0487,46.0388],[-1.1107,46.0184],[-1.0734,45.9044],[-1.1517,45.8681],[-0.9872,45.7174],[-1.1443,45.8061],[-1.2131,45.7588],[-1.0453,45.6933],[-1.0408,45.6302],[-0.7955,45.4771],[-0.656,45.0991],[-0.4938,44.998],[-0.5962,45.0246],[-0.5347,44.895],[-0.716,45.1345],[-0.7662,45.3261],[-0.9153,45.4504],[-1.0317,45.5035],[-1.1434,45.4504],[-1.2201,44.7226],[-1.1722,44.7783],[-1.0447,44.6694],[-1.2063,44.6479],[-1.3355,44.0655],[-1.3214,43.8634],[-1.3925,43.8634],[-1.4599,43.5375],[-1.6914,43.3961],[-1.6876,43.3421],[-0.9639,43.3421],[-0.8579,42.9515],[0.0401,42.6912],[0.601,42.6912],[0.6738,42.8213],[0.9945,42.8213],[1.4855,42.6262],[1.7258,42.6262],[1.8123,42.4962],[1.9692,42.5612],[2.043,42.6912],[2.5178,42.8213],[2.5921,42.9515],[2.9905,43.0165],[3.14,43.2769],[3.6171,43.4072],[3.8509,43.6027],[4.173,43.6027],[4.1778,43.4723],[4.3388,43.4723],[4.4123,43.6678],[4.7257,43.9286],[4.4766,44.1243],[4.4695,44.3201],[4.0575,44.516],[3.9609,44.908],[4.1232,44.908],[4.3592,45.1042],[4.2678,45.3659],[3.9423,45.3659],[4.013,45.6278],[3.9315,45.6278],[3.9178,45.9554],[4.0784,46.0209],[3.9829,46.3489],[4.2258,46.4145],[4.2312,46.2833],[4.5661,46.0865],[5.0378,46.6115],[5.0354,46.6772],[5.5945,47.1374],[5.5769,47.6641],[5.8224,47.73],[5.8181,47.8619],[5.6462,48.0597],[5.4807,48.0597],[5.4738,48.2578],[5.3057,48.3238],[5.3033,48.3899],[4.8834,48.522],[4.8653,48.9851],[5.0267,49.1175],[4.6798,49.4489],[4.5768,49.9136],[3.9872,49.98],[3.9841,50.0465],[3.8163,50.0465],[3.8132,50.113],[3.7293,50.113],[3.5383,50.5789],[4.0342,50.7788],[4.1031,51.1124],[3.2543,51.1792],[3.1777,51.3404],[2.5218,51.0875],[1.9214,50.9968],[1.5806,50.8688],[1.6104,50.5482],[1.5552,50.4048],[1.6104,50.3707],[1.5415,50.2779],[1.6725,50.1925],[1.4963,50.1933],[1.8196,49.7807],[1.7724,49.1838],[1.3888,48.6542],[1.3057,48.6542],[1.3099,48.5881],[1.0607,48.5881],[1.065,48.522],[0.8203,48.4559],[0.9247,48.1257],[1.2763,47.7959],[1.1977,47.73],[1.2964,47.4665],[-1.187,47.5982],[-1.2023,47.7959],[-1.0421,47.8619],[-1,48.3899],[-1.4976,48.3899],[-1.5178,48.638],[-1.796,48.6159],[-1.8502,48.6761],[-1.9863,48.685],[-2.0287,48.6433],[-1.953,48.575],[-1.9803,48.5136],[-2.0524,48.6501],[-2.2137,48.5819],[-2.251,48.6501],[-2.3303,48.6296],[-2.282,48.6706],[-2.3161,48.6986],[-2.4875,48.6501],[-2.6824,48.509],[-2.9586,48.7697],[-3.0424,48.7879],[-3.0199,48.8256],[-3.1255,48.76],[-3.0915,48.8713],[-3.2205,48.7941],[-3.2297,48.8723],[-3.3976,48.8073],[-3.5153,48.8419],[-3.5815,48.7906],[-3.5283,48.7395],[-3.5848,48.6828],[-3.8101,48.7332],[-3.8517,48.6296],[-3.892,48.678],[-3.9547,48.6575],[-3.9699,48.7204],[-4.1938,48.6501],[-4.3433,48.6789],[-4.5636,48.6296],[-4.5301,48.6017],[-4.6077,48.603],[-4.5773,48.5682],[-4.722,48.5682],[-4.7849,48.4362]],[[1.2964,47.4665],[1.3004,47.4006],[1.3044,47.3348],[1.3084,47.269],[1.3124,47.2032],[1.3164,47.1374],[1.3203,47.0716],[1.3242,47.0058],[1.3282,46.9401],[1.3321,46.8743],[1.2964,47.4665]],[[1.6636,50.49],[1.7785,50.4457],[1.6944,50.4457],[1.6636,50.49]]],[[[-2.2105,47.0058],[-2.2074,46.9679],[-2.1948,46.9619],[-2.1591,46.9165],[-2.1426,46.9099],[-2.1448,46.9575],[-2.2001,46.9854],[-2.2,47.0058],[-2.2105,47.0058]]],[[[-1.2275,45.9543],[-1.2227,45.8898],[-1.1778,45.8898],[-1.2275,45.9543]]]]}},{"type":"Feature","properties":{"relationId":"cliopatria-relation-723ea7f2bcd1","name":"(Allegiance of Duchy of Aquitaine to Kingdom of France)","name_ko":"아키텐 공국–프랑스 왕국 충성·복속 관계","relationKind":"allegiance","relation_kind_ko":"충성·복속 관계","actor_ids":"cliopatria-q7703611-2212ce4967;cliopatria-q70972-7b35f2920f","actor_names_ko":"아키텐 공국;프랑스 왕국","color":"#e7b763","startYear":1111,"endYear":1125,"source_name":"Cliopatria v0.2.0","source_url":"https://github.com/Seshat-Global-History-Databank/cliopatria","license":"CC BY 4.0","attribution":"Seshat Global History Databank, Cliopatria contributors"},"geometry":{"type":"MultiPolygon","coordinates":[[[[-1.8509,43.3769],[-1.8484,43.3421],[-1.768,43.3421],[-1.7706,43.3787],[-1.7755,43.3762],[-1.7941,43.386],[-1.8113,43.3951],[-1.8509,43.3769]]],[[[-4.7849,48.4362],[-4.7684,48.3454],[-4.7045,48.3416],[-4.2899,48.4316],[-4.4537,48.3354],[-4.2694,48.3627],[-4.3247,48.3217],[-4.1875,48.3075],[-4.5155,48.2958],[-4.5467,48.3468],[-4.6163,48.2877],[-4.5472,48.2526],[-4.5575,48.1772],[-4.4855,48.2426],[-4.3793,48.2324],[-4.3024,48.1964],[-4.2854,48.1154],[-4.7002,48.0746],[-4.4346,47.9757],[-4.3473,47.8629],[-4.3718,47.8072],[-4.1654,47.8308],[-4.1856,47.8744],[-4.1112,47.8693],[-4.1322,47.9239],[-4.0367,47.855],[-3.9618,47.9],[-3.8517,47.801],[-3.5283,47.7799],[-3.4822,47.73],[-3.2826,47.7873],[-3.3465,47.73],[-3.2242,47.6564],[-3.1591,47.711],[-3.1932,47.7464],[-3.118,47.7321],[-3.2006,47.6396],[-3.1412,47.598],[-3.1317,47.4782],[-3.1233,47.5988],[-2.9399,47.5608],[-2.9747,47.6638],[-2.9194,47.5955],[-2.7891,47.6427],[-2.7086,47.6023],[-2.7065,47.6427],[-2.7202,47.5608],[-2.8096,47.5676],[-2.8292,47.5052],[-2.5768,47.5539],[-2.632,47.5198],[-2.3639,47.5062],[-2.4947,47.4912],[-2.3918,47.4237],[-2.5564,47.3832],[-2.4362,47.307],[-2.542,47.3001],[-2.23,47.2645],[-2.0101,47.3197],[-1.727,47.2108],[-2.0146,47.3001],[-2.1606,47.2712],[-2.1596,47.1236],[-1.9907,47.0354],[-2.1288,46.8935],[-2.1188,46.82],[-1.9099,46.6918],[-1.7954,46.4945],[-1.7892,46.5329],[-1.2401,46.2842],[-1.1107,46.3027],[-1.2108,46.1745],[-1.0487,46.0388],[-1.1107,46.0184],[-1.0734,45.9044],[-1.1517,45.8681],[-0.9872,45.7174],[-1.1443,45.8061],[-1.2131,45.7588],[-1.0453,45.6933],[-1.0408,45.6302],[-0.7955,45.4771],[-0.656,45.0991],[-0.4938,44.998],[-0.5962,45.0246],[-0.5347,44.895],[-0.716,45.1345],[-0.7662,45.3261],[-0.9153,45.4504],[-1.0317,45.5035],[-1.1434,45.4504],[-1.2201,44.7226],[-1.1722,44.7783],[-1.0447,44.6694],[-1.2063,44.6479],[-1.3355,44.0655],[-1.3214,43.8634],[-1.3925,43.8634],[-1.4599,43.5375],[-1.6914,43.3961],[-1.6876,43.3421],[-0.9639,43.3421],[-0.8579,42.9515],[0.0401,42.6912],[0.601,42.6912],[0.6738,42.8213],[0.9945,42.8213],[1.4855,42.6262],[1.7258,42.6262],[1.8123,42.4962],[1.9692,42.5612],[2.043,42.6912],[2.5178,42.8213],[2.5921,42.9515],[2.9905,43.0165],[3.14,43.2769],[3.6171,43.4072],[3.8509,43.6027],[4.173,43.6027],[4.1778,43.4723],[4.3388,43.4723],[4.4123,43.6678],[4.7257,43.9286],[4.4766,44.1243],[4.4695,44.3201],[4.0575,44.516],[3.9609,44.908],[4.1232,44.908],[4.3592,45.1042],[4.2678,45.3659],[3.9423,45.3659],[4.013,45.6278],[3.9315,45.6278],[3.9178,45.9554],[4.0784,46.0209],[3.9829,46.3489],[4.2258,46.4145],[4.2312,46.2833],[4.5661,46.0865],[5.0378,46.6115],[5.0354,46.6772],[5.5945,47.1374],[5.5769,47.6641],[5.8224,47.73],[5.8181,47.8619],[5.6462,48.0597],[5.4807,48.0597],[5.4738,48.2578],[5.3057,48.3238],[5.3033,48.3899],[4.8834,48.522],[4.8653,48.9851],[5.0267,49.1175],[4.6798,49.4489],[4.5768,49.9136],[3.9872,49.98],[3.9841,50.0465],[3.8163,50.0465],[3.8132,50.113],[3.7293,50.113],[3.5383,50.5789],[4.0342,50.7788],[4.1031,51.1124],[3.2543,51.1792],[3.1777,51.3404],[2.5218,51.0875],[1.9214,50.9968],[1.5806,50.8688],[1.6104,50.5482],[1.5552,50.4048],[1.6104,50.3707],[1.5415,50.2779],[1.6725,50.1925],[1.4963,50.1933],[1.8196,49.7807],[1.7724,49.1838],[1.3888,48.6542],[1.3057,48.6542],[1.3099,48.5881],[1.0607,48.5881],[1.065,48.522],[0.8203,48.4559],[0.9247,48.1257],[0.4368,47.9938],[0.3361,48.2578],[-0.0001,48.3238],[-0.0924,48.4559],[-0.5804,48.3238],[-1,48.3899],[-1.4976,48.3899],[-1.5178,48.638],[-1.796,48.6159],[-1.8502,48.6761],[-2.0181,48.6603],[-1.9394,48.534],[-1.9803,48.5136],[-2.0524,48.6501],[-2.2137,48.5819],[-2.251,48.6501],[-2.3303,48.6296],[-2.282,48.6706],[-2.3161,48.6986],[-2.4875,48.6501],[-2.6824,48.509],[-2.9586,48.7697],[-3.0424,48.7879],[-3.0199,48.8256],[-3.1255,48.76],[-3.0771,48.8283],[-3.1037,48.8767],[-3.2205,48.7941],[-3.2136,48.8698],[-3.3976,48.8073],[-3.5153,48.8419],[-3.5815,48.7906],[-3.5283,48.7395],[-3.5805,48.7332],[-3.5705,48.688],[-3.8101,48.7332],[-3.8517,48.6296],[-3.892,48.678],[-3.9547,48.6575],[-3.9699,48.7204],[-4.1938,48.6501],[-4.3433,48.6789],[-4.5636,48.6296],[-4.5301,48.6017],[-4.6077,48.603],[-4.5773,48.5682],[-4.722,48.5682],[-4.7849,48.4362]],[[1.6636,50.49],[1.7785,50.4457],[1.6944,50.4457],[1.6636,50.49]]],[[[-2.2105,47.0058],[-2.2074,46.9679],[-2.1948,46.9619],[-2.1591,46.9165],[-2.1426,46.9099],[-2.1448,46.9575],[-2.2001,46.9854],[-2.2,47.0058],[-2.2105,47.0058]]],[[[-1.2275,45.9543],[-1.2227,45.8898],[-1.1778,45.8898],[-1.2275,45.9543]]]]}},{"type":"Feature","properties":{"relationId":"cliopatria-relation-723ea7f2bcd1","name":"(Allegiance of Duchy of Aquitaine to Kingdom of France)","name_ko":"아키텐 공국–프랑스 왕국 충성·복속 관계","relationKind":"allegiance","relation_kind_ko":"충성·복속 관계","actor_ids":"cliopatria-q7703611-2212ce4967;cliopatria-q70972-7b35f2920f","actor_names_ko":"아키텐 공국;프랑스 왕국","color":"#e7b763","startYear":1126,"endYear":1138,"source_name":"Cliopatria v0.2.0","source_url":"https://github.com/Seshat-Global-History-Databank/cliopatria","license":"CC BY 4.0","attribution":"Seshat Global History Databank, Cliopatria contributors"},"geometry":{"type":"MultiPolygon","coordinates":[[[[-4.7849,48.4362],[-4.7684,48.3454],[-4.7045,48.3416],[-4.2899,48.4316],[-4.4537,48.3354],[-4.2694,48.3627],[-4.3247,48.3217],[-4.1875,48.3075],[-4.5155,48.2958],[-4.5467,48.3468],[-4.6163,48.2877],[-4.5472,48.2526],[-4.5575,48.1772],[-4.4855,48.2426],[-4.3793,48.2324],[-4.3024,48.1964],[-4.2854,48.1154],[-4.7002,48.0746],[-4.4346,47.9757],[-4.3473,47.8629],[-4.3718,47.8072],[-4.1654,47.8308],[-4.1856,47.8744],[-4.1112,47.8693],[-4.1322,47.9239],[-4.0367,47.855],[-3.9618,47.9],[-3.8517,47.801],[-3.5283,47.7799],[-3.4822,47.73],[-3.2826,47.7873],[-3.3465,47.73],[-3.2242,47.6564],[-3.1591,47.711],[-3.1932,47.7464],[-3.118,47.7321],[-3.2006,47.6396],[-3.1412,47.598],[-3.1317,47.4782],[-3.1233,47.5988],[-2.9399,47.5608],[-2.9747,47.6638],[-2.9194,47.5955],[-2.7891,47.6427],[-2.7086,47.6023],[-2.7065,47.6427],[-2.7202,47.5608],[-2.8096,47.5676],[-2.8292,47.5052],[-2.5768,47.5539],[-2.632,47.5198],[-2.3639,47.5062],[-2.4947,47.4912],[-2.3918,47.4237],[-2.5564,47.3832],[-2.4362,47.307],[-2.542,47.3001],[-2.23,47.2645],[-2.0101,47.3197],[-1.727,47.2108],[-2.0146,47.3001],[-2.1606,47.2712],[-2.1596,47.1236],[-1.9907,47.0354],[-2.1288,46.8935],[-2.1188,46.82],[-1.9099,46.6918],[-1.7954,46.4945],[-1.7892,46.5329],[-1.2401,46.2842],[-1.1107,46.3027],[-1.2108,46.1745],[-1.0487,46.0388],[-1.1107,46.0184],[-1.0734,45.9044],[-1.1517,45.8681],[-0.9872,45.7174],[-1.1443,45.8061],[-1.2131,45.7588],[-1.0453,45.6933],[-1.0408,45.6302],[-0.7955,45.4771],[-0.656,45.0991],[-0.4938,44.998],[-0.5962,45.0246],[-0.5347,44.895],[-0.716,45.1345],[-0.7662,45.3261],[-0.9153,45.4504],[-1.0317,45.5035],[-1.1434,45.4504],[-1.2201,44.7226],[-1.1722,44.7783],[-1.0447,44.6694],[-1.2063,44.6479],[-1.3355,44.0655],[-1.3214,43.8634],[-1.3925,43.8634],[-1.4599,43.5375],[-1.6914,43.3961],[-1.6876,43.3421],[-0.9639,43.3421],[-0.8579,42.9515],[0.0401,42.6912],[0.601,42.6912],[0.6738,42.8213],[0.9945,42.8213],[1.4855,42.6262],[1.7258,42.6262],[1.8123,42.4962],[1.9692,42.5612],[2.043,42.6912],[2.5178,42.8213],[2.5921,42.9515],[2.9905,43.0165],[3.14,43.2769],[3.6171,43.4072],[3.8509,43.6027],[4.173,43.6027],[4.1778,43.4723],[4.3388,43.4723],[4.4123,43.6678],[4.7257,43.9286],[4.4766,44.1243],[4.4695,44.3201],[4.0575,44.516],[3.9609,44.908],[4.1232,44.908],[4.3592,45.1042],[4.2678,45.3659],[3.9423,45.3659],[4.013,45.6278],[3.9315,45.6278],[3.9178,45.9554],[4.0784,46.0209],[3.9829,46.3489],[4.2258,46.4145],[4.2312,46.2833],[4.5661,46.0865],[5.0378,46.6115],[5.0354,46.6772],[5.5945,47.1374],[5.5769,47.6641],[5.8224,47.73],[5.8181,47.8619],[5.6462,48.0597],[5.4807,48.0597],[5.4738,48.2578],[5.3057,48.3238],[5.3033,48.3899],[4.8834,48.522],[4.8653,48.9851],[5.0267,49.1175],[4.6798,49.4489],[4.5768,49.9136],[3.9872,49.98],[3.9841,50.0465],[3.8163,50.0465],[3.8132,50.113],[3.7293,50.113],[3.5383,50.5789],[4.0342,50.7788],[4.1031,51.1124],[3.2543,51.1792],[3.1777,51.3404],[2.5218,51.0875],[1.9214,50.9968],[1.5806,50.8688],[1.6104,50.5482],[1.5552,50.4048],[1.6104,50.3707],[1.5415,50.2779],[1.6725,50.1925],[1.4963,50.1933],[1.8196,49.7807],[1.7724,49.1838],[1.3888,48.6542],[1.3057,48.6542],[1.3099,48.5881],[1.0607,48.5881],[1.065,48.522],[0.8203,48.4559],[0.9247,48.1257],[0.4368,47.9938],[0.3361,48.2578],[-0.0001,48.3238],[-0.0924,48.4559],[-0.5804,48.3238],[-1,48.3899],[-1.4976,48.3899],[-1.5178,48.638],[-1.796,48.6159],[-1.8502,48.6761],[-2.0181,48.6603],[-1.9394,48.534],[-1.9803,48.5136],[-2.0524,48.6501],[-2.2137,48.5819],[-2.251,48.6501],[-2.3303,48.6296],[-2.282,48.6706],[-2.3161,48.6986],[-2.4875,48.6501],[-2.6824,48.509],[-2.9586,48.7697],[-3.0424,48.7879],[-3.0199,48.8256],[-3.1255,48.76],[-3.0771,48.8283],[-3.1037,48.8767],[-3.2205,48.7941],[-3.2136,48.8698],[-3.3976,48.8073],[-3.5153,48.8419],[-3.5815,48.7906],[-3.5283,48.7395],[-3.5805,48.7332],[-3.5705,48.688],[-3.8101,48.7332],[-3.8517,48.6296],[-3.892,48.678],[-3.9547,48.6575],[-3.9699,48.7204],[-4.1938,48.6501],[-4.3433,48.6789],[-4.5636,48.6296],[-4.5301,48.6017],[-4.6077,48.603],[-4.5773,48.5682],[-4.722,48.5682],[-4.7849,48.4362]],[[1.6636,50.49],[1.7785,50.4457],[1.6944,50.4457],[1.6636,50.49]]],[[[-2.2105,47.0058],[-2.2074,46.9679],[-2.1948,46.9619],[-2.1591,46.9165],[-2.1426,46.9099],[-2.1448,46.9575],[-2.2001,46.9854],[-2.2,47.0058],[-2.2105,47.0058]]],[[[-1.2275,45.9543],[-1.2227,45.8898],[-1.1778,45.8898],[-1.2275,45.9543]]]]}},{"type":"Feature","properties":{"relationId":"cliopatria-relation-26486088df48","name":"(Allegiance of Goryeo to Great Jin)","name_ko":"고려–금나라 충성·복속 관계","relationKind":"allegiance","relation_kind_ko":"충성·복속 관계","actor_ids":"cliopatria-q28208-df583e1cbe;cliopatria-q5066-7c1c22de7a","actor_names_ko":"고려;금나라","color":"#e7b763","startYear":1126,"endYear":1138,"source_name":"Cliopatria v0.2.0","source_url":"https://github.com/Seshat-Global-History-Databank/cliopatria","license":"CC BY 4.0","attribution":"Seshat Global History Databank, Cliopatria contributors"},"geometry":{"type":"MultiPolygon","coordinates":[[[[111.3761,39.0618],[111.8317,38.868],[111.8005,38.8034],[112.7123,39.0618],[113.5768,39.0618],[113.5447,38.9972],[114.0304,38.868],[114.2637,38.5451],[114.8909,38.5451],[114.8592,38.4806],[116.6158,38.5451],[117.576,38.7388],[117.7019,38.9953],[117.7663,39.0141],[117.7154,39.1114],[117.8856,39.2011],[118.0964,39.2024],[118.2249,39.0618],[118.4054,39.0618],[118.5271,39.1492],[118.7096,39.1495],[119.1145,39.2863],[119.2304,39.3617],[119.2814,39.575],[119.2293,39.536],[119.2086,39.5696],[119.2849,39.5954],[119.3804,39.7729],[119.5264,39.832],[119.5356,39.8908],[120.4722,40.2145],[120.5018,40.3269],[120.5888,40.3818],[120.5457,40.4024],[120.8253,40.674],[121.02,40.7192],[120.9395,40.7405],[120.9819,40.8268],[121.0684,40.8034],[121.2003,40.9307],[121.7565,40.8736],[121.8679,40.9958],[121.8259,40.9482],[121.8511,40.8323],[122.1594,40.7016],[122.1573,40.5993],[122.3019,40.5023],[122.1061,40.3101],[122.0916,40.2272],[121.9915,40.187],[121.9957,40.1239],[121.8269,40.0225],[121.8738,39.9914],[121.4811,39.8139],[121.4634,39.7435],[121.5501,39.6787],[121.5333,39.6223],[121.4639,39.6458],[121.2234,39.5286],[121.436,39.5086],[121.4976,39.385],[121.943,39.3994],[121.7798,39.3715],[121.628,39.2704],[121.5926,39.1922],[121.681,39.1364],[121.6741,39.088],[121.1399,38.9473],[121.1456,38.7389],[121.2367,38.7985],[121.485,38.8099],[121.7247,39.0302],[122.0423,39.0597],[122.115,39.2008],[122.29,39.351],[122.8486,39.6179],[122.9641,39.6116],[123.0091,39.6805],[123.2609,39.7172],[123.2042,39.7451],[123.2654,39.7541],[123.252,39.8171],[123.3141,39.7761],[123.4171,39.8245],[123.4112,39.771],[123.6085,39.836],[123.6567,39.9195],[123.6431,39.8786],[123.773,39.8183],[124.1182,39.8332],[124.2942,39.9338],[124.3702,40.0979],[124.4996,40.0225],[124.4058,40.0278],[124.3215,39.9127],[124.4177,39.8245],[124.5641,39.8143],[124.6436,39.6677],[124.7557,39.6883],[124.7461,39.7829],[125.117,39.5659],[125.2252,39.5912],[125.286,39.5212],[125.4449,39.5844],[125.3452,39.4537],[125.4592,39.3851],[125.4046,39.3647],[125.4449,39.3106],[125.4109,39.2138],[125.2874,39.1523],[125.2841,39.0896],[125.3351,39.0834],[125.2708,39.0806],[125.1986,38.9861],[125.1372,38.8035],[125.1883,38.7386],[125.241,38.7931],[125.2777,38.7033],[125.4478,38.7772],[125.6578,38.631],[125.4627,38.7073],[125.1566,38.6317],[125.1229,38.6641],[125.128,38.5803],[124.9839,38.5919],[125.0164,38.498],[124.8797,38.3452],[124.8723,38.2576],[124.993,38.227],[124.9209,38.1894],[124.856,38.227],[124.7681,38.1017],[124.8853,38.1317],[125.2649,38.0779],[125.2463,38.0201],[125.1067,38.0346],[125.1754,37.9699],[124.9795,37.9252],[125.2151,37.8913],[125.26,37.9327],[125.3084,37.8781],[125.2542,37.8346],[125.3084,37.8091],[125.3494,37.8644],[125.4449,37.8433],[125.3836,37.8918],[125.4244,37.9122],[125.5101,37.8943],[125.4791,37.8576],[125.5242,37.8178],[125.3899,37.7961],[125.4449,37.7744],[125.3638,37.7609],[125.3475,37.6756],[125.5343,37.7722],[125.6387,37.8647],[125.6306,37.9252],[125.7398,37.9252],[125.5969,38.0322],[125.7993,37.9929],[125.9216,37.8449],[125.9862,37.8228],[125.9595,37.9122],[126.0558,37.8706],[126.0628,37.8022],[126.3977,37.8918],[126.5933,37.7744],[126.7,37.8297],[126.6788,37.6863],[126.7552,37.6379],[126.6615,37.6724],[126.6619,37.758],[126.5349,37.7682],[126.6011,37.5068],[126.6442,37.5044],[126.596,37.4397],[126.6418,37.366],[126.7172,37.3838],[126.6898,37.3325],[126.8707,37.2679],[126.782,37.2202],[126.6901,37.2617],[126.719,37.2129],[126.6688,37.1618],[126.7144,37.128],[126.8707,37.1755],[126.7645,37.1177],[126.7552,37.0488],[126.8491,37.0373],[126.8905,37.0959],[126.911,37.0141],[126.8244,37.0026],[126.9127,36.9296],[127.0394,36.982],[126.8602,36.8696],[126.9048,36.8223],[126.8633,36.8291],[126.8508,36.754],[126.8302,36.9102],[126.782,36.8912],[126.7578,36.9822],[126.665,36.9885],[126.6311,36.9116],[126.6261,36.9961],[126.5067,37.0352],[126.5826,36.898],[126.5191,36.9479],[126.4839,36.8415],[126.4454,37.0034],[126.353,37],[126.4192,36.9223],[126.4046,36.857],[126.3287,36.847],[126.3567,36.7888],[126.2827,36.8037],[126.3089,36.9669],[126.2752,36.8747],[126.1922,36.8859],[126.2134,36.7813],[126.1656,36.8161],[126.1282,36.7613],[126.1449,36.7178],[126.2026,36.7424],[126.1911,36.6762],[126.2742,36.7199],[126.2949,36.6212],[126.343,36.7404],[126.3697,36.6468],[126.4796,36.7471],[126.4977,36.4484],[126.6174,36.4735],[126.4988,36.4201],[126.5826,36.353],[126.5138,36.3227],[126.5826,36.2947],[126.5349,36.2196],[126.6033,36.1718],[126.4934,36.1308],[126.5894,36.1308],[126.6925,35.9999],[126.8707,36.062],[126.6517,35.9817],[126.6128,35.902],[126.8375,35.8933],[126.7034,35.8485],[126.782,35.7602],[126.6622,35.793],[126.5018,35.6634],[126.476,35.5958],[126.655,35.5958],[126.6925,35.5344],[126.6429,35.5728],[126.4927,35.5253],[126.4182,35.394],[126.4585,35.3454],[126.3807,35.3271],[126.3389,35.2367],[126.4524,35.1003],[126.4251,35.0198],[126.343,35.157],[126.2745,35.0679],[126.3741,35.0168],[126.3152,34.9379],[126.4364,34.9814],[126.3953,34.8271],[126.5133,34.7823],[126.5676,34.9014],[126.5758,34.8218],[126.6653,34.8081],[126.4207,34.7361],[126.6236,34.63],[126.5357,34.6232],[126.3994,34.7096],[126.3861,34.6358],[126.4646,34.5847],[126.3536,34.6526],[126.3001,34.586],[126.3909,34.5338],[126.5396,34.563],[126.4659,34.4724],[126.5231,34.3081],[126.7269,34.433],[126.7778,34.5865],[126.8098,34.4512],[126.898,34.4177],[127.0103,34.6125],[127.2481,34.7665],[127.3579,34.6982],[127.3145,34.6519],[127.2747,34.7051],[127.2467,34.5837],[127.1929,34.5748],[127.2134,34.6369],[127.1297,34.5506],[127.1792,34.5133],[127.2235,34.5468],[127.3436,34.445],[127.4392,34.5407],[127.3494,34.5858],[127.5036,34.5913],[127.3579,34.7597],[127.4255,34.8007],[127.3653,34.824],[127.5213,34.8898],[127.5845,34.7462],[127.5608,34.6622],[127.6243,34.6296],[127.6563,34.7313],[127.7425,34.7293],[127.7756,34.8491],[127.6565,34.8119],[127.5753,34.9136],[127.6621,34.9068],[127.7192,34.9901],[127.8912,34.9467],[127.9258,35.0198],[128.0068,34.9918],[128.0693,35.0825],[128.0557,34.9316],[128.3351,34.9473],[128.3408,34.8727],[128.4353,34.8432],[128.4745,34.8907],[128.433,34.8907],[128.42,34.9827],[128.4915,34.9959],[128.4881,35.0512],[128.3714,35.0136],[128.4781,35.0991],[128.6363,35.0653],[128.6021,35.2139],[128.6179,35.1433],[128.762,35.0794],[128.8979,35.1213],[128.9184,35.0819],[128.958,35.1369],[128.9531,35.0653],[129.1235,35.1008],[129.2692,35.3168],[129.3609,35.3587],[129.3735,35.5328],[129.4129,35.4721],[129.4546,35.5133],[129.4431,35.6361],[129.5873,36.0169],[129.5548,36.0825],[129.4533,35.9933],[129.3809,36.0415],[129.4294,36.0952],[129.3866,36.3227],[129.4739,36.7306],[129.4302,37.0731],[129.0112,37.7255],[128.6316,38.145],[128.3596,38.6787],[128.0147,38.8581],[127.7593,39.117],[127.3934,39.2017],[127.3919,39.3419],[127.4734,39.3476],[127.3784,39.3789],[127.5413,39.4287],[127.5204,39.5105],[127.5746,39.595],[127.5122,39.6495],[127.5208,39.747],[128.0068,40.0452],[128.1551,40.0163],[128.2634,40.0771],[128.3278,40.0282],[128.6461,40.2609],[128.6365,40.3132],[129.0776,40.4726],[129.2335,40.7057],[129.7339,40.8654],[129.7649,40.9444],[129.7119,41.1226],[129.795,41.3474],[129.6594,41.4646],[129.6488,41.5494],[129.7823,41.7816],[130.073,42.0785],[130.1388,42.0819],[130.2942,42.237],[130.4043,42.2551],[130.4075,42.3246],[130.6054,42.3012],[130.8423,42.5583],[130.7295,42.5792],[130.6567,42.6641],[130.8255,42.6993],[130.787,42.6538],[130.9509,42.6262],[131.1057,42.6683],[131.2072,42.6262],[131.2731,42.7773],[131.347,42.7761],[131.4306,42.8791],[131.3939,42.945],[131.4801,42.94],[131.8267,43.338],[131.9684,43.2706],[132.052,43.3148],[131.8472,43.0899],[131.9207,43.1204],[131.8865,43.0856],[131.9689,43.0816],[132.3054,43.319],[132.3562,43.286],[132.3077,43.2382],[132.3817,43.1912],[132.2911,43.0856],[132.2898,42.8864],[132.4044,42.9423],[132.6062,42.8864],[132.5779,42.8404],[132.7634,42.9081],[132.7946,42.7865],[132.9898,42.827],[133.0789,42.7498],[132.9963,42.7226],[133.0244,42.6994],[133.1681,42.6912],[134.0096,42.9438],[134.1937,43.0798],[135.139,43.5226],[135.2239,43.6446],[135.1822,43.7106],[135.2754,43.689],[135.415,43.7607],[135.5188,43.8859],[135.4636,43.8944],[135.4636,43.9497],[135.512,43.9217],[135.5413,44.004],[135.624,44.0385],[135.6559,44.1687],[135.8194,44.2906],[135.8379,44.3627],[136.1653,44.4965],[136.3546,44.7888],[136.4352,44.7791],[136.8108,45.1932],[137.6911,45.83],[138.0036,46.1396],[138.2024,46.4543],[138.3547,46.5874],[138.3431,46.6772],[138.4999,46.8743],[138.4178,46.8743],[138.6286,47.1374],[138.9288,47.3111],[139.3576,47.9278],[140.0214,48.3242],[140.1909,48.5231],[140.194,48.7204],[140.3454,49.0167],[140.3011,48.9654],[140.2192,49.0139],[140.3436,49.0471],[140.2949,49.0883],[140.3565,49.0958],[140.3457,49.2292],[140.3902,49.2751],[140.3359,49.2875],[140.4061,49.2946],[140.5579,49.5816],[140.5284,49.7308],[140.4152,49.8746],[140.6695,50.1008],[140.6006,50.0752],[140.4895,50.1795],[140.5059,50.3791],[140.4218,50.3791],[140.4429,50.5444],[140.5149,50.6171],[140.4634,50.699],[140.5445,50.818],[136.566,49.0513],[135.1521,48.6542],[134.6033,48.3899],[134.3252,48.4559],[133.4788,48.1257],[132.982,48.1257],[132.4736,47.7959],[132.0917,47.73],[132.0718,47.5982],[131.3744,47.3348],[129.9913,47.4665],[130.0413,47.5323],[126.3935,47.73],[124.5153,47.5323],[122.3748,47.0716],[120.3028,46.8086],[120.0938,46.7429],[118.9324,45.3659],[116.5207,43.3421],[115.2113,42.4962],[114.6973,42.3012],[114.4298,41.9764],[113.3906,41.2625],[112.578,40.9384],[112.4834,40.6144],[111.6837,39.8376],[111.3925,39.2557],[111.518,39.1911],[111.3761,39.0618]],[[124.3806,40.1056],[124.5282,40.2141],[124.5487,40.2209],[124.3806,40.1056]],[[130.4759,42.6029],[130.4842,42.61],[130.5014,42.6108],[130.4759,42.6029]],[[130.5308,42.5305],[130.5818,42.4417],[130.5756,42.4457],[130.5308,42.5305]]],[[[121.2655,39.4311],[121.2928,39.3905],[121.3643,39.4455],[121.3363,39.385],[121.4328,39.385],[121.4505,39.4503],[121.3406,39.4813],[121.2655,39.4311]]],[[[124.8696,39.5805],[124.8697,39.5789],[124.9222,39.5711],[124.9097,39.5936],[124.9267,39.6048],[124.8805,39.6125],[124.8705,39.5809],[124.8696,39.5805]]],[[[124.9002,38.4957],[124.904,38.4944],[124.9016,38.4984],[124.9002,38.4957]]],[[[125.2673,37.7115],[125.2957,37.7276],[125.3377,37.7687],[125.3288,37.7667],[125.2887,37.7526],[125.2673,37.7115]]],[[[126.1448,34.3928],[126.1911,34.3577],[126.3359,34.4035],[126.3801,34.4984],[126.2837,34.5656],[126.1448,34.3928]]],[[[126.2225,34.9316],[126.2254,34.9134],[126.2464,34.9162],[126.2532,34.9335],[126.2226,34.932],[126.2225,34.9316]]],[[[126.2469,34.8614],[126.3617,34.8374],[126.2974,34.9175],[126.2469,34.8614]]],[[[126.2581,35.025],[126.2611,35.0246],[126.2601,35.0301],[126.2581,35.025]]],[[[126.282,37.6993],[126.3788,37.6787],[126.32,37.7472],[126.282,37.6993]]],[[[126.3098,37.7631],[126.3182,37.7623],[126.3359,37.7744],[126.3425,37.7921],[126.3333,37.8004],[126.3295,37.8006],[126.3098,37.7631]]],[[[126.367,37.7272],[126.3917,37.6154],[126.542,37.631],[126.5164,37.7672],[126.4253,37.8244],[126.367,37.7272]]],[[[126.5519,37.4803],[126.5831,37.4904],[126.5672,37.5097],[126.5519,37.4803]]],[[[126.645,34.3434],[126.7238,34.3662],[126.6702,34.4006],[126.645,34.3434]]],[[[126.7532,34.3869],[126.8512,34.4032],[126.823,34.4398],[126.7532,34.3869]]],[[[127.1792,34.4834],[127.2197,34.4283],[127.2287,34.4302],[127.2419,34.4455],[127.2451,34.4641],[127.2342,34.4803],[127.1792,34.4834]]],[[[127.8294,34.869],[127.8579,34.7436],[128.0656,34.7436],[128.0696,34.815],[127.9199,34.8354],[127.9021,34.94],[127.8294,34.869]]],[[[127.9636,34.8598],[128.0747,34.8366],[128.0178,34.9166],[127.9636,34.8598]]],[[[128.332,34.8257],[128.3801,34.8104],[128.3718,34.8003],[128.4257,34.7905],[128.439,34.7939],[128.438,34.8196],[128.4282,34.8274],[128.3858,34.8201],[128.3518,34.8354],[128.332,34.8257]]],[[[128.4885,34.869],[128.5288,34.8081],[128.6045,34.8354],[128.5631,34.7656],[128.6789,34.7447],[128.7472,34.8746],[128.7207,34.9797],[128.611,34.9528],[128.6455,34.8907],[128.4885,34.869]]],[[[130.8155,42.6342],[130.8831,42.6027],[130.9035,42.6248],[130.8895,42.6386],[130.8386,42.643],[130.8155,42.6342]]],[[[132.4215,42.8864],[132.4418,42.8864],[132.4392,42.892],[132.4275,42.8959],[132.4215,42.8864]]]]}},{"type":"Feature","properties":{"relationId":"cliopatria-relation-26486088df48","name":"(Allegiance of Goryeo to Great Jin)","name_ko":"고려–금나라 충성·복속 관계","relationKind":"allegiance","relation_kind_ko":"충성·복속 관계","actor_ids":"cliopatria-q28208-df583e1cbe;cliopatria-q5066-7c1c22de7a","actor_names_ko":"고려;금나라","color":"#e7b763","startYear":1139,"endYear":1205,"source_name":"Cliopatria v0.2.0","source_url":"https://github.com/Seshat-Global-History-Databank/cliopatria","license":"CC BY 4.0","attribution":"Seshat Global History Databank, Cliopatria contributors"},"geometry":{"type":"MultiPolygon","coordinates":[[[[103.4972,34.615],[104.0127,34.5506],[104.6399,34.1647],[105.0246,34.1647],[105.2503,34.3577],[105.5824,34.422],[106.2316,34.1004],[106.2605,33.9718],[106.8516,33.9075],[107.0871,33.7146],[108.3446,33.5859],[108.6803,33.4574],[109.2174,33.4574],[109.7508,33.6502],[110.1347,33.6502],[110.4641,33.9075],[110.7965,33.9718],[111.1558,33.9075],[111.2617,33.5859],[111.544,33.5217],[111.7523,33.2645],[113.5452,32.943],[114.5407,32.943],[115.3819,33.1359],[115.893,33.0716],[116.1993,33.2645],[116.8127,33.2645],[118.8192,34.0361],[119.6929,34.5284],[119.5317,34.6157],[119.4422,34.746],[119.3467,34.7808],[119.1922,34.7182],[119.1929,35.0004],[119.2212,35.064],[119.358,35.0971],[119.4239,35.3135],[119.5319,35.3586],[119.648,35.5839],[119.7325,35.6208],[119.7439,35.5759],[119.8401,35.6579],[119.8602,35.6061],[119.9046,35.6246],[119.9082,35.7449],[120.0029,35.7278],[120.0972,35.9008],[120.189,35.9453],[120.1753,35.89],[120.2941,36.0024],[120.1753,35.9936],[120.0897,36.1117],[120.0972,36.2264],[120.2845,36.176],[120.3064,36.2742],[120.3616,36.1916],[120.292,36.062],[120.3535,36.0408],[120.6278,36.1165],[120.6836,36.2056],[120.6436,36.3225],[120.7107,36.3245],[120.7141,36.4287],[120.95,36.4592],[120.9636,36.5479],[120.8504,36.6046],[120.7503,36.5408],[120.7506,36.6168],[120.8506,36.6509],[120.9774,36.5899],[121.4017,36.7124],[121.4595,36.8287],[121.6072,36.845],[121.5032,36.7886],[121.5247,36.7543],[121.9498,36.9389],[121.9263,36.9936],[122.0872,36.9326],[122.1661,37.0141],[122.1627,36.9458],[122.2659,36.898],[122.1969,36.898],[122.1853,36.8499],[122.2921,36.8285],[122.4364,36.8707],[122.4058,36.9222],[122.5299,36.9229],[122.5373,37.0122],[122.4024,37.0215],[122.4539,37.1543],[122.4707,37.1103],[122.5779,37.2553],[122.5497,37.3198],[122.5947,37.2952],[122.5708,37.3448],[122.6861,37.41],[122.2965,37.4182],[122.2454,37.4597],[122.1832,37.4182],[122.1218,37.5627],[122.0256,37.528],[121.988,37.4256],[121.635,37.4813],[121.5874,37.4536],[121.6761,37.4392],[121.5703,37.4287],[121.3817,37.5661],[121.4298,37.5969],[121.3936,37.6225],[121.1554,37.5826],[121.138,37.7012],[121.0326,37.7104],[120.8777,37.8297],[120.2157,37.6841],[120.3225,37.6324],[120.1876,37.5118],[119.8589,37.3602],[119.8973,37.2494],[119.7706,37.1518],[119.4412,37.1206],[119.1455,37.1789],[118.9724,37.2807],[118.9446,37.3781],[119.0371,37.7221],[119.1746,37.7085],[119.2164,37.794],[118.9966,37.9631],[118.9248,38.0578],[118.95,38.0973],[118.7604,38.1551],[118.543,38.0683],[118.0652,38.1431],[117.6025,38.4806],[117.5435,38.6213],[117.584,38.8116],[117.7474,39.071],[117.7154,39.1114],[118.028,39.2198],[118.2249,39.0618],[118.4054,39.0618],[118.5271,39.1492],[118.9894,39.1911],[119.2304,39.3617],[119.2814,39.575],[119.2293,39.536],[119.2086,39.5696],[119.2849,39.5954],[119.3804,39.7729],[119.5264,39.832],[119.5356,39.8908],[120.4722,40.2145],[120.5018,40.3269],[120.5888,40.3818],[120.5457,40.4024],[120.8253,40.674],[121.02,40.7192],[120.9395,40.7405],[120.9819,40.8268],[121.0684,40.8034],[121.2003,40.9307],[121.7565,40.8736],[121.8679,40.9958],[121.8259,40.9482],[121.8511,40.8323],[122.1594,40.7016],[122.1573,40.5993],[122.3019,40.5023],[122.1061,40.3101],[122.0916,40.2272],[121.9915,40.187],[121.9957,40.1239],[121.8269,40.0225],[121.8738,39.9914],[121.4811,39.8139],[121.4634,39.7435],[121.5501,39.6787],[121.5333,39.6223],[121.4639,39.6458],[121.2234,39.5286],[121.436,39.5086],[121.4976,39.385],[121.943,39.3994],[121.7798,39.3715],[121.628,39.2704],[121.5926,39.1922],[121.681,39.1364],[121.6741,39.088],[121.1399,38.9473],[121.1456,38.7389],[121.2367,38.7985],[121.485,38.8099],[121.7247,39.0302],[122.0423,39.0597],[122.115,39.2008],[122.29,39.351],[122.8486,39.6179],[122.9641,39.6116],[123.0091,39.6805],[123.2609,39.7172],[123.2042,39.7451],[123.2654,39.7541],[123.252,39.8171],[123.3141,39.7761],[123.4171,39.8245],[123.4112,39.771],[123.6085,39.836],[123.6567,39.9195],[123.6431,39.8786],[123.773,39.8183],[124.1182,39.8332],[124.2942,39.9338],[124.3702,40.0979],[124.4996,40.0225],[124.4058,40.0278],[124.3215,39.9127],[124.4177,39.8245],[124.5641,39.8143],[124.6436,39.6677],[124.7557,39.6883],[124.7461,39.7829],[125.117,39.5659],[125.2252,39.5912],[125.286,39.5212],[125.4449,39.5844],[125.3452,39.4537],[125.4592,39.3851],[125.4046,39.3647],[125.4449,39.3106],[125.4109,39.2138],[125.2874,39.1523],[125.2841,39.0896],[125.3351,39.0834],[125.2708,39.0806],[125.1986,38.9861],[125.1372,38.8035],[125.1883,38.7386],[125.241,38.7931],[125.2777,38.7033],[125.4478,38.7772],[125.6578,38.631],[125.4627,38.7073],[125.1566,38.6317],[125.1229,38.6641],[125.128,38.5803],[124.9839,38.5919],[125.0164,38.498],[124.8797,38.3452],[124.8723,38.2576],[124.993,38.227],[124.9209,38.1894],[124.856,38.227],[124.7681,38.1017],[124.8853,38.1317],[125.2649,38.0779],[125.2463,38.0201],[125.1067,38.0346],[125.1754,37.9699],[124.9795,37.9252],[125.2151,37.8913],[125.26,37.9327],[125.3084,37.8781],[125.2542,37.8346],[125.3084,37.8091],[125.3494,37.8644],[125.4449,37.8433],[125.3836,37.8918],[125.4244,37.9122],[125.5101,37.8943],[125.4791,37.8576],[125.5242,37.8178],[125.3899,37.7961],[125.4449,37.7744],[125.3638,37.7609],[125.3475,37.6756],[125.5343,37.7722],[125.6387,37.8647],[125.6306,37.9252],[125.7398,37.9252],[125.5969,38.0322],[125.7993,37.9929],[125.9216,37.8449],[125.9862,37.8228],[125.9595,37.9122],[126.0558,37.8706],[126.0628,37.8022],[126.3977,37.8918],[126.5933,37.7744],[126.7,37.8297],[126.6788,37.6863],[126.7552,37.6379],[126.6615,37.6724],[126.6619,37.758],[126.5349,37.7682],[126.6011,37.5068],[126.6442,37.5044],[126.596,37.4397],[126.6418,37.366],[126.7172,37.3838],[126.6898,37.3325],[126.8707,37.2679],[126.782,37.2202],[126.6901,37.2617],[126.719,37.2129],[126.6688,37.1618],[126.7144,37.128],[126.8707,37.1755],[126.7645,37.1177],[126.7552,37.0488],[126.8491,37.0373],[126.8905,37.0959],[126.911,37.0141],[126.8244,37.0026],[126.9127,36.9296],[127.0394,36.982],[126.8602,36.8696],[126.9048,36.8223],[126.8633,36.8291],[126.8508,36.754],[126.8302,36.9102],[126.782,36.8912],[126.7578,36.9822],[126.665,36.9885],[126.6311,36.9116],[126.6261,36.9961],[126.5067,37.0352],[126.5826,36.898],[126.5191,36.9479],[126.4839,36.8415],[126.4454,37.0034],[126.353,37],[126.4192,36.9223],[126.4046,36.857],[126.3287,36.847],[126.3567,36.7888],[126.2827,36.8037],[126.3089,36.9669],[126.2752,36.8747],[126.1922,36.8859],[126.2134,36.7813],[126.1656,36.8161],[126.1282,36.7613],[126.1449,36.7178],[126.2026,36.7424],[126.1911,36.6762],[126.2742,36.7199],[126.2949,36.6212],[126.343,36.7404],[126.3697,36.6468],[126.4796,36.7471],[126.4977,36.4484],[126.6174,36.4735],[126.4988,36.4201],[126.5826,36.353],[126.5138,36.3227],[126.5826,36.2947],[126.5349,36.2196],[126.6033,36.1718],[126.4934,36.1308],[126.5894,36.1308],[126.6925,35.9999],[126.8707,36.062],[126.6517,35.9817],[126.6128,35.902],[126.8375,35.8933],[126.7034,35.8485],[126.782,35.7602],[126.6622,35.793],[126.5018,35.6634],[126.476,35.5958],[126.655,35.5958],[126.6925,35.5344],[126.6429,35.5728],[126.4927,35.5253],[126.4182,35.394],[126.4585,35.3454],[126.3807,35.3271],[126.3389,35.2367],[126.4524,35.1003],[126.4251,35.0198],[126.343,35.157],[126.2745,35.0679],[126.3741,35.0168],[126.3152,34.9379],[126.4364,34.9814],[126.3953,34.8271],[126.5133,34.7823],[126.5676,34.9014],[126.5758,34.8218],[126.6653,34.8081],[126.4207,34.7361],[126.6236,34.63],[126.5357,34.6232],[126.3994,34.7096],[126.3861,34.6358],[126.4646,34.5847],[126.3536,34.6526],[126.3001,34.586],[126.3909,34.5338],[126.5396,34.563],[126.4659,34.4724],[126.5231,34.3081],[126.7269,34.433],[126.7778,34.5865],[126.8098,34.4512],[126.898,34.4177],[127.0103,34.6125],[127.2481,34.7665],[127.3579,34.6982],[127.3145,34.6519],[127.2747,34.7051],[127.2467,34.5837],[127.1929,34.5748],[127.2134,34.6369],[127.1297,34.5506],[127.1792,34.5133],[127.2235,34.5468],[127.3436,34.445],[127.4392,34.5407],[127.3494,34.5858],[127.5036,34.5913],[127.3579,34.7597],[127.4255,34.8007],[127.3653,34.824],[127.5213,34.8898],[127.5845,34.7462],[127.5608,34.6622],[127.6243,34.6296],[127.6563,34.7313],[127.7425,34.7293],[127.7756,34.8491],[127.6565,34.8119],[127.5753,34.9136],[127.6621,34.9068],[127.7192,34.9901],[127.8912,34.9467],[127.9258,35.0198],[128.0068,34.9918],[128.0693,35.0825],[128.0557,34.9316],[128.3351,34.9473],[128.3408,34.8727],[128.4353,34.8432],[128.4745,34.8907],[128.433,34.8907],[128.42,34.9827],[128.4915,34.9959],[128.4881,35.0512],[128.3714,35.0136],[128.4781,35.0991],[128.6363,35.0653],[128.6021,35.2139],[128.6179,35.1433],[128.762,35.0794],[128.8979,35.1213],[128.9184,35.0819],[128.958,35.1369],[128.9531,35.0653],[129.1235,35.1008],[129.2692,35.3168],[129.3609,35.3587],[129.3735,35.5328],[129.4129,35.4721],[129.4546,35.5133],[129.4431,35.6361],[129.5873,36.0169],[129.5548,36.0825],[129.4533,35.9933],[129.3809,36.0415],[129.4294,36.0952],[129.3866,36.3227],[129.4739,36.7306],[129.4302,37.0731],[129.0112,37.7255],[128.6316,38.145],[128.3596,38.6787],[128.0147,38.8581],[127.7593,39.117],[127.3934,39.2017],[127.3919,39.3419],[127.4734,39.3476],[127.3784,39.3789],[127.5413,39.4287],[127.5204,39.5105],[127.5746,39.595],[127.5122,39.6495],[127.5208,39.747],[128.0068,40.0452],[128.1551,40.0163],[128.2634,40.0771],[128.3278,40.0282],[128.6461,40.2609],[128.6365,40.3132],[129.0776,40.4726],[129.2335,40.7057],[129.7339,40.8654],[129.7649,40.9444],[129.7119,41.1226],[129.795,41.3474],[129.6594,41.4646],[129.6488,41.5494],[129.7823,41.7816],[130.073,42.0785],[130.1388,42.0819],[130.2942,42.237],[130.4043,42.2551],[130.4075,42.3246],[130.6054,42.3012],[130.8423,42.5583],[130.7295,42.5792],[130.6567,42.6641],[130.8255,42.6993],[130.787,42.6538],[130.9509,42.6262],[131.1057,42.6683],[131.2072,42.6262],[131.2731,42.7773],[131.347,42.7761],[131.4306,42.8791],[131.3939,42.945],[131.4801,42.94],[131.8267,43.338],[131.9684,43.2706],[132.052,43.3148],[131.8472,43.0899],[131.9207,43.1204],[131.8865,43.0856],[131.9689,43.0816],[132.3054,43.319],[132.3562,43.286],[132.3077,43.2382],[132.3817,43.1912],[132.2911,43.0856],[132.2898,42.8864],[132.4044,42.9423],[132.6062,42.8864],[132.5779,42.8404],[132.7634,42.9081],[132.7946,42.7865],[132.9898,42.827],[133.0789,42.7498],[132.9963,42.7226],[133.0244,42.6994],[133.1681,42.6912],[134.0096,42.9438],[134.1937,43.0798],[135.139,43.5226],[135.2239,43.6446],[135.1822,43.7106],[135.2754,43.689],[135.415,43.7607],[135.5188,43.8859],[135.4636,43.8944],[135.4636,43.9497],[135.512,43.9217],[135.5413,44.004],[135.624,44.0385],[135.6559,44.1687],[135.8194,44.2906],[135.8379,44.3627],[136.1653,44.4965],[136.3546,44.7888],[136.4352,44.7791],[136.8108,45.1932],[137.6911,45.83],[138.0036,46.1396],[138.2024,46.4543],[138.3547,46.5874],[138.3431,46.6772],[138.4999,46.8743],[138.4178,46.8743],[138.6286,47.1374],[138.9288,47.3111],[139.3576,47.9278],[140.0214,48.3242],[140.1909,48.5231],[140.194,48.7204],[140.3454,49.0167],[140.3011,48.9654],[140.2192,49.0139],[140.3436,49.0471],[140.2949,49.0883],[140.3565,49.0958],[140.3457,49.2292],[140.3902,49.2751],[140.3359,49.2875],[140.4061,49.2946],[140.5579,49.5816],[140.5284,49.7308],[140.4152,49.8746],[140.6695,50.1008],[140.6006,50.0752],[140.4895,50.1795],[140.5059,50.3791],[140.4218,50.3791],[140.4429,50.5444],[140.5149,50.6171],[140.4634,50.699],[140.5445,50.818],[136.566,49.0513],[135.1521,48.6542],[134.6033,48.3899],[134.3252,48.4559],[133.4788,48.1257],[132.982,48.1257],[132.4736,47.7959],[132.0917,47.73],[132.0718,47.5982],[131.3744,47.3348],[129.9913,47.4665],[130.0413,47.5323],[126.3935,47.73],[124.5153,47.5323],[122.3748,47.0716],[120.3028,46.8086],[120.0938,46.7429],[118.9324,45.3659],[116.5207,43.3421],[115.2113,42.4962],[114.6973,42.3012],[114.4298,41.9764],[113.3906,41.2625],[112.578,40.9384],[112.4834,40.6144],[111.6837,39.8376],[111.3925,39.2557],[111.518,39.1911],[111.1562,38.9326],[111.0186,38.4806],[110.6748,38.416],[110.3979,38.1578],[108.8434,37.8352],[108.745,37.9643],[107.9718,38.1578],[107.9029,38.3515],[107.5113,38.3515],[107.4426,38.5451],[106.8154,38.5451],[106.1647,37.9643],[105.433,37.8998],[104.619,37.6417],[104.5917,37.5773],[104.8258,37.5773],[104.7204,37.5128],[104.744,37.3838],[105.0832,37.4483],[105.8047,37.126],[105.8555,37.0615],[105.6969,36.8682],[105.8768,36.7393],[105.8237,36.6105],[106.0802,36.2884],[105.7438,35.8377],[103.9952,35.3227],[103.6656,35.0653],[103.4972,34.615]],[[124.3806,40.1056],[124.5282,40.2141],[124.5487,40.2209],[124.3806,40.1056]],[[130.4759,42.6029],[130.4842,42.61],[130.5014,42.6108],[130.4759,42.6029]],[[130.5308,42.5305],[130.5818,42.4417],[130.5756,42.4457],[130.5308,42.5305]]],[[[120.7502,37.8986],[120.7546,37.8967],[120.7549,37.8996],[120.7538,37.8998],[120.7502,37.8986]]],[[[121.2655,39.4311],[121.2928,39.3905],[121.3643,39.4455],[121.3363,39.385],[121.4328,39.385],[121.4505,39.4503],[121.3406,39.4813],[121.2655,39.4311]]],[[[124.8696,39.5805],[124.8697,39.5789],[124.9222,39.5711],[124.9097,39.5936],[124.9267,39.6048],[124.8805,39.6125],[124.8705,39.5809],[124.8696,39.5805]]],[[[124.9002,38.4957],[124.904,38.4944],[124.9016,38.4984],[124.9002,38.4957]]],[[[125.2673,37.7115],[125.2957,37.7276],[125.3377,37.7687],[125.3288,37.7667],[125.2887,37.7526],[125.2673,37.7115]]],[[[126.1448,34.3928],[126.1911,34.3577],[126.3359,34.4035],[126.3801,34.4984],[126.2837,34.5656],[126.1448,34.3928]]],[[[126.2225,34.9316],[126.2254,34.9134],[126.2464,34.9162],[126.2532,34.9335],[126.2226,34.932],[126.2225,34.9316]]],[[[126.2469,34.8614],[126.3617,34.8374],[126.2974,34.9175],[126.2469,34.8614]]],[[[126.2581,35.025],[126.2611,35.0246],[126.2601,35.0301],[126.2581,35.025]]],[[[126.282,37.6993],[126.3788,37.6787],[126.32,37.7472],[126.282,37.6993]]],[[[126.3098,37.7631],[126.3182,37.7623],[126.3359,37.7744],[126.3425,37.7921],[126.3333,37.8004],[126.3295,37.8006],[126.3098,37.7631]]],[[[126.367,37.7272],[126.3917,37.6154],[126.542,37.631],[126.5164,37.7672],[126.4253,37.8244],[126.367,37.7272]]],[[[126.5519,37.4803],[126.5831,37.4904],[126.5672,37.5097],[126.5519,37.4803]]],[[[126.645,34.3434],[126.7238,34.3662],[126.6702,34.4006],[126.645,34.3434]]],[[[126.7532,34.3869],[126.8512,34.4032],[126.823,34.4398],[126.7532,34.3869]]],[[[127.1792,34.4834],[127.2197,34.4283],[127.2287,34.4302],[127.2419,34.4455],[127.2451,34.4641],[127.2342,34.4803],[127.1792,34.4834]]],[[[127.8294,34.869],[127.8579,34.7436],[128.0656,34.7436],[128.0696,34.815],[127.9199,34.8354],[127.9021,34.94],[127.8294,34.869]]],[[[127.9636,34.8598],[128.0747,34.8366],[128.0178,34.9166],[127.9636,34.8598]]],[[[128.332,34.8257],[128.3801,34.8104],[128.3718,34.8003],[128.4257,34.7905],[128.439,34.7939],[128.438,34.8196],[128.4282,34.8274],[128.3858,34.8201],[128.3518,34.8354],[128.332,34.8257]]],[[[128.4885,34.869],[128.5288,34.8081],[128.6045,34.8354],[128.5631,34.7656],[128.6789,34.7447],[128.7472,34.8746],[128.7207,34.9797],[128.611,34.9528],[128.6455,34.8907],[128.4885,34.869]]],[[[130.8155,42.6342],[130.8831,42.6027],[130.9035,42.6248],[130.8895,42.6386],[130.8386,42.643],[130.8155,42.6342]]],[[[132.4215,42.8864],[132.4418,42.8864],[132.4392,42.892],[132.4275,42.8959],[132.4215,42.8864]]]]}},{"type":"Feature","properties":{"relationId":"cliopatria-relation-41786bfa202e","name":"(Allegiance of Southern Song to Great Jin)","name_ko":"남송–금나라 충성·복속 관계","relationKind":"allegiance","relation_kind_ko":"충성·복속 관계","actor_ids":"cliopatria-q1147043-5fe80b4176;cliopatria-q5066-7c1c22de7a","actor_names_ko":"남송;금나라","color":"#e7b763","startYear":1139,"endYear":1205,"source_name":"Cliopatria v0.2.0","source_url":"https://github.com/Seshat-Global-History-Databank/cliopatria","license":"CC BY 4.0","attribution":"Seshat Global History Databank, Cliopatria contributors"},"geometry":{"type":"MultiPolygon","coordinates":[[[[108.6586,18.8016],[108.7107,18.4997],[109.136,18.3612],[109.1796,18.2932],[109.7249,18.2219],[109.7393,18.2587],[109.6704,18.273],[109.7318,18.273],[109.7461,18.3959],[110.0232,18.4307],[110.0825,18.4778],[110.0342,18.5119],[110.0881,18.5043],[110.2708,18.6682],[110.4035,18.7038],[110.3352,18.6733],[110.4035,18.6628],[110.469,18.7772],[110.5344,18.7856],[110.5034,18.8819],[110.4928,18.7931],[110.4315,18.8215],[110.5134,18.9064],[110.5823,19.1501],[110.5549,19.0873],[110.4792,19.1693],[110.5803,19.1552],[110.6697,19.3817],[110.7962,19.4846],[110.7944,19.6013],[110.8477,19.6225],[110.8218,19.5678],[110.8765,19.5398],[111.0347,19.6422],[110.9346,19.9951],[110.7883,20.0104],[110.6706,20.1505],[110.6056,20.1076],[110.6058,19.9232],[110.5276,20.0202],[110.3766,20.0538],[110.4109,19.9234],[110.3447,20.0581],[110.157,20.0674],[110.0682,19.9848],[110.1496,20.0066],[110.1227,19.9743],[109.9901,19.906],[109.9426,19.9909],[109.8355,19.9309],[109.8159,19.9912],[109.7181,19.9575],[109.719,20.0106],[109.527,19.9514],[109.5202,19.8825],[109.5817,19.8557],[109.465,19.8341],[109.3114,19.9195],[109.2551,19.8983],[109.2111,19.7497],[109.3074,19.7869],[109.3074,19.7111],[109.2112,19.7248],[108.9448,19.492],[108.7042,19.3779],[108.6586,18.8016]]],[[[109.9686,18.4035],[109.9734,18.4059],[109.9686,18.4055],[109.9686,18.4035]]],[[[100.9202,30.565],[100.9962,30.565],[100.9394,30.3722],[101.0153,30.3722],[100.9592,30.1794],[101.0553,29.9865],[100.9824,29.7294],[101.0581,29.7294],[101.062,29.4723],[101.1956,29.4081],[101.2417,29.0224],[101.4411,28.6367],[101.6205,27.8652],[101.6958,27.8652],[101.6137,26.9009],[101.6889,26.9009],[101.6591,26.7723],[102.1405,26.5794],[102.1898,26.1294],[102.6397,26.1294],[102.9078,26.3222],[103.2829,26.3222],[103.4622,26.4508],[103.2882,27.6081],[103.3204,27.7367],[103.4548,27.6724],[103.6379,27.8009],[103.9635,28.1867],[103.9973,28.3153],[103.8635,28.3795],[103.9905,28.5724],[104.6351,28.4438],[104.2569,27.8652],[104.4335,27.6724],[104.617,27.8009],[105.1276,27.7367],[105.5126,28.0581],[105.5231,28.3795],[106.1441,28.4438],[106.2426,28.251],[106.1327,28.1224],[106.2081,28.1224],[106.1818,27.7367],[106.4591,27.3509],[106.6096,27.3509],[106.9048,27.0295],[107.9089,26.8366],[107.9651,26.4508],[108.2498,26.3865],[108.2638,26.1294],[108.3388,26.1294],[107.8582,23.8792],[107.4482,23.6863],[106.7023,23.6863],[106.2791,23.8149],[106.0816,23.5577],[105.7087,23.5577],[105.5359,23.4291],[105.5008,23.2363],[105.7526,22.9791],[106.1995,22.9791],[106.3254,22.8506],[106.7093,22.9148],[106.7722,22.8506],[106.607,22.3363],[106.7113,22.0791],[107.2398,21.6934],[107.4627,21.6934],[107.5894,21.5648],[107.9719,21.6291],[108.0711,21.5366],[108.2383,21.6439],[108.2449,21.5211],[108.314,21.5819],[108.3413,21.7258],[108.471,21.6713],[108.3897,21.5751],[108.471,21.562],[108.5654,21.6785],[108.4778,21.6986],[108.5051,21.7879],[108.458,21.9177],[108.4915,21.8563],[108.5733,21.9518],[108.5603,21.8955],[108.6355,21.8903],[108.5714,21.8128],[108.5945,21.7402],[108.677,21.8153],[108.6492,21.7333],[108.7249,21.7464],[108.7127,21.6884],[108.8371,21.666],[108.7796,21.7258],[108.8347,21.7258],[108.8326,21.7838],[108.7796,21.8153],[108.8614,21.8153],[108.8695,21.7538],[108.9241,21.7668],[108.8655,21.7397],[108.8695,21.6713],[109.1358,21.603],[109.1387,21.4016],[109.2146,21.4174],[109.2388,21.4857],[109.245,21.4316],[109.5308,21.4916],[109.5728,21.5817],[109.4647,21.6645],[109.5945,21.7464],[109.5609,21.6713],[109.6155,21.6501],[109.608,21.5751],[109.677,21.6234],[109.6497,21.5205],[109.7698,21.4936],[109.7732,21.5819],[109.8312,21.4759],[109.9444,21.4931],[109.9241,21.3628],[109.8466,21.3582],[109.696,20.8577],[109.7702,20.8577],[109.7869,20.6911],[109.8604,20.7155],[109.7806,20.685],[109.8211,20.5546],[109.8482,20.5956],[109.8227,20.5207],[109.9232,20.451],[109.9309,20.5063],[110.0155,20.4184],[109.9824,20.3515],[109.9174,20.4171],[109.9172,20.2393],[110.0379,20.3017],[110.1275,20.248],[110.2939,20.2585],[110.4068,20.3052],[110.5342,20.4783],[110.4789,20.5677],[110.3008,20.6571],[110.3418,20.8215],[110.3565,20.7323],[110.4094,20.751],[110.369,20.8489],[110.1567,20.8489],[110.1431,20.9923],[110.1956,21.0713],[110.2188,21.0276],[110.3994,21.1766],[110.3281,21.3355],[110.3895,21.3287],[110.3585,21.4357],[110.4373,21.3975],[110.4339,21.3088],[110.4863,21.3355],[110.4448,21.3076],[110.4789,21.2734],[110.4243,21.2877],[110.4312,21.1915],[110.6365,21.2302],[110.6356,21.381],[110.76,21.4447],[110.6365,21.3703],[110.6433,21.3218],[110.6776,21.3485],[110.6509,21.2604],[110.7682,21.3975],[110.8699,21.3832],[111.0686,21.4726],[110.9797,21.4447],[111.0276,21.5409],[111.1436,21.4658],[111.2263,21.4993],[111.158,21.5136],[111.1924,21.5312],[111.3108,21.4671],[111.4043,21.5267],[111.3628,21.5412],[111.438,21.5341],[111.4322,21.603],[111.4761,21.5136],[111.5956,21.5341],[111.5819,21.5819],[111.6305,21.5299],[111.7796,21.6754],[111.6781,21.7812],[111.8351,21.7668],[111.8325,21.7233],[112.0003,21.7743],[111.9041,21.8153],[111.8904,21.9251],[111.9692,21.824],[112.0413,21.8842],[112.0282,21.7973],[112.1926,21.8432],[112.1824,21.753],[112.2902,21.7101],[112.4021,21.8014],[112.3565,21.9797],[112.3975,22.0685],[112.3906,21.9555],[112.4937,21.9661],[112.4111,21.9012],[112.426,21.8452],[112.5509,21.7729],[112.826,21.9661],[112.8752,21.8863],[112.9665,21.8863],[113.0851,22.2076],[113.1164,22.076],[113.2306,22.0432],[113.3027,22.1833],[113.402,22.1796],[113.1602,22.4876],[113.1653,22.5756],[113.4592,22.158],[113.5877,22.2379],[113.6104,22.3702],[113.5464,22.4376],[113.5992,22.5752],[113.3775,22.7674],[113.4942,22.7748],[113.3504,22.8897],[113.213,22.9045],[113.484,22.9243],[113.5023,23.0204],[113.4175,23.097],[113.5091,23.0622],[113.7031,23.1578],[113.8301,23.1175],[113.7202,23.1379],[113.5364,23.0631],[113.5762,22.9387],[113.6172,23.0349],[113.5967,22.9182],[113.6382,23.0349],[113.5923,22.8891],[113.6536,22.7587],[113.7581,22.7534],[113.8695,22.5034],[114.0915,22.5344],[113.9808,22.4695],[113.9969,22.3606],[114.1048,22.3699],[114.1719,22.2887],[114.2555,22.3223],[114.2967,22.2583],[114.2584,22.3621],[114.3186,22.3894],[114.3576,22.3324],[114.3997,22.4361],[114.3476,22.4229],[114.3237,22.48],[114.2093,22.3987],[114.1675,22.4481],[114.3351,22.5064],[114.2093,22.5237],[114.2298,22.5558],[114.3958,22.6135],[114.5158,22.4526],[114.6049,22.5327],[114.4954,22.562],[114.5903,22.6439],[114.5066,22.6465],[114.5221,22.706],[114.6955,22.7926],[114.817,22.8004],[114.742,22.7327],[114.7438,22.6094],[114.8658,22.6017],[114.896,22.5475],[114.9666,22.6765],[114.8625,22.7632],[114.9853,22.6893],[115.0655,22.796],[115.1803,22.7848],[115.3038,22.903],[115.3202,22.8505],[115.2334,22.7882],[115.4112,22.7883],[115.3385,22.7331],[115.3735,22.6942],[115.5752,22.6683],[115.5901,22.7372],[115.5556,22.7144],[115.527,22.767],[115.6121,22.8636],[115.468,22.8493],[115.483,22.9018],[115.406,22.925],[115.5476,22.8954],[115.5606,22.8493],[115.7303,22.9342],[115.697,22.8507],[115.8075,22.8033],[116.0762,22.8679],[116.0421,22.9329],[116.1237,22.8947],[116.0865,22.8458],[116.1537,22.856],[116.2815,22.9579],[116.2136,22.9828],[116.4947,22.9394],[116.6045,23.2096],[116.5089,23.2341],[116.6115,23.2387],[116.6511,23.172],[116.7151,23.2438],[116.6672,23.2813],[116.8035,23.2346],[116.7486,23.3263],[116.573,23.3237],[116.5232,23.4185],[116.7732,23.3494],[116.9165,23.6627],[116.9507,23.6109],[117.0684,23.6513],[117.0842,23.5506],[117.2192,23.6296],[117.2295,23.6928],[117.239,23.6055],[117.2774,23.7822],[117.4343,23.7759],[117.4901,23.8326],[117.4166,23.9468],[117.5711,23.9033],[117.626,23.8149],[117.7088,24.0355],[117.6671,24.0627],[117.7633,24.0703],[117.7981,24.0218],[117.76,23.9716],[117.8952,24.0696],[117.9073,24.1863],[117.9436,24.2126],[117.9788,24.1621],[118.0867,24.2497],[118.0906,24.3415],[118.0159,24.3269],[118.043,24.4067],[117.9073,24.3849],[117.7913,24.4675],[118.0217,24.4457],[118.0581,24.5159],[117.9749,24.5527],[118.0374,24.5606],[118.0444,24.6177],[118.1104,24.5841],[118.1605,24.6934],[118.219,24.5414],[118.4048,24.6066],[118.4312,24.6997],[118.4281,24.6313],[118.6471,24.5746],[118.6421,24.6787],[118.763,24.7627],[118.7018,24.81],[118.638,24.7721],[118.572,24.8852],[118.6712,24.8747],[118.6677,24.9534],[118.7295,24.9005],[118.7161,24.8436],[118.9229,24.8959],[118.9116,24.9534],[119.009,24.9473],[119.0042,25.0502],[118.9537,25.003],[118.8491,25.0738],[118.943,25.1088],[118.9746,25.1826],[118.8756,25.2438],[119.0273,25.2782],[118.9693,25.2264],[119.0689,25.2167],[119.0291,25.1405],[119.0929,25.1136],[119.1531,25.1397],[119.1161,25.2138],[119.2813,25.1794],[119.2725,25.2318],[119.3475,25.2678],[119.243,25.3302],[119.2013,25.2597],[119.2034,25.3581],[119.1732,25.3251],[119.1025,25.4203],[119.2378,25.4818],[119.3052,25.6046],[119.3809,25.5909],[119.3565,25.5269],[119.4491,25.5053],[119.447,25.4388],[119.5073,25.4744],[119.4832,25.3712],[119.5477,25.3838],[119.5386,25.4612],[119.5882,25.3966],[119.64,25.413],[119.5726,25.4879],[119.5794,25.5847],[119.4924,25.5648],[119.4491,25.6872],[119.5719,25.6802],[119.6209,25.7603],[119.5664,25.8721],[119.5999,25.8442],[119.6954,26.0026],[119.5191,26.0445],[119.3298,25.9443],[119.2468,25.9672],[119.1952,26.0876],[119.0935,26.1458],[119.4585,25.9825],[119.6682,26.2215],[119.6543,26.2724],[119.9253,26.3474],[119.8258,26.4269],[119.6819,26.3171],[119.6484,26.4374],[119.5664,26.4549],[119.6537,26.498],[119.7918,26.4133],[119.7849,26.5778],[119.6751,26.6188],[119.5999,26.5704],[119.5411,26.6563],[119.5999,26.6461],[119.606,26.6945],[119.5521,26.7491],[119.606,26.7969],[119.7249,26.6978],[119.6858,26.812],[119.7562,26.7377],[119.782,26.8285],[119.8463,26.8522],[119.7974,26.8164],[119.8401,26.79],[119.7918,26.6877],[119.8292,26.715],[119.9016,26.6597],[119.9251,26.7922],[120.0673,26.7965],[120.032,26.8999],[120.2374,26.9272],[120.1487,26.9819],[120.2552,26.9971],[120.2163,27.0371],[120.2783,27.0638],[120.2437,27.1327],[120.3618,27.1009],[120.4076,27.158],[120.3473,27.1805],[120.3473,27.2426],[120.1824,27.2169],[120.1958,27.2978],[120.3119,27.3177],[120.3031,27.2423],[120.4292,27.1737],[120.4217,27.2221],[120.5178,27.2016],[120.5493,27.321],[120.5049,27.345],[120.5459,27.4033],[120.6353,27.3797],[120.682,27.4816],[120.5966,27.5703],[120.6756,27.6597],[120.6353,27.7633],[120.7077,27.7134],[120.8408,27.9487],[120.589,28.0267],[120.5596,28.1128],[120.606,28.0422],[120.8803,27.9986],[120.9969,28.0425],[121.0689,28.1569],[121.1081,28.2834],[121.025,28.3046],[121.1138,28.3017],[121.169,28.3848],[121.2647,28.366],[121.2031,28.3319],[121.2672,28.2164],[121.4132,28.2546],[121.4731,28.3306],[121.6461,28.3235],[121.6077,28.4772],[121.5116,28.4895],[121.5816,28.5047],[121.5101,28.6571],[121.2584,28.6751],[121.2993,28.7229],[121.1423,28.8459],[121.3512,28.7119],[121.6214,28.7359],[121.6699,28.8253],[121.4918,28.9284],[121.5874,28.9631],[121.6842,28.9147],[121.6898,29.0171],[121.5321,29.0205],[121.6214,29.1133],[121.4017,29.1065],[121.5868,29.2933],[121.647,29.4723],[121.5696,29.4746],[121.4849,29.3905],[121.5049,29.4838],[121.4426,29.4154],[121.4434,29.5242],[121.6873,29.5626],[122.0074,29.8874],[121.7219,29.9605],[121.4054,30.3079],[121.1328,30.3079],[120.8088,30.1151],[120.6944,30.1721],[120.6463,30.1269],[120.7922,30.0661],[120.6318,30.1224],[120.7314,30.2338],[120.6216,30.3726],[120.4505,30.3689],[120.3847,30.2496],[120.2744,30.2776],[120.1471,30.1989],[120.2579,30.2981],[120.379,30.2735],[120.4791,30.4035],[120.6981,30.394],[120.7883,30.2938],[120.9981,30.5579],[121.5192,30.822],[121.9131,30.859],[121.9508,30.9821],[121.7252,31.2816],[121.3203,31.5048],[121.1444,31.6847],[120.7315,31.8139],[120.7171,31.8611],[120.8248,31.8287],[120.7504,31.9783],[120.4695,32.0251],[120.23,31.9089],[120.0064,31.9503],[119.7725,32.1268],[119.7886,32.1986],[119.6904,32.2353],[119.606,32.1969],[119.6854,32.2924],[119.6129,32.3546],[119.8421,32.2991],[119.992,32.0159],[120.1314,31.9432],[120.2671,31.9487],[120.4908,32.0825],[120.6344,32.077],[120.8108,32.0226],[120.9778,31.8144],[121.1151,31.7963],[121.2864,31.8906],[121.8173,31.6909],[121.9173,31.7616],[121.7986,31.9705],[121.4434,32.1143],[121.3608,32.2316],[121.4193,32.2503],[121.3894,32.3849],[121.1008,32.498],[120.8303,32.6977],[120.9048,32.8126],[120.8958,33.0136],[120.8259,33.0302],[120.807,33.1378],[120.7302,33.2049],[120.7503,33.2696],[120.6672,33.3251],[120.6344,33.4669],[120.4837,33.65],[120.5049,33.7356],[120.3997,33.8693],[120.2571,34.3118],[119.6477,34.5338],[119.4422,34.746],[119.3467,34.7808],[119.1922,34.7182],[119.1929,35.0004],[119.2212,35.064],[119.358,35.0971],[119.4239,35.3135],[119.5319,35.3586],[119.648,35.5839],[119.7325,35.6208],[119.7439,35.5759],[119.8401,35.6579],[119.8602,35.6061],[119.9046,35.6246],[119.9082,35.7449],[120.0029,35.7278],[120.0972,35.9008],[120.189,35.9453],[120.1753,35.89],[120.2941,36.0024],[120.1753,35.9936],[120.0897,36.1117],[120.0972,36.2264],[120.2845,36.176],[120.3064,36.2742],[120.3616,36.1916],[120.292,36.062],[120.3535,36.0408],[120.6278,36.1165],[120.6836,36.2056],[120.6436,36.3225],[120.7107,36.3245],[120.7141,36.4287],[120.95,36.4592],[120.9636,36.5479],[120.8504,36.6046],[120.7503,36.5408],[120.7506,36.6168],[120.8506,36.6509],[120.9774,36.5899],[121.4017,36.7124],[121.4595,36.8287],[121.6072,36.845],[121.5032,36.7886],[121.5247,36.7543],[121.9498,36.9389],[121.9263,36.9936],[122.0872,36.9326],[122.1661,37.0141],[122.1627,36.9458],[122.2659,36.898],[122.1969,36.898],[122.1853,36.8499],[122.2921,36.8285],[122.4364,36.8707],[122.4058,36.9222],[122.4985,36.9389],[122.5074,36.898],[122.5373,37.0122],[122.4024,37.0215],[122.4539,37.1543],[122.4707,37.1103],[122.5779,37.2553],[122.5497,37.3198],[122.5947,37.2952],[122.5708,37.3448],[122.6861,37.41],[122.2965,37.4182],[122.2454,37.4597],[122.1832,37.4182],[122.1218,37.5627],[122.0256,37.528],[121.988,37.4256],[121.635,37.4813],[121.5874,37.4536],[121.6761,37.4392],[121.5703,37.4287],[121.3817,37.5661],[121.4298,37.5969],[121.3936,37.6225],[121.1716,37.5771],[121.138,37.7012],[121.0326,37.7104],[120.9258,37.8193],[120.738,37.834],[120.2157,37.6841],[120.3225,37.6324],[120.1876,37.5118],[119.8589,37.3602],[119.8973,37.2494],[119.7706,37.1518],[119.4412,37.1206],[119.1455,37.1789],[118.9724,37.2807],[118.9446,37.3781],[119.0371,37.7221],[119.1746,37.7085],[119.2164,37.794],[118.9966,37.9631],[118.9248,38.0578],[118.95,38.0973],[118.7604,38.1551],[118.543,38.0683],[118.0652,38.1431],[117.6025,38.4806],[117.5435,38.6213],[117.584,38.8116],[117.7474,39.071],[117.7154,39.1114],[118.028,39.2198],[118.2249,39.0618],[118.4054,39.0618],[118.5271,39.1492],[118.9894,39.1911],[119.2304,39.3617],[119.2814,39.575],[119.2293,39.536],[119.2086,39.5696],[119.2849,39.5954],[119.3804,39.7729],[119.5264,39.832],[119.5356,39.8908],[120.4722,40.2145],[120.5018,40.3269],[120.5888,40.3818],[120.5457,40.4024],[120.8253,40.674],[121.02,40.7192],[120.9395,40.7405],[120.9819,40.8268],[121.0684,40.8034],[121.2003,40.9307],[121.7565,40.8736],[121.8679,40.9958],[121.8259,40.9482],[121.8511,40.8323],[122.1594,40.7016],[122.1573,40.5993],[122.3019,40.5023],[122.1061,40.3101],[122.0916,40.2272],[121.9915,40.187],[121.9957,40.1239],[121.8269,40.0225],[121.8738,39.9914],[121.4811,39.8139],[121.4634,39.7435],[121.5501,39.6787],[121.5333,39.6223],[121.4639,39.6458],[121.2234,39.5286],[121.436,39.5086],[121.4976,39.385],[121.943,39.3994],[121.7798,39.3715],[121.628,39.2704],[121.5926,39.1922],[121.681,39.1364],[121.6741,39.088],[121.1399,38.9473],[121.1456,38.7389],[121.2367,38.7985],[121.485,38.8099],[121.7247,39.0302],[122.0423,39.0597],[122.115,39.2008],[122.29,39.351],[122.8486,39.6179],[122.9641,39.6116],[123.0091,39.6805],[123.2609,39.7172],[123.2042,39.7451],[123.2654,39.7541],[123.252,39.8171],[123.3141,39.7761],[123.4171,39.8245],[123.4112,39.771],[123.6085,39.836],[123.6567,39.9195],[123.6431,39.8786],[123.773,39.8183],[124.1182,39.8332],[124.2942,39.9338],[124.3702,40.0979],[124.4996,40.0225],[124.4058,40.0278],[124.3215,39.9127],[124.4177,39.8245],[124.5641,39.8143],[124.6436,39.6677],[124.7557,39.6883],[124.7461,39.7829],[125.117,39.5659],[125.2252,39.5912],[125.286,39.5212],[125.4449,39.5844],[125.3452,39.4537],[125.4592,39.3851],[125.4167,39.3261],[126.7653,39.4496],[126.7283,39.385],[127.4734,39.3476],[127.3784,39.3789],[127.5412,39.429],[127.5204,39.5105],[127.5746,39.595],[127.5038,39.7155],[127.6237,39.8309],[128.0068,40.0452],[128.1551,40.0163],[128.2634,40.0771],[128.3278,40.0282],[128.6461,40.2609],[128.6365,40.3132],[129.0776,40.4726],[129.2335,40.7057],[129.7339,40.8654],[129.7649,40.9444],[129.7119,41.1226],[129.795,41.3474],[129.6594,41.4646],[129.6488,41.5494],[129.7823,41.7816],[130.073,42.0785],[130.1388,42.0819],[130.2942,42.237],[130.4043,42.2551],[130.4075,42.3246],[130.6054,42.3012],[130.8423,42.5583],[130.7295,42.5792],[130.6567,42.6641],[130.8255,42.6993],[130.787,42.6538],[130.9509,42.6262],[131.1057,42.6683],[131.2072,42.6262],[131.2731,42.7773],[131.347,42.7761],[131.4306,42.8791],[131.3939,42.945],[131.4801,42.94],[131.8267,43.338],[131.9684,43.2706],[132.052,43.3148],[131.8472,43.0899],[131.9207,43.1204],[131.8865,43.0856],[131.9689,43.0816],[132.3054,43.319],[132.3562,43.286],[132.3077,43.2382],[132.3817,43.1912],[132.2911,43.0856],[132.2898,42.8864],[132.4044,42.9423],[132.6062,42.8864],[132.5779,42.8404],[132.7634,42.9081],[132.7946,42.7865],[132.9898,42.827],[133.0789,42.7498],[132.9963,42.7226],[133.0244,42.6994],[133.1681,42.6912],[134.0096,42.9438],[134.1937,43.0798],[135.139,43.5226],[135.2239,43.6446],[135.1822,43.7106],[135.2754,43.689],[135.415,43.7607],[135.5188,43.8859],[135.4636,43.8944],[135.4636,43.9497],[135.512,43.9217],[135.5413,44.004],[135.624,44.0385],[135.6559,44.1687],[135.8194,44.2906],[135.8379,44.3627],[136.1653,44.4965],[136.3546,44.7888],[136.4352,44.7791],[136.8108,45.1932],[137.6911,45.83],[138.0036,46.1396],[138.2024,46.4543],[138.3547,46.5874],[138.3431,46.6772],[138.4999,46.8743],[138.4178,46.8743],[138.6286,47.1374],[138.9288,47.3111],[139.3576,47.9278],[140.0214,48.3242],[140.1909,48.5231],[140.194,48.7204],[140.3454,49.0167],[140.3011,48.9654],[140.2192,49.0139],[140.3436,49.0471],[140.2949,49.0883],[140.3565,49.0958],[140.3457,49.2292],[140.3902,49.2751],[140.3359,49.2875],[140.4061,49.2946],[140.5579,49.5816],[140.5284,49.7308],[140.4152,49.8746],[140.6695,50.1008],[140.6006,50.0752],[140.4895,50.1795],[140.5059,50.3791],[140.4218,50.3791],[140.4429,50.5444],[140.5149,50.6171],[140.4634,50.699],[140.5445,50.818],[136.566,49.0513],[135.1521,48.6542],[134.6033,48.3899],[134.3252,48.4559],[133.4788,48.1257],[132.982,48.1257],[132.4736,47.7959],[132.0917,47.73],[132.0718,47.5982],[131.3744,47.3348],[129.9913,47.4665],[130.0413,47.5323],[126.3935,47.73],[124.5153,47.5323],[122.3748,47.0716],[120.3028,46.8086],[120.0938,46.7429],[118.9324,45.3659],[116.5207,43.3421],[115.2113,42.4962],[114.6973,42.3012],[114.4298,41.9764],[113.3906,41.2625],[112.578,40.9384],[112.4834,40.6144],[111.6837,39.8376],[111.3925,39.2557],[111.518,39.1911],[111.1562,38.9326],[111.0186,38.4806],[110.6748,38.416],[110.3979,38.1578],[108.8434,37.8352],[108.745,37.9643],[107.9718,38.1578],[107.9029,38.3515],[107.5113,38.3515],[107.4426,38.5451],[106.8154,38.5451],[106.1647,37.9643],[105.433,37.8998],[104.619,37.6417],[104.5917,37.5773],[104.8258,37.5773],[104.7204,37.5128],[104.744,37.3838],[105.0832,37.4483],[105.8047,37.126],[105.8555,37.0615],[105.6969,36.8682],[105.8768,36.7393],[105.8237,36.6105],[106.0802,36.2884],[105.7438,35.8377],[103.9952,35.3227],[103.6656,35.0653],[103.4734,34.5506],[103.5267,34.4863],[103.3554,34.229],[103.4928,33.9718],[103.21,33.3931],[102.5516,33.2645],[101.7634,32.7502],[101.6869,32.7502],[100.9792,31.0148],[101.0553,31.0148],[100.9202,30.565]],[[114.2298,22.5558],[114.183,22.5562],[114.179,22.5593],[114.2298,22.5558]],[[107.6804,21.6222],[107.7448,21.6575],[107.6903,21.6247],[107.6804,21.6222]],[[107.7986,21.6497],[107.8116,21.6478],[107.8324,21.6394],[107.7986,21.6497]],[[114.1487,22.5381],[114.162,22.5605],[114.1695,22.56],[114.1487,22.5381]],[[124.3806,40.1056],[124.5282,40.2141],[124.5487,40.2209],[124.3806,40.1056]],[[130.4759,42.6029],[130.4842,42.61],[130.5014,42.6108],[130.4759,42.6029]],[[130.5308,42.5305],[130.5818,42.4417],[130.5756,42.4457],[130.5308,42.5305]]],[[[110.2459,20.986],[110.4322,21.0058],[110.4572,21.06],[110.2874,21.0744],[110.3352,21.0686],[110.2731,21.0611],[110.2459,20.986]]],[[[110.4177,20.6548],[110.4358,20.6385],[110.4573,20.5869],[110.4758,20.5959],[110.4714,20.6474],[110.437,20.6679],[110.4177,20.6548]]],[[[110.4177,21.1785],[110.42,21.1785],[110.4194,21.1791],[110.5587,21.1791],[110.5686,21.1915],[110.5432,21.2042],[110.4929,21.1839],[110.4634,21.1907],[110.4963,21.1952],[110.4998,21.2063],[110.4622,21.2051],[110.4177,21.1785]]],[[[110.5739,21.1791],[110.6006,21.1791],[110.617,21.1915],[110.617,21.1989],[110.594,21.2028],[110.5739,21.1791]]],[[[113.2642,22.1049],[113.3136,22.0764],[113.3648,22.1579],[113.2642,22.1049]]],[[[113.3094,22.0241],[113.3186,22.0162],[113.3689,22.0821],[113.3436,22.0685],[113.3094,22.0241]]],[[[113.3962,22.8981],[113.5946,22.7561],[113.4756,22.9007],[113.3962,22.8981]]],[[[113.4765,22.7195],[113.6418,22.6016],[113.5595,22.735],[113.4765,22.7195]]],[[[113.5058,22.9516],[113.51,22.9212],[113.545,22.88],[113.5535,22.8858],[113.5536,22.9113],[113.5292,22.9604],[113.5154,22.9692],[113.5058,22.9516]]],[[[113.5202,22.1849],[113.5247,22.1737],[113.5571,22.2025],[113.5492,22.1997],[113.5538,22.2115],[113.5365,22.2171],[113.5243,22.2126],[113.5352,22.2075],[113.5202,22.1849]]],[[[113.5322,22.1526],[113.54,22.1434],[113.5616,22.1434],[113.5741,22.1608],[113.5586,22.163],[113.5344,22.1612],[113.5322,22.1526]]],[[[113.6104,22.4133],[113.6212,22.3914],[113.6423,22.4002],[113.6424,22.4114],[113.6578,22.4238],[113.6496,22.4386],[113.6234,22.4399],[113.6118,22.4305],[113.6104,22.4133]]],[[[113.9972,22.317],[114.0189,22.2646],[114.0549,22.3363],[113.9972,22.317]]],[[[113.9975,22.265],[113.9976,22.245],[114.0073,22.2521],[113.9975,22.265]]],[[[113.9977,22.2379],[113.9978,22.2151],[114.0002,22.2161],[114.015,22.2271],[113.9977,22.2379]]],[[[114.1043,22.216],[114.1141,22.2161],[114.1108,22.1771],[114.1374,22.1788],[114.1454,22.1787],[114.1391,22.1911],[114.1546,22.2036],[114.1257,22.2052],[114.1328,22.2161],[114.1257,22.2134],[114.1067,22.2358],[114.1043,22.216]]],[[[114.1126,22.2715],[114.2561,22.2036],[114.2156,22.2856],[114.1126,22.2715]]],[[[116.9543,23.5441],[116.9953,23.5348],[117.0093,23.555],[116.9956,23.5635],[116.9543,23.5441]]],[[[117.3405,23.689],[117.3561,23.6892],[117.4185,23.758],[117.4136,23.7717],[117.3727,23.7667],[117.3767,23.7289],[117.3405,23.689]]],[[[118.07,24.4603],[118.1271,24.4312],[118.1814,24.5351],[118.0925,24.5562],[118.07,24.4603]]],[[[119.2092,26.0986],[119.2576,26.0015],[119.405,25.9779],[119.2092,26.0986]]],[[[119.2829,25.4864],[119.3354,25.4864],[119.3465,25.5667],[119.2829,25.4864]]],[[[119.2835,25.4751],[119.2969,25.4229],[119.3222,25.4329],[119.2835,25.4751]]],[[[119.554,26.0956],[119.6441,26.0784],[119.5925,26.1257],[119.554,26.0956]]],[[[119.6685,25.4879],[119.71,25.4879],[119.7,25.4319],[119.8407,25.4765],[119.7988,25.5158],[119.8745,25.5568],[119.7078,25.615],[119.7162,25.5363],[119.7783,25.522],[119.6685,25.4879]]],[[[119.7162,32.2726],[119.8193,32.2038],[119.792,32.1218],[119.9019,32.0734],[119.8143,32.2756],[119.7162,32.2726]]],[[[119.8326,26.5505],[119.886,26.5244],[119.96,26.6113],[120.1344,26.6461],[120.1021,26.6892],[120.1428,26.7328],[120.0625,26.7723],[119.8326,26.5505]]],[[[120.7502,37.8986],[120.7546,37.8967],[120.7549,37.8996],[120.7538,37.8998],[120.7502,37.8986]]],[[[121.1763,31.7843],[121.3145,31.6556],[121.8291,31.4482],[121.9135,31.4647],[121.9499,31.5592],[121.3861,31.8117],[121.2641,31.8411],[121.1763,31.7843]]],[[[121.2081,28.201],[121.257,28.2138],[121.2564,28.2148],[121.2306,28.2197],[121.2109,28.209],[121.2081,28.201]]],[[[121.2655,39.4311],[121.2928,39.3905],[121.3643,39.4455],[121.3363,39.385],[121.4328,39.385],[121.4505,39.4503],[121.3406,39.4813],[121.2655,39.4311]]],[[[121.5845,31.4414],[121.6321,31.4098],[121.6872,31.4206],[121.6182,31.4438],[121.5845,31.4414]]],[[[121.6461,31.4005],[121.78,31.3252],[121.7206,31.4005],[121.6461,31.4005]]],[[[121.6562,29.5038],[121.7273,29.5302],[121.7246,29.5385],[121.7109,29.5386],[121.6562,29.5038]]],[[[121.7116,29.2152],[121.7743,29.2539],[121.7866,29.3745],[121.8406,29.3188],[121.7903,29.2152],[121.9384,29.2152],[121.9005,29.2987],[121.971,29.4491],[121.9104,29.5246],[121.9712,29.5933],[121.9158,29.6409],[121.7484,29.5626],[121.8474,29.5242],[121.7784,29.4694],[121.7432,29.5226],[121.7116,29.2152]]],[[[121.9336,29.9213],[121.9461,29.904],[121.9741,29.8998],[121.9924,29.9083],[121.9935,29.9188],[121.9771,29.9388],[121.952,29.9467],[121.9409,29.9377],[121.9336,29.9213]]],[[[124.8696,39.5805],[124.8697,39.5789],[124.9222,39.5711],[124.9097,39.5936],[124.9267,39.6048],[124.8805,39.6125],[124.8705,39.5809],[124.8696,39.5805]]],[[[130.8155,42.6342],[130.8831,42.6027],[130.9035,42.6248],[130.8895,42.6386],[130.8386,42.643],[130.8155,42.6342]]],[[[132.4215,42.8864],[132.4418,42.8864],[132.4392,42.892],[132.4275,42.8959],[132.4215,42.8864]]],[[[121.9946,30.0372],[122.0191,29.9972],[122.2798,29.9865],[122.2768,30.0676],[122.1033,30.1437],[122.0321,30.143],[121.9946,30.0372]]]]}},{"type":"Feature","properties":{"relationId":"cliopatria-relation-1b0534c0535e","name":"(Vassalage of Western Xia to Great Jin)","name_ko":"서하–금나라 봉신 관계","relationKind":"vassalage","relation_kind_ko":"봉신 관계","actor_ids":"cliopatria-q7427-39cd1086cb;cliopatria-q5066-7c1c22de7a","actor_names_ko":"서하;금나라","color":"#ae87e8","startYear":1126,"endYear":1138,"source_name":"Cliopatria v0.2.0","source_url":"https://github.com/Seshat-Global-History-Databank/cliopatria","license":"CC BY 4.0","attribution":"Seshat Global History Databank, Cliopatria contributors"},"geometry":{"type":"MultiPolygon","coordinates":[[[[96.2117,39.4496],[96.2905,39.4496],[96.2337,39.1265],[96.5482,39.1265],[96.6785,39.0618],[96.6248,38.9326],[96.9659,38.9972],[97.7207,38.5451],[98.3996,38.4806],[98.5815,38.3515],[100.1481,38.3515],[100.4074,38.2224],[100.7988,38.2224],[100.7449,38.0933],[101.4762,38.1578],[102.5952,38.0288],[102.568,37.9643],[103.4788,37.8998],[103.4514,37.8352],[103.9984,37.8352],[103.971,37.7707],[104.541,37.6417],[105.433,37.8998],[106.1647,37.9643],[106.8154,38.5451],[107.4426,38.5451],[107.5113,38.3515],[107.9029,38.3515],[107.9718,38.1578],[108.745,37.9643],[108.8434,37.8352],[109.7615,37.9643],[110.3979,38.1578],[110.6748,38.416],[111.0186,38.4806],[111.1562,38.9326],[111.3761,39.0618],[111.8317,38.868],[111.8005,38.8034],[112.7123,39.0618],[113.5768,39.0618],[113.5447,38.9972],[114.0304,38.868],[114.2637,38.5451],[114.8909,38.5451],[114.8592,38.4806],[116.6158,38.5451],[117.576,38.7388],[117.7019,38.9953],[117.7663,39.0141],[117.7154,39.1114],[117.8856,39.2011],[118.0964,39.2024],[118.2249,39.0618],[118.4054,39.0618],[118.5271,39.1492],[118.7096,39.1495],[119.1145,39.2863],[119.2304,39.3617],[119.2814,39.575],[119.2293,39.536],[119.2086,39.5696],[119.2849,39.5954],[119.3804,39.7729],[119.5264,39.832],[119.5356,39.8908],[120.4722,40.2145],[120.5018,40.3269],[120.5888,40.3818],[120.5457,40.4024],[120.8253,40.674],[121.02,40.7192],[120.9395,40.7405],[120.9819,40.8268],[121.0684,40.8034],[121.2003,40.9307],[121.7565,40.8736],[121.8679,40.9958],[121.8259,40.9482],[121.8511,40.8323],[122.1594,40.7016],[122.1573,40.5993],[122.3019,40.5023],[122.1061,40.3101],[122.0916,40.2272],[121.9915,40.187],[121.9957,40.1239],[121.8269,40.0225],[121.8738,39.9914],[121.4811,39.8139],[121.4634,39.7435],[121.5501,39.6787],[121.5333,39.6223],[121.4639,39.6458],[121.2234,39.5286],[121.436,39.5086],[121.4976,39.385],[121.943,39.3994],[121.7798,39.3715],[121.628,39.2704],[121.5926,39.1922],[121.681,39.1364],[121.6741,39.088],[121.1399,38.9473],[121.1456,38.7389],[121.2367,38.7985],[121.485,38.8099],[121.7247,39.0302],[122.0423,39.0597],[122.115,39.2008],[122.29,39.351],[122.8486,39.6179],[122.9641,39.6116],[123.0091,39.6805],[123.2609,39.7172],[123.2042,39.7451],[123.2654,39.7541],[123.252,39.8171],[123.3141,39.7761],[123.4171,39.8245],[123.4112,39.771],[123.6085,39.836],[123.6567,39.9195],[123.6431,39.8786],[123.773,39.8183],[124.1182,39.8332],[124.2942,39.9338],[124.3702,40.0979],[124.4996,40.0225],[124.4058,40.0278],[124.3215,39.9127],[124.4177,39.8245],[124.5641,39.8143],[124.6436,39.6677],[124.7557,39.6883],[124.7461,39.7829],[125.117,39.5659],[125.2252,39.5912],[125.286,39.5212],[125.4449,39.5844],[125.3452,39.4537],[125.4592,39.3851],[125.417,39.332],[126.0566,39.4496],[127.4255,39.3305],[127.4675,39.3638],[127.3784,39.3789],[127.5412,39.429],[127.5204,39.5105],[127.5746,39.595],[127.5038,39.7155],[127.6237,39.8309],[128.0068,40.0452],[128.1551,40.0163],[128.2634,40.0771],[128.3278,40.0282],[128.6461,40.2609],[128.6365,40.3132],[129.0776,40.4726],[129.2335,40.7057],[129.7339,40.8654],[129.7649,40.9444],[129.7119,41.1226],[129.795,41.3474],[129.6594,41.4646],[129.6488,41.5494],[129.7823,41.7816],[130.073,42.0785],[130.1388,42.0819],[130.2942,42.237],[130.4043,42.2551],[130.4075,42.3246],[130.6054,42.3012],[130.8423,42.5583],[130.7295,42.5792],[130.6567,42.6641],[130.8255,42.6993],[130.787,42.6538],[130.9509,42.6262],[131.1057,42.6683],[131.2072,42.6262],[131.2731,42.7773],[131.347,42.7761],[131.4306,42.8791],[131.3939,42.945],[131.4801,42.94],[131.8267,43.338],[131.9684,43.2706],[132.052,43.3148],[131.8472,43.0899],[131.9207,43.1204],[131.8865,43.0856],[131.9689,43.0816],[132.3054,43.319],[132.3562,43.286],[132.3077,43.2382],[132.3817,43.1912],[132.2911,43.0856],[132.2898,42.8864],[132.4044,42.9423],[132.6062,42.8864],[132.5779,42.8404],[132.7634,42.9081],[132.7946,42.7865],[132.9898,42.827],[133.0789,42.7498],[132.9963,42.7226],[133.0244,42.6994],[133.1681,42.6912],[134.0096,42.9438],[134.1937,43.0798],[135.139,43.5226],[135.2239,43.6446],[135.1822,43.7106],[135.2754,43.689],[135.415,43.7607],[135.5188,43.8859],[135.4636,43.8944],[135.4636,43.9497],[135.512,43.9217],[135.5413,44.004],[135.624,44.0385],[135.6559,44.1687],[135.8194,44.2906],[135.8379,44.3627],[136.1653,44.4965],[136.3546,44.7888],[136.4352,44.7791],[136.8108,45.1932],[137.6911,45.83],[138.0036,46.1396],[138.2024,46.4543],[138.3547,46.5874],[138.3431,46.6772],[138.4999,46.8743],[138.4178,46.8743],[138.6286,47.1374],[138.9288,47.3111],[139.3576,47.9278],[140.0214,48.3242],[140.1909,48.5231],[140.194,48.7204],[140.3454,49.0167],[140.3011,48.9654],[140.2192,49.0139],[140.3436,49.0471],[140.2949,49.0883],[140.3565,49.0958],[140.3457,49.2292],[140.3902,49.2751],[140.3359,49.2875],[140.4061,49.2946],[140.5579,49.5816],[140.5284,49.7308],[140.4152,49.8746],[140.6695,50.1008],[140.6006,50.0752],[140.4895,50.1795],[140.5059,50.3791],[140.4218,50.3791],[140.4429,50.5444],[140.5149,50.6171],[140.4634,50.699],[140.5445,50.818],[136.566,49.0513],[135.1521,48.6542],[134.6033,48.3899],[134.3252,48.4559],[133.4788,48.1257],[132.982,48.1257],[132.4736,47.7959],[132.0917,47.73],[132.0718,47.5982],[131.3744,47.3348],[129.9913,47.4665],[130.0413,47.5323],[126.3935,47.73],[124.5153,47.5323],[122.3748,47.0716],[120.3028,46.8086],[120.0938,46.7429],[118.9324,45.3659],[116.5207,43.3421],[115.2113,42.4962],[114.6973,42.3012],[114.4298,41.9764],[113.3906,41.2625],[112.6573,40.9384],[111.2738,40.8736],[111.3084,40.9384],[110.8323,40.9384],[110.8668,41.0032],[109.7898,41.068],[108.6685,40.744],[107.4137,40.6144],[103.96,40.6792],[103.6436,41.0032],[103.7079,41.1328],[103.2387,41.7816],[102.8263,41.9114],[102.9723,42.0413],[102.0336,42.2362],[101.8933,42.4312],[101.7334,42.4312],[101.72,42.5612],[101.4798,42.5612],[101.5131,42.6262],[99.784,42.6912],[99.5584,42.5612],[98.918,42.5612],[98.9504,42.6262],[98.1016,42.6912],[97.8453,42.4962],[97.4818,41.9114],[97.2296,41.7167],[97.2785,41.6518],[96.8373,40.8736],[96.5906,40.6792],[96.2117,39.4496]],[[124.3806,40.1056],[124.5282,40.2141],[124.5487,40.2209],[124.3806,40.1056]],[[130.4759,42.6029],[130.4842,42.61],[130.5014,42.6108],[130.4759,42.6029]],[[130.5308,42.5305],[130.5818,42.4417],[130.5756,42.4457],[130.5308,42.5305]]],[[[121.2655,39.4311],[121.2928,39.3905],[121.3643,39.4455],[121.3363,39.385],[121.4328,39.385],[121.4505,39.4503],[121.3406,39.4813],[121.2655,39.4311]]],[[[124.8696,39.5805],[124.8697,39.5789],[124.9222,39.5711],[124.9097,39.5936],[124.9267,39.6048],[124.8805,39.6125],[124.8705,39.5809],[124.8696,39.5805]]],[[[130.8155,42.6342],[130.8831,42.6027],[130.9035,42.6248],[130.8895,42.6386],[130.8386,42.643],[130.8155,42.6342]]],[[[132.4215,42.8864],[132.4418,42.8864],[132.4392,42.892],[132.4275,42.8959],[132.4215,42.8864]]]]}},{"type":"Feature","properties":{"relationId":"cliopatria-relation-1b0534c0535e","name":"(Vassalage of Western Xia to Great Jin)","name_ko":"서하–금나라 봉신 관계","relationKind":"vassalage","relation_kind_ko":"봉신 관계","actor_ids":"cliopatria-q7427-39cd1086cb;cliopatria-q5066-7c1c22de7a","actor_names_ko":"서하;금나라","color":"#ae87e8","startYear":1139,"endYear":1205,"source_name":"Cliopatria v0.2.0","source_url":"https://github.com/Seshat-Global-History-Databank/cliopatria","license":"CC BY 4.0","attribution":"Seshat Global History Databank, Cliopatria contributors"},"geometry":{"type":"MultiPolygon","coordinates":[[[[96.2089,39.2557],[96.2876,39.2557],[96.2337,39.1265],[96.6785,39.0618],[96.6248,38.9326],[96.9659,38.9972],[97.7207,38.5451],[98.3996,38.4806],[98.5815,38.3515],[100.1481,38.3515],[100.4074,38.2224],[100.7988,38.2224],[100.7449,38.0933],[102.075,38.0933],[102.0477,38.0288],[103.4788,37.8998],[103.4514,37.8352],[103.9984,37.8352],[103.971,37.7707],[104.619,37.6417],[104.5917,37.5773],[104.8258,37.5773],[104.7204,37.5128],[104.744,37.3838],[105.0832,37.4483],[105.8047,37.126],[105.8555,37.0615],[105.6969,36.8682],[105.8768,36.7393],[105.8237,36.6105],[106.0802,36.2884],[105.7438,35.8377],[103.9952,35.3227],[103.6656,35.0653],[103.4972,34.615],[104.0127,34.5506],[104.6399,34.1647],[105.0246,34.1647],[105.2503,34.3577],[105.5824,34.422],[106.2316,34.1004],[106.2605,33.9718],[106.8516,33.9075],[107.0871,33.7146],[108.3446,33.5859],[108.6803,33.4574],[109.2174,33.4574],[109.7508,33.6502],[110.1347,33.6502],[110.4641,33.9075],[110.7965,33.9718],[111.1558,33.9075],[111.2617,33.5859],[111.544,33.5217],[111.7523,33.2645],[113.5452,32.943],[114.5407,32.943],[115.3819,33.1359],[115.893,33.0716],[116.1993,33.2645],[116.8127,33.2645],[118.8192,34.0361],[119.6929,34.5284],[119.5317,34.6157],[119.4422,34.746],[119.3467,34.7808],[119.1922,34.7182],[119.1929,35.0004],[119.2212,35.064],[119.358,35.0971],[119.4239,35.3135],[119.5319,35.3586],[119.648,35.5839],[119.7325,35.6208],[119.7439,35.5759],[119.8401,35.6579],[119.8602,35.6061],[119.9046,35.6246],[119.9082,35.7449],[120.0029,35.7278],[120.0972,35.9008],[120.189,35.9453],[120.1753,35.89],[120.2941,36.0024],[120.1753,35.9936],[120.0897,36.1117],[120.0972,36.2264],[120.2845,36.176],[120.3064,36.2742],[120.3616,36.1916],[120.292,36.062],[120.3535,36.0408],[120.6278,36.1165],[120.6836,36.2056],[120.6436,36.3225],[120.7107,36.3245],[120.7141,36.4287],[120.95,36.4592],[120.9636,36.5479],[120.8504,36.6046],[120.7503,36.5408],[120.7506,36.6168],[120.8506,36.6509],[120.9774,36.5899],[121.4017,36.7124],[121.4595,36.8287],[121.6072,36.845],[121.5032,36.7886],[121.5247,36.7543],[121.9498,36.9389],[121.9263,36.9936],[122.0872,36.9326],[122.1661,37.0141],[122.1627,36.9458],[122.2659,36.898],[122.1969,36.898],[122.1853,36.8499],[122.2921,36.8285],[122.4364,36.8707],[122.4058,36.9222],[122.4985,36.9389],[122.5074,36.898],[122.5373,37.0122],[122.4024,37.0215],[122.4539,37.1543],[122.4707,37.1103],[122.5779,37.2553],[122.5497,37.3198],[122.5947,37.2952],[122.5708,37.3448],[122.6861,37.41],[122.2965,37.4182],[122.2454,37.4597],[122.1832,37.4182],[122.1218,37.5627],[122.0256,37.528],[121.988,37.4256],[121.635,37.4813],[121.5874,37.4536],[121.6761,37.4392],[121.5703,37.4287],[121.3817,37.5661],[121.4298,37.5969],[121.3936,37.6225],[121.1716,37.5771],[121.138,37.7012],[121.0326,37.7104],[120.9258,37.8193],[120.738,37.834],[120.2157,37.6841],[120.3225,37.6324],[120.1876,37.5118],[119.8589,37.3602],[119.8973,37.2494],[119.7706,37.1518],[119.4412,37.1206],[119.1455,37.1789],[118.9724,37.2807],[118.9446,37.3781],[119.0371,37.7221],[119.1746,37.7085],[119.2164,37.794],[118.9966,37.9631],[118.9248,38.0578],[118.95,38.0973],[118.7604,38.1551],[118.543,38.0683],[118.0652,38.1431],[117.6025,38.4806],[117.5435,38.6213],[117.584,38.8116],[117.7474,39.071],[117.7154,39.1114],[118.028,39.2198],[118.2249,39.0618],[118.4054,39.0618],[118.5271,39.1492],[118.9894,39.1911],[119.2304,39.3617],[119.2814,39.575],[119.2293,39.536],[119.2086,39.5696],[119.2849,39.5954],[119.3804,39.7729],[119.5264,39.832],[119.5356,39.8908],[120.4722,40.2145],[120.5018,40.3269],[120.5888,40.3818],[120.5457,40.4024],[120.8253,40.674],[121.02,40.7192],[120.9395,40.7405],[120.9819,40.8268],[121.0684,40.8034],[121.2003,40.9307],[121.7565,40.8736],[121.8679,40.9958],[121.8259,40.9482],[121.8511,40.8323],[122.1594,40.7016],[122.1573,40.5993],[122.3019,40.5023],[122.1061,40.3101],[122.0916,40.2272],[121.9915,40.187],[121.9957,40.1239],[121.8269,40.0225],[121.8738,39.9914],[121.4811,39.8139],[121.4634,39.7435],[121.5501,39.6787],[121.5333,39.6223],[121.4639,39.6458],[121.2234,39.5286],[121.436,39.5086],[121.4976,39.385],[121.943,39.3994],[121.7798,39.3715],[121.628,39.2704],[121.5926,39.1922],[121.681,39.1364],[121.6741,39.088],[121.1399,38.9473],[121.1456,38.7389],[121.2367,38.7985],[121.485,38.8099],[121.7247,39.0302],[122.0423,39.0597],[122.115,39.2008],[122.29,39.351],[122.8486,39.6179],[122.9641,39.6116],[123.0091,39.6805],[123.2609,39.7172],[123.2042,39.7451],[123.2654,39.7541],[123.252,39.8171],[123.3141,39.7761],[123.4171,39.8245],[123.4112,39.771],[123.6085,39.836],[123.6567,39.9195],[123.6431,39.8786],[123.773,39.8183],[124.1182,39.8332],[124.2942,39.9338],[124.3702,40.0979],[124.4996,40.0225],[124.4058,40.0278],[124.3215,39.9127],[124.4177,39.8245],[124.5641,39.8143],[124.6436,39.6677],[124.7557,39.6883],[124.7461,39.7829],[125.117,39.5659],[125.2252,39.5912],[125.286,39.5212],[125.4449,39.5844],[125.3452,39.4537],[125.4592,39.3851],[125.4167,39.3261],[126.7653,39.4496],[126.7283,39.385],[127.4734,39.3476],[127.3784,39.3789],[127.5412,39.429],[127.5204,39.5105],[127.5746,39.595],[127.5038,39.7155],[127.6237,39.8309],[128.0068,40.0452],[128.1551,40.0163],[128.2634,40.0771],[128.3278,40.0282],[128.6461,40.2609],[128.6365,40.3132],[129.0776,40.4726],[129.2335,40.7057],[129.7339,40.8654],[129.7649,40.9444],[129.7119,41.1226],[129.795,41.3474],[129.6594,41.4646],[129.6488,41.5494],[129.7823,41.7816],[130.073,42.0785],[130.1388,42.0819],[130.2942,42.237],[130.4043,42.2551],[130.4075,42.3246],[130.6054,42.3012],[130.8423,42.5583],[130.7295,42.5792],[130.6567,42.6641],[130.8255,42.6993],[130.787,42.6538],[130.9509,42.6262],[131.1057,42.6683],[131.2072,42.6262],[131.2731,42.7773],[131.347,42.7761],[131.4306,42.8791],[131.3939,42.945],[131.4801,42.94],[131.8267,43.338],[131.9684,43.2706],[132.052,43.3148],[131.8472,43.0899],[131.9207,43.1204],[131.8865,43.0856],[131.9689,43.0816],[132.3054,43.319],[132.3562,43.286],[132.3077,43.2382],[132.3817,43.1912],[132.2911,43.0856],[132.2898,42.8864],[132.4044,42.9423],[132.6062,42.8864],[132.5779,42.8404],[132.7634,42.9081],[132.7946,42.7865],[132.9898,42.827],[133.0789,42.7498],[132.9963,42.7226],[133.0244,42.6994],[133.1681,42.6912],[134.0096,42.9438],[134.1937,43.0798],[135.139,43.5226],[135.2239,43.6446],[135.1822,43.7106],[135.2754,43.689],[135.415,43.7607],[135.5188,43.8859],[135.4636,43.8944],[135.4636,43.9497],[135.512,43.9217],[135.5413,44.004],[135.624,44.0385],[135.6559,44.1687],[135.8194,44.2906],[135.8379,44.3627],[136.1653,44.4965],[136.3546,44.7888],[136.4352,44.7791],[136.8108,45.1932],[137.6911,45.83],[138.0036,46.1396],[138.2024,46.4543],[138.3547,46.5874],[138.3431,46.6772],[138.4999,46.8743],[138.4178,46.8743],[138.6286,47.1374],[138.9288,47.3111],[139.3576,47.9278],[140.0214,48.3242],[140.1909,48.5231],[140.194,48.7204],[140.3454,49.0167],[140.3011,48.9654],[140.2192,49.0139],[140.3436,49.0471],[140.2949,49.0883],[140.3565,49.0958],[140.3457,49.2292],[140.3902,49.2751],[140.3359,49.2875],[140.4061,49.2946],[140.5579,49.5816],[140.5284,49.7308],[140.4152,49.8746],[140.6695,50.1008],[140.6006,50.0752],[140.4895,50.1795],[140.5059,50.3791],[140.4218,50.3791],[140.4429,50.5444],[140.5149,50.6171],[140.4634,50.699],[140.5445,50.818],[136.566,49.0513],[135.1521,48.6542],[134.6033,48.3899],[134.3252,48.4559],[133.4788,48.1257],[132.982,48.1257],[132.4736,47.7959],[132.0917,47.73],[132.0718,47.5982],[131.3744,47.3348],[129.9913,47.4665],[130.0413,47.5323],[126.3935,47.73],[124.5153,47.5323],[122.3748,47.0716],[120.3028,46.8086],[120.0938,46.7429],[118.9324,45.3659],[116.5207,43.3421],[115.2113,42.4962],[114.6973,42.3012],[114.4298,41.9764],[113.3906,41.2625],[112.6573,40.9384],[111.2738,40.8736],[111.3084,40.9384],[110.8323,40.9384],[110.8668,41.0032],[109.7898,41.068],[108.6685,40.744],[107.4137,40.6144],[103.96,40.6792],[103.6436,41.0032],[103.7079,41.1328],[103.2387,41.7816],[102.8263,41.9114],[102.9723,42.0413],[102.0336,42.2362],[101.8933,42.4312],[101.7334,42.4312],[101.72,42.5612],[101.1928,42.6262],[98.1016,42.6912],[97.4021,41.9114],[96.4458,40.3554],[96.5249,40.3554],[96.2089,39.2557]],[[124.3806,40.1056],[124.5282,40.2141],[124.5487,40.2209],[124.3806,40.1056]],[[130.4759,42.6029],[130.4842,42.61],[130.5014,42.6108],[130.4759,42.6029]],[[130.5308,42.5305],[130.5818,42.4417],[130.5756,42.4457],[130.5308,42.5305]]],[[[120.7502,37.8986],[120.7546,37.8967],[120.7549,37.8996],[120.7538,37.8998],[120.7502,37.8986]]],[[[121.2655,39.4311],[121.2928,39.3905],[121.3643,39.4455],[121.3363,39.385],[121.4328,39.385],[121.4505,39.4503],[121.3406,39.4813],[121.2655,39.4311]]],[[[124.8696,39.5805],[124.8697,39.5789],[124.9222,39.5711],[124.9097,39.5936],[124.9267,39.6048],[124.8805,39.6125],[124.8705,39.5809],[124.8696,39.5805]]],[[[130.8155,42.6342],[130.8831,42.6027],[130.9035,42.6248],[130.8895,42.6386],[130.8386,42.643],[130.8155,42.6342]]],[[[132.4215,42.8864],[132.4418,42.8864],[132.4392,42.892],[132.4275,42.8959],[132.4215,42.8864]]]]}}]}
