{"type":"FeatureCollection","features":[{"type":"Feature","properties":{"relationId":"cliopatria-relation-bdaf8580fce1","name":"(Alliance between Gupta Empire and Vakataka Kingdom)","name_ko":"굽타 왕조–바카타카 동맹","relationKind":"alliance","relation_kind_ko":"동맹","actor_ids":"cliopatria-q11774-e614932c2f;cliopatria-q1501306-fc655e06d0","actor_names_ko":"굽타 왕조;바카타카","color":"#4fd1c5","startYear":324,"endYear":346,"source_name":"Cliopatria v0.2.0","source_url":"https://github.com/Seshat-Global-History-Databank/cliopatria","license":"CC BY 4.0","attribution":"Seshat Global History Databank, Cliopatria contributors"},"geometry":{"type":"MultiPolygon","coordinates":[[[[73.7217,18.6082],[73.9431,18.1595],[74.2765,17.9087],[75.0579,16.7687],[75.0081,15.5402],[75.3664,15.1707],[75.9686,14.6947],[77.3072,14.8631],[78.1931,15.5642],[78.7604,15.7271],[78.7305,16.6733],[78.8749,17.3633],[79.4472,17.9561],[80.318,18.5657],[80.7311,18.5893],[80.7958,20.003],[82.2589,20.4],[83.7295,20.407],[84.14,20.7983],[84.4436,21.425],[84.578,22.5739],[83.936,22.5648],[83.4582,23.1014],[83.0253,22.9777],[82.2241,23.0144],[81.2387,22.4222],[81.1491,22.2197],[80.761,22.1367],[78.0587,22.5969],[77.2127,22.9457],[75.8939,22.4774],[75.3689,22.4682],[74.3114,22.2243],[74.3835,21.6681],[74.177,20.8448],[73.9133,20.6028],[74.111,19.8291],[74.4557,18.9427],[73.7217,18.6082]]],[[[81.5805,25.2936],[82.1638,24.7149],[82.3881,24.7149],[82.7228,24.4578],[83.694,24.4578],[84.626,24.2006],[86.856,24.1363],[87.8672,24.3935],[88.1224,24.5864],[88.3845,25.6793],[88.1829,25.8079],[88.1551,26.0651],[85.9807,26.0651],[85.254,26.1937],[85.0522,26.3222],[84.4002,26.4508],[83.1549,27.0295],[82.8543,27.0295],[82.4198,26.708],[81.9103,25.9365],[81.6533,25.7436],[81.5805,25.2936]]]]}},{"type":"Feature","properties":{"relationId":"cliopatria-relation-bdaf8580fce1","name":"(Alliance between Gupta Empire and Vakataka Kingdom)","name_ko":"굽타 왕조–바카타카 동맹","relationKind":"alliance","relation_kind_ko":"동맹","actor_ids":"cliopatria-q11774-e614932c2f;cliopatria-q1501306-fc655e06d0","actor_names_ko":"굽타 왕조;바카타카","color":"#4fd1c5","startYear":347,"endYear":352,"source_name":"Cliopatria v0.2.0","source_url":"https://github.com/Seshat-Global-History-Databank/cliopatria","license":"CC BY 4.0","attribution":"Seshat Global History Databank, Cliopatria contributors"},"geometry":{"type":"MultiPolygon","coordinates":[[[[66.9313,28.5724],[67.0067,28.5724],[66.9655,28.3153],[67.0409,28.3153],[67.0457,27.8652],[67.121,27.8652],[67.0623,27.4795],[67.1745,27.2223],[67.1966,26.3222],[67.5021,25.8079],[67.211,25.2936],[67.5852,25.2936],[67.6931,25.5507],[68.8111,26.0651],[69.5609,26.0651],[69.8999,25.8079],[70.6313,25.6793],[70.7862,25.165],[71.0107,25.165],[71.3423,24.8435],[71.7994,24.9078],[72.2826,25.165],[72.8064,25.165],[73.2777,24.7792],[73.9418,24.7149],[74.6409,24.9078],[74.7336,25.0364],[75.2572,25.0364],[75.6681,25.2936],[76.5199,25.4864],[78.1672,25.4864],[78.3144,24.9721],[78.576,24.7149],[78.875,24.7149],[80.1644,24.3292],[80.9876,23.8149],[82.5635,23.8792],[82.6198,23.7506],[82.4525,23.622],[82.4257,23.4291],[82.3335,23.3006],[82.1844,23.3006],[82.0838,23.1077],[82.0565,22.9038],[81.2387,22.4222],[81.1491,22.2197],[80.761,22.1367],[78.0587,22.5969],[77.2127,22.9457],[75.8939,22.4774],[75.3689,22.4682],[74.3114,22.2243],[74.3835,21.6681],[74.177,20.8448],[73.9133,20.6028],[74.111,19.8291],[74.4557,18.9427],[73.7217,18.6082],[73.9431,18.1595],[74.2765,17.9087],[75.0579,16.7687],[75.0081,15.5402],[75.4598,15.0771],[75.9686,14.6947],[77.3072,14.8631],[78.1931,15.5642],[78.7604,15.7271],[78.7305,16.6733],[78.8749,17.3633],[79.4472,17.9561],[80.3336,18.5666],[80.336,17.9648],[80.4685,17.8362],[80.4458,17.6433],[79.9448,16.4861],[79.7833,16.3576],[79.7739,16.2719],[80.3678,15.8564],[80.318,15.7332],[80.6702,15.9077],[80.8565,15.8122],[80.8965,16.0311],[80.91,15.8527],[81.0189,15.7916],[80.9989,15.8467],[81.1497,15.9696],[81.2596,16.3327],[81.4114,16.3825],[81.4167,16.3402],[81.5402,16.3737],[81.7825,16.3331],[82.2035,16.5127],[82.3074,16.5798],[82.2809,16.6208],[82.3381,16.6784],[82.3662,16.8719],[82.2679,16.8675],[82.2527,16.9292],[82.3877,17.1269],[82.7185,17.3486],[83.2389,17.593],[83.2129,17.6349],[83.2991,17.6643],[83.2469,17.7163],[83.3413,17.7174],[83.4519,17.9229],[84.1131,18.2983],[84.3499,18.5529],[84.2469,18.5256],[84.4237,18.6365],[84.7411,19.0281],[84.78,19.0971],[84.7405,19.0737],[84.7388,19.1476],[84.791,19.1206],[85.1804,19.475],[85.4089,19.6099],[85.2884,19.6013],[85.3779,19.6149],[85.3914,19.6906],[85.2476,19.6565],[85.193,19.5808],[85.2332,19.5541],[85.124,19.4783],[85.1029,19.5296],[85.2681,19.78],[85.4401,19.8962],[85.5703,19.8756],[85.5765,19.7458],[85.5099,19.7346],[85.5021,19.6739],[86.089,19.8442],[86.3724,19.965],[86.1677,20.0729],[86.1525,20.1431],[86.3972,19.9829],[86.4951,20.1841],[86.7546,20.3144],[86.6937,20.2939],[86.8071,20.4104],[86.7205,20.3685],[86.7515,20.4892],[87.0215,20.6756],[86.9402,20.698],[86.9987,20.7111],[86.9866,20.7519],[86.8788,20.7806],[86.9657,20.806],[86.844,21.0822],[86.9177,21.3274],[87.2009,21.552],[87.7038,21.6555],[87.834,21.7293],[87.9837,21.8542],[88.0431,22.0173],[88.1643,22.0898],[88.1326,22.1791],[87.9653,22.2448],[87.9066,22.4247],[88.009,22.2404],[88.198,22.1678],[88.2224,22.0779],[88.1467,21.9592],[88.2442,21.5832],[88.2954,21.6766],[88.2616,21.7987],[88.3097,21.6102],[88.3312,21.7191],[88.3926,21.6986],[88.3871,21.6416],[88.4676,21.6745],[88.4956,21.9518],[88.5166,21.7017],[88.6602,22.205],[88.6442,22.0791],[88.763,22.1306],[88.7149,22.0791],[88.763,22.0173],[88.7196,21.9428],[88.728,21.6291],[88.8109,21.6917],[88.803,21.6291],[88.8587,21.6365],[88.8587,21.7668],[88.8916,21.6535],[89.0832,21.6291],[89.0159,21.8533],[88.905,21.9694],[89.0095,21.9046],[89.0609,21.9385],[89.0437,22.1374],[89.1047,21.8159],[89.2947,21.7577],[89.3596,21.9723],[89.369,21.7577],[89.4501,21.7577],[89.5218,21.9623],[89.4758,22.2951],[89.5329,21.9847],[89.5794,22.1132],[89.5492,22.2053],[89.6265,22.336],[89.5274,21.8128],[89.5365,21.7577],[89.6747,21.7577],[89.7007,21.7849],[89.619,21.8699],[89.647,21.9251],[89.7092,21.8301],[89.8782,21.8837],[89.7972,22.076],[89.8713,22.0919],[89.8387,22.2678],[89.8729,22.4186],[89.9204,22.3918],[90.0101,22.4902],[89.8768,22.2747],[89.9344,21.9977],[89.9828,21.9866],[90.0784,22.164],[89.9963,22.0002],[90.058,21.9937],[90.2361,22.1989],[90.0302,21.9124],[90.0866,21.8691],[90.1262,21.932],[90.1005,21.8585],[90.1848,21.801],[90.2727,21.8574],[90.4129,22.178],[90.3943,22.2882],[90.3875,22.1026],[90.446,22.0791],[90.6135,22.3149],[90.5597,22.5623],[90.4725,22.5756],[90.4421,22.4936],[90.5127,22.6115],[90.4929,22.7099],[90.3726,22.7614],[90.54,22.8966],[90.4489,23.0557],[90.572,23.0817],[90.6108,23.2308],[90.2494,23.4554],[90.5519,23.385],[90.5768,23.5395],[90.4763,23.583],[90.6333,23.5966],[90.6078,23.4911],[90.7158,23.5351],[90.6003,23.4499],[90.6673,23.2676],[90.6294,23.0644],[90.7949,22.7414],[90.9417,22.5859],[91.0379,22.5886],[91.0038,22.6787],[91.0667,22.5884],[91.2352,22.6659],[91.169,22.6849],[91.1819,22.7265],[91.3038,22.6974],[91.3464,22.7748],[91.4147,22.7537],[91.4905,22.9045],[91.4615,22.77],[91.497,22.7863],[91.676,22.5346],[91.7871,22.2379],[91.9081,22.4247],[91.8088,22.3063],[91.813,22.1803],[91.8672,22.1374],[91.9157,21.8625],[91.9497,21.8842],[91.8993,21.7895],[91.99,21.7948],[91.9497,21.716],[91.9839,21.6501],[92.0293,21.7049],[91.99,21.562],[92.0531,21.5005],[92.0525,21.1548],[92.233,20.8878],[92.2941,20.8694],[92.2649,21.0544],[92.3331,20.8577],[92.3318,21.372],[92.759,21.2434],[92.7774,21.372],[92.6566,21.5648],[92.7314,22.0791],[92.5922,22.1434],[92.6302,22.4005],[92.4649,22.7863],[92.4943,22.9791],[92.4198,22.9791],[92.3611,23.5577],[92.2222,23.622],[92.2525,24.2649],[92.0392,24.3292],[91.7832,24.1363],[91.3458,24.2006],[91.3031,24.3935],[91.3994,24.5221],[91.3247,24.5221],[91.305,24.8435],[91.0283,24.9721],[91.0624,25.165],[92.4723,25.1007],[92.8067,25.2936],[92.804,25.6793],[92.6787,25.8079],[92.379,25.8079],[92.4413,26.1294],[90.767,26.0008],[90.4166,26.1294],[89.5168,26.1294],[89.2659,26.3865],[89.0408,26.3865],[88.9905,26.5151],[88.5526,26.5794],[87.9903,26.3865],[87.2399,26.3865],[87.1141,26.5151],[86.6516,26.4508],[86.3126,26.6437],[85.787,26.6437],[85.7362,26.7723],[85.5109,26.7723],[85.5476,27.3509],[85.3346,27.4152],[85.2485,27.7367],[84.8591,27.6724],[84.7474,27.8652],[84.2825,27.8009],[83.4797,27.9295],[83.0664,28.1224],[83.0171,28.251],[81.9485,28.1867],[81.7849,28.1224],[81.7595,27.9938],[81.1945,28.1867],[80.957,28.5081],[80.6811,28.6367],[80.3036,28.6367],[79.9157,28.9581],[79.8693,30.5007],[79.6239,30.7578],[79.6071,31.0148],[79.1796,31.4647],[78.8139,31.529],[78.8443,31.6575],[78.448,31.5933],[76.4634,32.236],[76.0811,32.5574],[76.1274,32.7502],[75.8824,32.6859],[75.4694,32.8788],[75.4238,33.0073],[75.2706,33.0073],[75.2405,33.2002],[75.1028,33.2645],[75.1341,33.3931],[74.9964,33.4574],[75.028,33.5859],[74.6016,34.0361],[74.6337,34.1647],[74.4513,34.3577],[74.2973,34.3577],[74.1918,34.5506],[74.0377,34.5506],[73.9931,34.6793],[73.701,34.7436],[73.7172,34.8079],[73.3442,34.5506],[73.3712,34.0361],[73.1706,33.8432],[72.7709,33.7789],[72.725,33.9075],[72.4175,33.9075],[72.4639,34.1004],[72.1408,34.0361],[71.4992,33.2645],[70.9522,32.8788],[70.7001,32.4288],[69.8673,32.1074],[69.6742,31.9146],[69.2927,31.9146],[69.0874,31.6575],[68.935,31.6575],[68.922,31.5933],[68.287,31.0791],[67.9607,30.565],[67.5217,30.2436],[67.2135,29.7937],[66.9313,28.5724]],[[72.1203,29.1685],[72.1634,29.4982],[73.6099,30.2433],[73.9516,30.2548],[74.3896,30.7522],[74.8474,31.0681],[75.355,30.8946],[76.1712,30.8804],[76.3404,30.7464],[76.5859,30.9145],[76.5693,31.3037],[76.8878,31.2923],[77.193,31.1363],[78.0622,31.4],[79.0144,30.5838],[78.8253,30.3321],[78.2746,30.0769],[77.7968,29.3711],[77.7736,28.8813],[77.5115,28.3716],[77.8001,27.4482],[77.2428,26.6237],[76.7683,26.2672],[75.7996,26.7185],[74.1872,27.2389],[73.4905,27.2448],[73.2649,27.9065],[72.9364,28.3074],[72.5847,28.4563],[72.2895,28.8348],[72.1203,29.1685]],[[73.7749,34.371],[73.7798,34.3961],[73.7963,34.4185],[73.7749,34.371]],[[73.7827,34.3468],[73.8217,34.3204],[73.8042,34.3275],[73.7827,34.3468]],[[73.8356,34.3146],[73.9377,34.3042],[73.8533,34.3074],[73.8356,34.3146]],[[73.8937,34.0543],[73.9458,34.0098],[73.9162,34.0279],[73.8937,34.0543]],[[74.5351,31.7711],[74.5408,31.8109],[74.5485,31.8201],[74.5351,31.7711]],[[74.5589,31.8325],[74.5656,31.8405],[74.67,31.9042],[74.5589,31.8325]],[[80.7311,18.5893],[80.7958,20.003],[80.803,20.0052],[80.7972,19.9577],[80.7311,18.5893]],[[84.6273,27.0365],[84.7607,26.999],[84.6402,27.0284],[84.6273,27.0365]],[[85.1949,26.7589],[85.2957,26.7387],[85.2873,26.737],[85.1949,26.7589]],[[88.5401,23.65],[88.5612,23.741],[88.5416,23.6388],[88.5401,23.65]],[[88.5764,23.5918],[88.6092,23.5888],[88.5815,23.5883],[88.5764,23.5918]],[[89.0623,22.2116],[89.0762,22.175],[89.0782,22.1508],[89.0623,22.2116]],[[91.1406,23.6197],[91.1951,23.4952],[91.1408,23.6121],[91.1406,23.6197]],[[91.214,23.7996],[91.2282,23.845],[91.2253,23.8261],[91.214,23.7996]],[[92.175,21.1756],[92.1799,21.207],[92.1807,21.1661],[92.175,21.1756]],[[92.1951,21.1421],[92.2118,21.1235],[92.2243,21.0932],[92.1951,21.1421]]],[[[80.8685,15.812],[80.8698,15.8105],[80.9628,15.7987],[80.8884,15.8467],[80.8685,15.812]]],[[[82.3489,16.9565],[82.3571,16.8975],[82.3642,16.9149],[82.3489,16.9565]]],[[[85.4994,19.6535],[85.5765,19.6906],[85.4996,19.6549],[85.4994,19.6535]]],[[[88.7169,22.0443],[88.7179,22.0085],[88.7307,22.0372],[88.7169,22.0443]]],[[[89.0457,21.9171],[89.0515,21.7932],[89.1136,21.7311],[89.139,21.7668],[89.0457,21.9171]]],[[[90.3233,21.9087],[90.376,21.9959],[90.3714,21.9948],[90.3322,21.9388],[90.3233,21.9087]]],[[[90.3396,21.9723],[90.3811,22.0231],[90.3875,22.048],[90.3739,22.0456],[90.3587,22.0227],[90.3396,21.9723]]],[[[90.4297,23.3852],[90.4373,23.3618],[90.4871,23.319],[90.5061,23.3142],[90.5241,23.3223],[90.5296,23.3336],[90.5862,23.3017],[90.5776,23.3236],[90.5394,23.35],[90.4557,23.385],[90.4297,23.3852]]],[[[90.4557,22.7674],[90.521,22.7118],[90.591,22.8139],[90.6782,22.8083],[90.5444,22.8807],[90.4734,22.8651],[90.4557,22.7674]]],[[[90.4557,23.0628],[90.4695,23.0076],[90.5156,23.0519],[90.5104,23.069],[90.4557,23.0628]]],[[[90.4977,22.0791],[90.5734,22.0791],[90.6135,22.164],[90.4977,22.0791]]],[[[90.5081,22.9758],[90.6673,22.9182],[90.5862,23.0349],[90.5081,22.9758]]],[[[90.5563,22.6747],[90.6818,22.4453],[90.6112,22.0791],[90.6818,22.1026],[90.6475,21.994],[90.8279,22.1524],[90.855,22.4347],[90.6506,22.7874],[90.5855,22.7681],[90.5563,22.6747]]],[[[90.6014,22.4292],[90.6401,22.3087],[90.6587,22.3795],[90.6014,22.4292]]],[[[90.6475,22.4247],[90.6673,22.439],[90.6653,22.4691],[90.6535,22.4835],[90.6475,22.4247]]],[[[91.4238,22.5253],[91.4761,22.4133],[91.5552,22.402],[91.4676,22.5863],[91.4238,22.5253]]],[[[91.8538,21.6647],[91.866,21.5005],[91.9611,21.5062],[91.9356,21.7812],[91.8877,21.685],[91.8723,21.7548],[91.8538,21.6647]]],[[[91.8798,21.8462],[91.8877,21.8662],[91.8843,21.8772],[91.8798,21.8462]]],[[[91.0304,22.1434],[91.1598,22.1792],[91.1552,22.3363],[91.0706,22.3363],[91.0304,22.1434]]],[[[73.7172,34.8079],[73.7944,34.8079],[73.8107,34.8723],[73.7336,34.8723],[73.7172,34.8079]]]]}}]}
