{"type":"FeatureCollection","features":[{"type":"Feature","properties":{"relationId":"cliopatria-relation-723ea7f2bcd1","name":"(Allegiance of Duchy of Aquitaine to Kingdom of France)","name_ko":"아키텐 공국–프랑스 왕국 충성·복속 관계","relationKind":"allegiance","relation_kind_ko":"충성·복속 관계","actor_ids":"cliopatria-q7703611-2212ce4967;cliopatria-q70972-7b35f2920f","actor_names_ko":"아키텐 공국;프랑스 왕국","color":"#e7b763","startYear":990,"endYear":1002,"source_name":"Cliopatria v0.2.0","source_url":"https://github.com/Seshat-Global-History-Databank/cliopatria","license":"CC BY 4.0","attribution":"Seshat Global History Databank, Cliopatria contributors"},"geometry":{"type":"MultiPolygon","coordinates":[[[[-4.7849,48.4362],[-4.7684,48.3454],[-4.7045,48.3416],[-4.2899,48.4316],[-4.4537,48.3354],[-4.2694,48.3627],[-4.3247,48.3217],[-4.1875,48.3075],[-4.5155,48.2958],[-4.5467,48.3468],[-4.6163,48.2877],[-4.5472,48.2526],[-4.5575,48.1772],[-4.4855,48.2426],[-4.3793,48.2324],[-4.3024,48.1964],[-4.2854,48.1154],[-4.7002,48.0746],[-4.4346,47.9757],[-4.3473,47.8629],[-4.3718,47.8072],[-4.1654,47.8308],[-4.1856,47.8744],[-4.1112,47.8693],[-4.1322,47.9239],[-4.0367,47.855],[-3.9618,47.9],[-3.8517,47.801],[-3.5283,47.7799],[-3.4822,47.73],[-3.2826,47.7873],[-3.3465,47.73],[-3.2242,47.6564],[-3.1591,47.711],[-3.1932,47.7464],[-3.118,47.7321],[-3.2006,47.6396],[-3.1412,47.598],[-3.1317,47.4782],[-3.1233,47.5988],[-2.9399,47.5608],[-2.9747,47.6638],[-2.9194,47.5955],[-2.7891,47.6427],[-2.7086,47.6023],[-2.7065,47.6427],[-2.7202,47.5608],[-2.8096,47.5676],[-2.8292,47.5052],[-2.5768,47.5539],[-2.632,47.5198],[-2.3639,47.5062],[-2.4947,47.4912],[-2.3918,47.4237],[-2.5564,47.3832],[-2.4362,47.307],[-2.542,47.3001],[-2.23,47.2645],[-2.0101,47.3197],[-1.727,47.2108],[-2.0146,47.3001],[-2.1606,47.2712],[-2.1596,47.1236],[-1.9907,47.0354],[-2.1288,46.8935],[-2.1188,46.82],[-1.9099,46.6918],[-1.7954,46.4945],[-1.7892,46.5329],[-1.2401,46.2842],[-1.1107,46.3027],[-1.2108,46.1745],[-1.0487,46.0388],[-1.1107,46.0184],[-1.0734,45.9044],[-1.1517,45.8681],[-0.9872,45.7174],[-1.1443,45.8061],[-1.2131,45.7588],[-0.7955,45.4771],[-0.656,45.0991],[-0.4938,44.998],[-0.5962,45.0246],[-0.5347,44.895],[-0.716,45.1345],[-0.7662,45.3261],[-0.9153,45.4504],[-1.0317,45.5035],[-1.1434,45.4504],[-1.2201,44.7226],[-1.1722,44.7783],[-1.0447,44.6694],[-1.2063,44.6479],[-1.3355,44.0655],[-1.3214,43.8634],[-1.3925,43.8634],[-1.4599,43.5375],[-1.6914,43.3961],[-1.6876,43.3421],[-0.9639,43.3421],[-0.8579,42.9515],[-0.124,42.7563],[0.601,42.6912],[0.6738,42.8213],[0.9945,42.8213],[1.8923,42.4962],[2.1231,42.6912],[2.1201,42.7563],[2.9905,43.0165],[3.14,43.2769],[3.6171,43.4072],[3.8509,43.6027],[4.173,43.6027],[4.2583,43.4723],[4.3388,43.4723],[4.41,43.733],[4.5712,43.733],[4.7257,43.9286],[4.4766,44.1243],[4.4695,44.3201],[4.0575,44.516],[3.9609,44.908],[4.1232,44.908],[4.3592,45.1042],[4.3517,45.3004],[3.9423,45.3659],[4.013,45.6278],[3.9315,45.6278],[3.9178,45.9554],[4.0784,46.0209],[3.9829,46.3489],[4.1467,46.3489],[4.1439,46.4145],[4.2258,46.4145],[4.2312,46.2833],[4.4844,46.0865],[4.8835,46.3489],[5.033,46.7429],[5.2769,46.8086],[5.4367,46.9401],[5.4322,47.0716],[5.5945,47.1374],[5.5769,47.6641],[5.6594,47.6641],[5.6572,47.73],[5.8224,47.73],[5.8181,47.8619],[5.6462,48.0597],[5.4807,48.0597],[5.4738,48.2578],[5.3057,48.3238],[5.3033,48.3899],[4.8834,48.522],[4.8653,48.9851],[5.0267,49.1175],[4.6798,49.4489],[4.5768,49.9136],[3.9872,49.98],[3.9841,50.0465],[3.8163,50.0465],[3.726,50.1795],[3.6421,50.1795],[3.6323,50.3791],[3.5482,50.3791],[3.5383,50.5789],[4.0342,50.7788],[4.2631,51.3128],[3.5046,51.246],[3.4347,51.3936],[3.1248,51.3297],[2.5218,51.0875],[1.9214,50.9968],[1.5806,50.8688],[1.6104,50.5482],[1.5552,50.4048],[1.6104,50.3707],[1.5415,50.2779],[1.6725,50.1925],[1.521,50.2147],[1.2212,49.979],[0.5967,49.8572],[0.2359,49.7293],[0.0766,49.535],[0.2568,49.4641],[0.4932,49.4936],[0.4113,49.4521],[-0.2195,49.2801],[-0.9404,49.3923],[-1.0723,49.3968],[-1.1229,49.3454],[-1.2508,49.4489],[-1.336,49.7035],[-1.6067,49.6501],[-1.9352,49.7241],[-1.9456,49.678],[-1.8395,49.6198],[-1.8847,49.5309],[-1.8165,49.3837],[-1.6991,49.3559],[-1.6247,49.2193],[-1.5484,49.2255],[-1.6104,49.2159],[-1.5936,49.029],[-1.508,49.0337],[-1.6029,48.8494],[-1.5536,48.7471],[-1.3566,48.6433],[-1.796,48.6159],[-1.9867,48.6819],[-2.0287,48.6433],[-1.953,48.575],[-1.9803,48.5136],[-2.0524,48.6501],[-2.2137,48.5819],[-2.251,48.6501],[-2.3303,48.6296],[-2.282,48.6706],[-2.3161,48.6986],[-2.4875,48.6501],[-2.6824,48.509],[-2.9586,48.7697],[-3.0424,48.7879],[-3.0199,48.8256],[-3.1255,48.76],[-3.0915,48.8713],[-3.2205,48.7941],[-3.2297,48.8723],[-3.3976,48.8073],[-3.5153,48.8419],[-3.5815,48.7906],[-3.5283,48.7395],[-3.5848,48.6828],[-3.8101,48.7332],[-3.8517,48.6296],[-3.892,48.678],[-3.9547,48.6575],[-3.9699,48.7204],[-4.1938,48.6501],[-4.3433,48.6789],[-4.5636,48.6296],[-4.5301,48.6017],[-4.6077,48.603],[-4.5773,48.5682],[-4.722,48.5682],[-4.7849,48.4362]],[[1.6636,50.49],[1.7785,50.4457],[1.6944,50.4457],[1.6636,50.49]],[[3.8087,51.2053],[3.9378,51.2103],[3.927,51.2063],[3.8087,51.2053]]],[[[-2.2105,47.0058],[-2.2074,46.9679],[-2.1948,46.9619],[-2.1591,46.9165],[-2.1426,46.9099],[-2.1448,46.9575],[-2.2001,46.9854],[-2.2,47.0058],[-2.2105,47.0058]]],[[[-1.2275,45.9543],[-1.2227,45.8898],[-1.1778,45.8898],[-1.2275,45.9543]]]]}},{"type":"Feature","properties":{"relationId":"cliopatria-relation-c558cf3593c3","name":"(Alliance between Samanid Empire and Ziyadid dynasty)","name_ko":"사만 왕조–지야드 왕조 동맹","relationKind":"alliance","relation_kind_ko":"동맹","actor_ids":"cliopatria-q486181-5378ec1049;cliopatria-q207017-2fcb9b3777","actor_names_ko":"사만 왕조;지야드 왕조","color":"#4fd1c5","startYear":922,"endYear":959,"source_name":"Cliopatria v0.2.0","source_url":"https://github.com/Seshat-Global-History-Databank/cliopatria","license":"CC BY 4.0","attribution":"Seshat Global History Databank, Cliopatria contributors"},"geometry":{"type":"MultiPolygon","coordinates":[[[[42.2196,17.5189],[42.3152,17.4221],[42.3538,17.129],[42.3567,17.1824],[42.4837,17.129],[42.5535,16.9152],[42.824,16.6147],[42.8348,15.9154],[42.715,15.7258],[42.8091,15.2678],[42.7949,15.2093],[42.738,15.2853],[42.7422,15.2044],[42.864,15.1364],[42.9373,14.9485],[43.0955,14.084],[43.2809,13.7221],[43.2426,13.2326],[43.4732,12.8466],[43.4633,12.6915],[43.6006,12.7563],[43.8689,12.6641],[44.2896,12.639],[44.6106,12.8196],[44.7243,12.7575],[44.916,12.7575],[44.8716,12.8035],[45.0151,12.8587],[45.0352,12.8037],[44.9793,12.7823],[45.0586,12.762],[45.1182,12.9617],[45.403,13.0701],[45.6658,13.342],[46.2345,13.4363],[46.7007,13.4303],[47.3982,13.6549],[47.6457,13.8732],[48.0169,14.0573],[48.1887,13.9691],[48.6958,14.0436],[49.0037,14.3248],[49.0928,14.5196],[49.1819,14.5166],[49.4832,14.6861],[48.0283,14.9432],[47.5284,15.2004],[46.5062,15.329],[46.1494,15.5218],[46.2303,15.6504],[46.3774,15.6504],[46.4697,15.9718],[46.1753,15.9718],[46.0206,15.8433],[45.579,15.8433],[45.3656,15.9718],[45.2147,15.9076],[45.2257,16.1004],[45.0121,16.229],[45.0195,16.3576],[44.6697,16.679],[44.6109,16.9362],[44.5372,16.9362],[44.6222,17.129],[44.4047,17.1933],[44.3422,17.3862],[44.4198,17.4505],[43.8934,18.5434],[43.5051,18.2219],[42.977,18.0291],[42.6635,17.7076],[42.2196,17.5189]],[[43.2301,17.2983],[43.2418,17.2934],[43.2522,17.272],[43.2301,17.2983]],[[43.4129,17.52],[43.4871,17.5175],[43.4962,17.514],[43.4129,17.52]],[[43.529,17.5014],[43.5771,17.483],[43.6195,17.4588],[43.529,17.5014]]],[[[51.0329,35.7089],[51.4885,35.194],[51.4084,34.229],[51.7059,34.1647],[51.6853,34.0361],[52.0184,33.7146],[51.7352,32.8788],[51.4574,32.5574],[51.4194,32.3002],[51.5924,31.9146],[51.7357,31.8503],[51.7172,31.7218],[51.9275,31.5933],[51.9762,31.4005],[52.1285,31.4005],[52.3875,31.0791],[52.5396,31.0791],[52.8657,30.6935],[53.0177,30.6935],[53.4198,30.3079],[54.0848,30.1794],[54.8885,29.4081],[55.3338,29.3438],[55.4677,29.2152],[55.4335,28.9581],[55.5677,28.8295],[55.6014,28.5081],[55.7524,28.5081],[55.8785,28.3153],[55.7627,27.9938],[55.9887,27.9938],[56.1908,27.8009],[56.3414,27.8009],[56.4682,27.6081],[56.6187,27.6081],[56.8053,27.2866],[56.7318,27.1425],[56.8088,27.1396],[56.8846,27.0781],[56.8548,27.0502],[56.9733,27.003],[56.9255,26.9551],[57.0524,26.8366],[57.1331,26.2637],[57.2129,26.1662],[57.1668,26.083],[57.3057,25.8135],[57.5207,25.7436],[57.7556,25.7427],[57.7717,25.6356],[57.9632,25.6932],[58.0462,25.5749],[58.1375,25.5507],[58.419,25.612],[58.8252,25.5604],[59.044,25.3996],[59.4539,25.4616],[59.538,25.3998],[59.8446,25.3579],[60.3993,25.3579],[60.4285,25.4196],[60.5497,25.4469],[60.6321,25.3579],[60.6335,25.275],[61.0306,25.2098],[61.2236,25.1124],[61.5074,25.1467],[61.4826,25.1937],[61.5584,25.2005],[61.5545,25.2541],[61.5882,25.2021],[61.7831,25.188],[61.7201,25.0374],[61.8431,25.0364],[61.8811,25.103],[62.0972,25.1071],[62.059,25.1616],[62.1452,25.2184],[62.2542,25.212],[62.3398,25.1302],[62.5275,25.2642],[63.5108,25.2293],[63.4695,25.2893],[63.5725,25.365],[64.0727,25.3579],[64.0488,25.4165],[63.9766,25.4128],[64.0454,25.4503],[64.1553,25.4469],[64.0838,25.4267],[64.1,25.3579],[64.225,25.3579],[64.4393,25.2346],[64.5654,25.2703],[64.6111,25.1886],[64.7018,25.1773],[64.6686,25.2551],[64.7444,25.324],[65.1899,25.3135],[65.2323,25.3707],[65.3954,25.3923],[65.6521,25.3445],[66.1813,25.4531],[66.3411,25.5483],[66.0944,25.4748],[66.1672,25.5661],[66.3755,25.6257],[66.531,25.5181],[66.5912,25.3996],[66.5479,25.3656],[66.7102,25.2392],[66.6968,25.0642],[67.0343,25.5535],[67.1566,26.0993],[67.168,27.448],[67.502,28.366],[67.522,29.123],[67.643,29.277],[68.1316,29.3902],[68.693,29.191],[69.638,29.361],[70.003,29.812],[70.2792,29.9543],[70.5759,29.9488],[70.846,32.0431],[71.1728,32.4931],[71.2297,32.7502],[71.5938,33.0073],[71.4845,33.2002],[71.5288,33.3931],[71.9563,33.9075],[72.4639,34.1004],[73.023,34.8079],[73.0432,35.194],[73.3852,35.3227],[73.435,35.5158],[74.6124,35.5802],[74.6824,35.2584],[74.7597,35.2584],[75.3177,35.3227],[76.5998,35.7733],[76.5756,35.9664],[76.1704,35.902],[75.991,36.0952],[75.9795,36.6105],[75.7231,36.8037],[75.4897,36.8037],[75.3888,36.9971],[75.2331,36.9971],[75.2287,37.2549],[74.991,37.5128],[75.0472,37.7062],[74.8885,37.9643],[74.8868,38.2224],[74.8085,38.2224],[74.8859,38.4806],[74.7682,38.6097],[74.1798,38.7389],[74.0624,38.6097],[73.8271,38.6097],[73.6903,39.4496],[73.3953,39.5143],[73.5731,39.5789],[73.8,40.2906],[73.742,40.3554],[73.9214,40.4201],[74.5217,41.2625],[75.2372,41.7167],[75.1933,42.0413],[74.7039,42.2362],[74.5573,42.4962],[74.0102,42.7563],[73.8635,43.0165],[73.4522,43.2118],[73.3621,43.4072],[73.2012,43.4072],[73.0874,43.5375],[73.1348,43.6678],[72.9404,43.7982],[72.931,43.9938],[72.4133,44.1243],[72.2991,44.2548],[71.5376,44.3854],[70.0004,44.3854],[69.5008,43.4072],[68.273,42.3662],[68.1096,42.1063],[66.891,41.2625],[66.6525,41.2625],[66.693,41.1328],[66.2793,40.8088],[65.6867,40.6792],[65.3884,40.744],[65.3511,40.6144],[63.2647,40.2259],[62.7387,40.0317],[62.5018,40.0317],[62.4742,40.2259],[62.3333,40.2906],[62.4027,40.5496],[62.2969,40.744],[62.5266,41.0032],[62.3857,41.068],[62.4578,41.3274],[62.151,41.6518],[62.1877,41.7816],[61.9423,42.0413],[61.7827,42.0413],[61.5556,42.3662],[61.3957,42.3662],[61.1683,42.6912],[61.0081,42.6912],[60.3919,43.3421],[60.3677,43.5375],[59.1235,43.4072],[58.6329,43.6678],[58.4175,43.4723],[58.3371,43.4723],[58.0515,43.0165],[57.957,42.3662],[57.5644,41.7816],[57.4649,41.3922],[56.8274,40.744],[54.3851,40.8088],[54.3701,40.744],[54.3105,40.74],[54.4304,40.7214],[54.3626,40.6879],[54.4036,40.6737],[54.1711,40.7297],[53.721,40.6257],[53.7097,40.6997],[53.4044,40.6792],[53.3794,40.7915],[53.3397,40.744],[52.9433,40.744],[52.9723,40.8736],[52.893,40.8736],[52.8318,40.7097],[52.8631,40.6581],[52.7135,40.3554],[52.7785,40.3554],[52.7877,40.0317],[53.4985,40.0317],[53.5036,39.9747],[53.5745,39.9679],[53.5111,39.8909],[53.5338,39.6376],[53.5335,39.6805],[53.7362,39.5179],[53.1375,39.4496],[53.5176,39.385],[53.9868,38.9972],[53.8298,37.8352],[53.9079,37.8352],[53.9105,37.4483],[54.0947,37.1904],[54.0331,36.8458],[53.9437,36.8056],[53.9192,36.6749],[53.9969,36.6749],[54.0805,36.2884],[54.2238,36.224],[54.0098,35.902],[52.8136,35.7089],[52.5264,35.8377],[52.338,35.6445],[52.0284,35.6445],[51.8292,35.8377],[51.0872,36.0308],[51.0329,35.7089]],[[54.7873,37.6519],[54.8136,37.7186],[54.8234,37.7283],[54.7873,37.6519]],[[55.4474,38.0837],[55.6299,38.1056],[55.511,38.0858],[55.4474,38.0837]],[[55.724,38.1169],[55.7384,38.1186],[55.7688,38.1115],[55.724,38.1169]],[[55.8208,38.0995],[55.8798,38.0858],[55.8541,38.086],[55.8208,38.0995]],[[56.2141,38.0688],[56.3155,38.0895],[56.2997,38.0802],[56.2141,38.0688]],[[57.1814,38.2757],[57.1859,38.2765],[57.2183,38.2651],[57.1814,38.2757]],[[61.1016,35.2353],[61.1038,35.2494],[61.1124,35.202],[61.1016,35.2353]],[[63.1743,26.685],[63.1823,26.8302],[63.1896,26.846],[63.1743,26.685]],[[63.1896,26.846],[63.206,26.8537],[63.2467,26.8595],[63.1896,26.846]],[[64.589,36.5802],[64.5901,36.5947],[64.6105,36.5009],[64.589,36.5802]],[[64.5911,36.6093],[64.592,36.6211],[64.5985,36.6369],[64.5911,36.6093]],[[64.614,36.6746],[64.6214,36.6926],[64.7652,36.9046],[64.614,36.6746]],[[64.7788,37.118],[64.8079,37.1355],[64.9891,37.2137],[64.7788,37.118]],[[66.0797,37.4409],[66.1545,37.3835],[66.1429,37.3851],[66.0797,37.4409]],[[66.3069,38.0804],[66.4204,38.0419],[66.4083,38.0428],[66.3069,38.0804]],[[66.4878,37.3422],[66.5196,37.3642],[66.531,37.3649],[66.4878,37.3422]],[[66.5399,38.028],[66.5542,38.0269],[66.5722,38.0184],[66.5399,38.028]],[[67.7731,37.11],[67.7741,37.1205],[67.7823,37.1029],[67.7731,37.11]],[[67.8003,37.0891],[67.8176,37.0806],[67.808,37.0832],[67.8003,37.0891]],[[68.0169,36.9294],[68.0256,36.9271],[68.0202,36.9257],[68.0169,36.9294]],[[68.0433,36.9316],[68.1864,37.0183],[68.0549,36.9346],[68.0433,36.9316]],[[69.2457,37.1039],[69.3143,37.1189],[69.3121,37.1175],[69.2457,37.1039]],[[69.313,39.9848],[69.314,39.9869],[69.3174,39.9848],[69.313,39.9848]],[[69.4122,39.525],[69.5144,39.5376],[69.4773,39.5304],[69.4122,39.525]],[[69.6528,40.6453],[69.6909,40.63],[69.6601,40.6387],[69.6528,40.6453]],[[70.3579,42.0622],[70.4554,42.0937],[70.4631,42.0897],[70.3579,42.0622]],[[71.0458,42.291],[71.0776,42.2812],[71.2179,42.2064],[71.0458,42.291]],[[71.1435,42.6116],[71.149,42.6779],[71.1481,42.6174],[71.1435,42.6116]],[[71.3191,36.2006],[71.3935,36.228],[71.3824,36.2186],[71.3191,36.2006]],[[71.3298,42.737],[71.3559,42.7504],[71.3476,42.7428],[71.3298,42.737]],[[71.3564,35.9331],[71.3685,35.894],[71.3607,35.9003],[71.3564,35.9331]],[[71.4008,35.868],[71.4167,35.8588],[71.4234,35.8499],[71.4008,35.868]],[[71.4471,35.8179],[71.4644,35.7947],[71.4658,35.7881],[71.4471,35.8179]],[[71.4756,35.741],[71.5027,35.7191],[71.5074,35.7095],[71.4756,35.741]],[[71.4833,35.6266],[71.5059,35.6034],[71.4927,35.6096],[71.4833,35.6266]],[[71.5144,35.6753],[71.5151,35.6935],[71.5198,35.6838],[71.5144,35.6753]],[[71.5316,35.3279],[71.6138,35.4035],[71.6111,35.3955],[71.5316,35.3279]],[[71.5597,42.7606],[71.573,42.7601],[71.5663,42.7572],[71.5597,42.7606]],[[71.573,35.5692],[71.5842,35.5642],[71.5935,35.5494],[71.573,35.5692]],[[72.1496,36.6893],[72.1535,36.7021],[72.1657,36.7071],[72.1496,36.6893]],[[72.1861,36.7153],[72.2136,36.7264],[72.2821,36.738],[72.1861,36.7153]],[[72.3215,36.7447],[72.3873,36.7558],[72.4541,36.758],[72.3215,36.7447]],[[72.6028,36.8252],[72.6296,36.8329],[72.6623,36.8326],[72.6028,36.8252]],[[72.7375,36.8318],[72.8677,36.8304],[72.7794,36.8268],[72.7375,36.8318]],[[72.9768,40.7361],[73.118,40.7829],[73.0706,40.7625],[72.9768,40.7361]],[[73.1891,42.5208],[73.2783,42.5134],[73.2872,42.5088],[73.1891,42.5208]],[[73.3676,39.4438],[73.4769,39.4648],[73.4924,39.4642],[73.3676,39.4438]],[[73.6401,36.8966],[73.7729,36.892],[73.8071,36.8848],[73.6401,36.8966]],[[73.8492,36.876],[73.8651,36.8726],[73.9469,36.8309],[73.8492,36.876]],[[74.4446,37.0023],[74.457,37.0044],[74.4713,36.9998],[74.4446,37.0023]],[[74.4787,36.9974],[74.4803,36.9969],[74.5214,36.9585],[74.4787,36.9974]],[[74.8245,36.9941],[74.8532,36.959],[74.8547,36.9549],[74.8245,36.9941]],[[74.8348,38.4561],[74.8358,38.4552],[74.8444,38.4172],[74.8348,38.4561]],[[75.1951,36.9489],[75.3135,36.9288],[75.3513,36.9158],[75.1951,36.9489]],[[75.8193,36.6645],[75.8498,36.6447],[75.8748,36.6195],[75.8193,36.6645]],[[75.8748,36.6195],[75.9766,36.4626],[75.9811,36.4454],[75.8748,36.6195]],[[75.9,36.0635],[75.9394,36.0218],[75.9223,36.0317],[75.9,36.0635]]],[[[66.3662,25.5304],[66.5006,25.4011],[66.4575,25.4538],[66.4922,25.481],[66.3662,25.5304]]]]}},{"type":"Feature","properties":{"relationId":"cliopatria-relation-c558cf3593c3","name":"(Alliance between Samanid Empire and Ziyadid dynasty)","name_ko":"사만 왕조–지야드 왕조 동맹","relationKind":"alliance","relation_kind_ko":"동맹","actor_ids":"cliopatria-q486181-5378ec1049;cliopatria-q207017-2fcb9b3777","actor_names_ko":"사만 왕조;지야드 왕조","color":"#4fd1c5","startYear":960,"endYear":961,"source_name":"Cliopatria v0.2.0","source_url":"https://github.com/Seshat-Global-History-Databank/cliopatria","license":"CC BY 4.0","attribution":"Seshat Global History Databank, Cliopatria contributors"},"geometry":{"type":"MultiPolygon","coordinates":[[[[42.2196,17.5189],[42.3152,17.4221],[42.3538,17.129],[42.3567,17.1824],[42.4837,17.129],[42.5535,16.9152],[42.824,16.6147],[42.8348,15.9154],[42.715,15.7258],[42.8091,15.2678],[42.7949,15.2093],[42.738,15.2853],[42.7422,15.2044],[42.864,15.1364],[42.9373,14.9485],[43.0955,14.084],[43.2809,13.7221],[43.2426,13.2326],[43.4732,12.8466],[43.4633,12.6915],[43.6006,12.7563],[43.8689,12.6641],[44.2896,12.639],[44.6106,12.8196],[44.7243,12.7575],[44.916,12.7575],[44.8716,12.8035],[45.0151,12.8587],[45.0352,12.8037],[44.9793,12.7823],[45.0586,12.762],[45.1182,12.9617],[45.403,13.0701],[45.6658,13.342],[46.2345,13.4363],[46.7007,13.4303],[47.3982,13.6549],[47.6457,13.8732],[48.0169,14.0573],[48.1887,13.9691],[48.6958,14.0436],[49.0037,14.3248],[49.0928,14.5196],[49.1819,14.5166],[49.4832,14.6861],[48.0283,14.9432],[47.5284,15.2004],[46.5062,15.329],[46.1494,15.5218],[46.2303,15.6504],[46.3774,15.6504],[46.4697,15.9718],[46.1753,15.9718],[46.0206,15.8433],[45.579,15.8433],[45.3656,15.9718],[45.2147,15.9076],[45.2257,16.1004],[45.0121,16.229],[45.0195,16.3576],[44.6697,16.679],[44.6109,16.9362],[44.5372,16.9362],[44.6222,17.129],[44.4047,17.1933],[44.3422,17.3862],[44.4198,17.4505],[43.8934,18.5434],[43.5051,18.2219],[42.977,18.0291],[42.6635,17.7076],[42.2196,17.5189]],[[43.2301,17.2983],[43.2418,17.2934],[43.2522,17.272],[43.2301,17.2983]],[[43.4129,17.52],[43.4871,17.5175],[43.4962,17.514],[43.4129,17.52]],[[43.529,17.5014],[43.5771,17.483],[43.6195,17.4588],[43.529,17.5014]]],[[[51.0329,35.7089],[51.4885,35.194],[51.4084,34.229],[51.7059,34.1647],[51.6853,34.0361],[52.0184,33.7146],[51.7352,32.8788],[51.4574,32.5574],[51.4194,32.3002],[51.5924,31.9146],[51.7357,31.8503],[51.7172,31.7218],[51.9275,31.5933],[51.9762,31.4005],[52.1285,31.4005],[52.3875,31.0791],[52.5396,31.0791],[52.8657,30.6935],[53.0177,30.6935],[53.4198,30.3079],[54.0848,30.1794],[54.8885,29.4081],[55.3338,29.3438],[55.4677,29.2152],[55.4335,28.9581],[55.5677,28.8295],[55.6014,28.5081],[55.7524,28.5081],[55.8785,28.3153],[55.7627,27.9938],[55.9887,27.9938],[56.1908,27.8009],[56.3414,27.8009],[56.4682,27.6081],[56.6187,27.6081],[56.8053,27.2866],[56.7318,27.1425],[56.8088,27.1396],[56.8846,27.0781],[56.8548,27.0502],[56.9733,27.003],[56.9255,26.9551],[57.0524,26.8366],[57.1331,26.2637],[57.2129,26.1662],[57.1668,26.083],[57.3397,25.7812],[57.7556,25.7427],[57.7717,25.6356],[57.9632,25.6932],[58.0462,25.5749],[58.1375,25.5507],[58.419,25.612],[58.8252,25.5604],[59.044,25.3996],[59.4539,25.4616],[59.538,25.3998],[59.8446,25.3579],[60.3993,25.3579],[60.4285,25.4196],[60.5497,25.4469],[60.6321,25.3579],[60.6335,25.275],[61.0306,25.2098],[61.2236,25.1124],[61.5074,25.1467],[61.4826,25.1937],[61.5584,25.2005],[61.5545,25.2541],[61.5882,25.2021],[61.7831,25.188],[61.7207,25.0364],[61.8473,25.0379],[61.8811,25.103],[62.0972,25.1071],[62.059,25.1616],[62.1452,25.2184],[62.2542,25.212],[62.3398,25.1302],[62.4894,25.2142],[62.4772,25.2591],[63.5108,25.2293],[63.4695,25.2893],[63.5725,25.365],[64.0727,25.3579],[64.0488,25.4165],[63.9766,25.4128],[64.0454,25.4503],[64.1553,25.4469],[64.0838,25.4267],[64.1,25.3579],[64.225,25.3579],[64.4393,25.2346],[64.5654,25.2703],[64.6111,25.1886],[64.7018,25.1773],[64.6686,25.2551],[64.7444,25.324],[65.1899,25.3135],[65.2323,25.3707],[65.3954,25.3923],[65.6521,25.3445],[66.1813,25.4531],[66.3411,25.5483],[66.0944,25.4748],[66.1672,25.5661],[66.3755,25.6257],[66.531,25.5181],[66.6245,25.306],[66.7102,25.2392],[66.6968,25.0642],[67.0343,25.5535],[67.1566,26.0993],[67.168,27.448],[67.502,28.366],[67.522,29.123],[67.643,29.277],[68.1316,29.3902],[68.693,29.191],[69.638,29.361],[70.003,29.812],[70.2792,29.9543],[70.5759,29.9488],[70.846,32.0431],[71.1728,32.4931],[71.2297,32.7502],[71.5938,33.0073],[71.4845,33.2002],[71.5288,33.3931],[71.9563,33.9075],[72.4639,34.1004],[73.023,34.8079],[73.0852,35.0548],[72.3886,35.4532],[71.6122,35.4775],[70.9782,35.8852],[70.9612,36.9176],[71.1205,37.3065],[71.9366,37.7486],[73.0713,37.7328],[74.823,37.52],[75.1118,37.3907],[74.991,37.5128],[75.0472,37.7062],[74.8885,37.9643],[74.8868,38.2224],[74.8085,38.2224],[74.8859,38.4806],[74.4152,38.7389],[73.8271,38.6097],[73.6903,39.4496],[73.3953,39.5143],[73.5731,39.5789],[73.8,40.2906],[73.742,40.3554],[73.9214,40.4201],[74.5217,41.2625],[75.2372,41.7167],[75.1933,42.0413],[74.7039,42.2362],[74.5573,42.4962],[74.0102,42.7563],[73.8635,43.0165],[73.4522,43.2118],[73.3621,43.4072],[73.2012,43.4072],[73.0874,43.5375],[73.1348,43.6678],[72.9404,43.7982],[72.931,43.9938],[72.4133,44.1243],[72.2991,44.2548],[71.5376,44.3854],[70.0004,44.3854],[69.5008,43.4072],[68.273,42.3662],[68.1096,42.1063],[66.891,41.2625],[66.6525,41.2625],[66.693,41.1328],[66.2793,40.8088],[65.6867,40.6792],[65.3884,40.744],[65.3511,40.6144],[63.2647,40.2259],[62.7387,40.0317],[62.5018,40.0317],[62.4742,40.2259],[62.3333,40.2906],[62.4027,40.5496],[62.2969,40.744],[62.5266,41.0032],[62.3857,41.068],[62.4578,41.3274],[62.151,41.6518],[62.1877,41.7816],[61.9423,42.0413],[61.7827,42.0413],[61.5556,42.3662],[61.3957,42.3662],[61.1683,42.6912],[61.0081,42.6912],[60.3919,43.3421],[60.3677,43.5375],[59.1235,43.4072],[58.6329,43.6678],[58.4175,43.4723],[58.3371,43.4723],[58.0515,43.0165],[57.957,42.3662],[57.5644,41.7816],[57.4649,41.3922],[56.8274,40.744],[54.3851,40.8088],[54.3701,40.744],[54.3105,40.74],[54.4304,40.7214],[54.3626,40.6879],[54.4036,40.6737],[54.1711,40.7297],[53.721,40.6257],[53.7097,40.6997],[53.4044,40.6792],[53.3794,40.7915],[53.3397,40.744],[52.9433,40.744],[52.9723,40.8736],[52.893,40.8736],[52.8318,40.7097],[52.8631,40.6581],[52.7135,40.3554],[52.7785,40.3554],[52.7877,40.0317],[53.4985,40.0317],[53.5036,39.9747],[53.5745,39.9679],[53.5111,39.8909],[53.5338,39.6376],[53.5335,39.6805],[53.7362,39.5179],[53.1375,39.4496],[53.5176,39.385],[53.9868,38.9972],[53.8298,37.8352],[53.9079,37.8352],[53.9105,37.4483],[54.0947,37.1904],[54.0331,36.8458],[53.9437,36.8056],[53.9192,36.6749],[53.9969,36.6749],[54.0805,36.2884],[54.2238,36.224],[54.0098,35.902],[52.8136,35.7089],[52.5264,35.8377],[52.338,35.6445],[52.0284,35.6445],[51.8292,35.8377],[51.0872,36.0308],[51.0329,35.7089]],[[54.7873,37.6519],[54.8136,37.7186],[54.8234,37.7283],[54.7873,37.6519]],[[55.4474,38.0837],[55.6299,38.1056],[55.511,38.0858],[55.4474,38.0837]],[[55.724,38.1169],[55.7384,38.1186],[55.7688,38.1115],[55.724,38.1169]],[[55.8208,38.0995],[55.8798,38.0858],[55.8541,38.086],[55.8208,38.0995]],[[56.2141,38.0688],[56.3155,38.0895],[56.2997,38.0802],[56.2141,38.0688]],[[57.1814,38.2757],[57.1859,38.2765],[57.2183,38.2651],[57.1814,38.2757]],[[61.1016,35.2353],[61.1038,35.2494],[61.1124,35.202],[61.1016,35.2353]],[[63.1743,26.685],[63.1823,26.8302],[63.1896,26.846],[63.1743,26.685]],[[63.1896,26.846],[63.206,26.8537],[63.2467,26.8595],[63.1896,26.846]],[[64.589,36.5802],[64.5901,36.5947],[64.6105,36.5009],[64.589,36.5802]],[[64.5911,36.6093],[64.592,36.6211],[64.5985,36.6369],[64.5911,36.6093]],[[64.614,36.6746],[64.6214,36.6926],[64.7652,36.9046],[64.614,36.6746]],[[64.7788,37.118],[64.8079,37.1355],[64.9891,37.2137],[64.7788,37.118]],[[66.0797,37.4409],[66.1545,37.3835],[66.1429,37.3851],[66.0797,37.4409]],[[66.3069,38.0804],[66.4204,38.0419],[66.4083,38.0428],[66.3069,38.0804]],[[66.4878,37.3422],[66.5196,37.3642],[66.531,37.3649],[66.4878,37.3422]],[[66.5399,38.028],[66.5542,38.0269],[66.5722,38.0184],[66.5399,38.028]],[[67.7731,37.11],[67.7741,37.1205],[67.7823,37.1029],[67.7731,37.11]],[[67.8003,37.0891],[67.8176,37.0806],[67.808,37.0832],[67.8003,37.0891]],[[68.0169,36.9294],[68.0256,36.9271],[68.0202,36.9257],[68.0169,36.9294]],[[68.0433,36.9316],[68.1864,37.0183],[68.0549,36.9346],[68.0433,36.9316]],[[69.2457,37.1039],[69.3143,37.1189],[69.3121,37.1175],[69.2457,37.1039]],[[69.313,39.9848],[69.314,39.9869],[69.3174,39.9848],[69.313,39.9848]],[[69.4122,39.525],[69.5144,39.5376],[69.4773,39.5304],[69.4122,39.525]],[[69.6528,40.6453],[69.6909,40.63],[69.6601,40.6387],[69.6528,40.6453]],[[70.3579,42.0622],[70.4554,42.0937],[70.4631,42.0897],[70.3579,42.0622]],[[71.0458,42.291],[71.0776,42.2812],[71.2179,42.2064],[71.0458,42.291]],[[71.1435,42.6116],[71.149,42.6779],[71.1481,42.6174],[71.1435,42.6116]],[[71.3298,42.737],[71.3559,42.7504],[71.3476,42.7428],[71.3298,42.737]],[[71.5316,35.3279],[71.6138,35.4035],[71.6111,35.3955],[71.5316,35.3279]],[[71.5597,42.7606],[71.573,42.7601],[71.5663,42.7572],[71.5597,42.7606]],[[72.9768,40.7361],[73.118,40.7829],[73.0706,40.7625],[72.9768,40.7361]],[[73.1891,42.5208],[73.2783,42.5134],[73.2872,42.5088],[73.1891,42.5208]],[[73.3676,39.4438],[73.4769,39.4648],[73.4924,39.4642],[73.3676,39.4438]],[[74.8348,38.4561],[74.8358,38.4552],[74.8444,38.4172],[74.8348,38.4561]]],[[[66.3832,25.524],[66.392,25.5178],[66.3885,25.522],[66.3832,25.524]]],[[[66.4362,25.4869],[66.4697,25.4634],[66.4922,25.481],[66.4562,25.496],[66.4362,25.4869]]],[[[66.6602,24.8611],[66.6616,24.8435],[66.6626,24.8628],[66.6602,24.8611]]]]}},{"type":"Feature","properties":{"relationId":"cliopatria-relation-c558cf3593c3","name":"(Alliance between Samanid Empire and Ziyadid dynasty)","name_ko":"사만 왕조–지야드 왕조 동맹","relationKind":"alliance","relation_kind_ko":"동맹","actor_ids":"cliopatria-q486181-5378ec1049;cliopatria-q207017-2fcb9b3777","actor_names_ko":"사만 왕조;지야드 왕조","color":"#4fd1c5","startYear":962,"endYear":969,"source_name":"Cliopatria v0.2.0","source_url":"https://github.com/Seshat-Global-History-Databank/cliopatria","license":"CC BY 4.0","attribution":"Seshat Global History Databank, Cliopatria contributors"},"geometry":{"type":"MultiPolygon","coordinates":[[[[42.2196,17.5189],[42.3152,17.4221],[42.3538,17.129],[42.3567,17.1824],[42.4837,17.129],[42.5535,16.9152],[42.824,16.6147],[42.8348,15.9154],[42.715,15.7258],[42.8091,15.2678],[42.7949,15.2093],[42.738,15.2853],[42.7422,15.2044],[42.864,15.1364],[42.9373,14.9485],[43.0955,14.084],[43.2809,13.7221],[43.2426,13.2326],[43.4732,12.8466],[43.4633,12.6915],[43.6006,12.7563],[43.8689,12.6641],[44.2896,12.639],[44.6106,12.8196],[44.7243,12.7575],[44.916,12.7575],[44.8716,12.8035],[45.0151,12.8587],[45.0352,12.8037],[44.9793,12.7823],[45.0586,12.762],[45.1182,12.9617],[45.403,13.0701],[45.6658,13.342],[46.2345,13.4363],[46.7007,13.4303],[47.3982,13.6549],[47.6457,13.8732],[48.0169,14.0573],[48.1887,13.9691],[48.6958,14.0436],[49.0037,14.3248],[49.0928,14.5196],[49.1819,14.5166],[49.4832,14.6861],[48.0283,14.9432],[47.5284,15.2004],[46.5062,15.329],[46.1494,15.5218],[46.2303,15.6504],[46.3774,15.6504],[46.4697,15.9718],[46.1753,15.9718],[46.0206,15.8433],[45.579,15.8433],[45.3656,15.9718],[45.2147,15.9076],[45.2257,16.1004],[45.0121,16.229],[45.0195,16.3576],[44.6697,16.679],[44.6109,16.9362],[44.5372,16.9362],[44.6222,17.129],[44.4047,17.1933],[44.3422,17.3862],[44.4198,17.4505],[43.8934,18.5434],[43.5051,18.2219],[42.977,18.0291],[42.6635,17.7076],[42.2196,17.5189]],[[43.2301,17.2983],[43.2418,17.2934],[43.2522,17.272],[43.2301,17.2983]],[[43.4129,17.52],[43.4871,17.5175],[43.4962,17.514],[43.4129,17.52]],[[43.529,17.5014],[43.5771,17.483],[43.6195,17.4588],[43.529,17.5014]]],[[[51.0329,35.7089],[51.4885,35.194],[51.4084,34.229],[51.7059,34.1647],[51.6853,34.0361],[52.0184,33.7146],[51.7352,32.8788],[51.4574,32.5574],[51.4194,32.3002],[51.5924,31.9146],[51.7357,31.8503],[51.7172,31.7218],[51.9275,31.5933],[51.9762,31.4005],[52.1285,31.4005],[52.3875,31.0791],[52.5396,31.0791],[52.8657,30.6935],[53.0177,30.6935],[53.4198,30.3079],[54.0848,30.1794],[54.8885,29.4081],[55.3338,29.3438],[55.4677,29.2152],[55.4335,28.9581],[55.5677,28.8295],[55.6014,28.5081],[55.7524,28.5081],[55.8785,28.3153],[55.7627,27.9938],[55.9887,27.9938],[56.1908,27.8009],[56.3414,27.8009],[56.4682,27.6081],[56.6187,27.6081],[56.8053,27.2866],[56.7318,27.1425],[56.8088,27.1396],[56.8846,27.0781],[56.8548,27.0502],[56.9733,27.003],[56.9255,26.9551],[57.0524,26.8366],[57.1331,26.2637],[57.2129,26.1662],[57.1668,26.083],[57.3397,25.7812],[57.7556,25.7427],[57.7717,25.6356],[57.9632,25.6932],[58.0462,25.5749],[58.1375,25.5507],[58.419,25.612],[58.8252,25.5604],[59.044,25.3996],[59.4539,25.4616],[59.538,25.3998],[59.8446,25.3579],[60.3993,25.3579],[60.4285,25.4196],[60.5497,25.4469],[60.6321,25.3579],[60.6335,25.275],[61.0306,25.2098],[61.2236,25.1124],[61.5074,25.1467],[61.4826,25.1937],[61.5584,25.2005],[61.5545,25.2541],[61.5882,25.2021],[61.7831,25.188],[61.7207,25.0364],[61.8473,25.0379],[61.8811,25.103],[62.0972,25.1071],[62.059,25.1616],[62.1452,25.2184],[62.2542,25.212],[62.3398,25.1302],[62.4894,25.2142],[62.4772,25.2591],[63.5108,25.2293],[63.4695,25.2893],[63.5725,25.365],[64.0727,25.3579],[64.0488,25.4165],[63.9766,25.4128],[64.0454,25.4503],[64.1553,25.4469],[64.0838,25.4267],[64.1,25.3579],[64.225,25.3579],[64.4393,25.2346],[64.5654,25.2703],[64.6111,25.1886],[64.7018,25.1773],[64.6686,25.2551],[64.7444,25.324],[65.1899,25.3135],[65.2323,25.3707],[65.3954,25.3923],[65.6521,25.3445],[66.1813,25.4531],[66.3411,25.5483],[66.0944,25.4748],[66.1672,25.5661],[66.3755,25.6257],[66.531,25.5181],[66.6245,25.306],[66.7102,25.2392],[66.6968,25.0642],[67.0343,25.5535],[67.1566,26.0993],[67.168,27.448],[67.502,28.366],[67.522,29.123],[67.643,29.277],[68.1316,29.3902],[68.693,29.191],[69.638,29.361],[70.003,29.812],[70.2792,29.9543],[70.5759,29.9488],[70.846,32.0431],[71.1728,32.4931],[71.2297,32.7502],[71.5938,33.0073],[71.4845,33.2002],[71.5288,33.3931],[71.9563,33.9075],[72.4639,34.1004],[72.8978,34.615],[73.0852,35.0548],[72.3886,35.4532],[71.6459,35.4764],[71.6207,35.0653],[71.048,34.615],[71.0171,34.4863],[71.202,34.2933],[71.0793,34.1004],[70.7265,33.9075],[69.9876,34.0361],[69.9285,33.7789],[70.2063,33.6502],[70.1771,33.5217],[70.316,33.4574],[70.258,33.2002],[69.5398,33.0716],[69.5462,32.7502],[69.3379,32.4931],[69.2927,31.9146],[69.0874,31.6575],[68.3373,31.3362],[67.5634,31.2719],[67.1658,30.3722],[66.3425,30.4364],[65.6297,30.6935],[64.589,30.822],[64.46,30.9506],[64.3256,31.4647],[64.2494,31.4647],[64.2817,32.0431],[64.2054,32.0431],[64.2156,32.4931],[64.3552,32.8145],[64.2786,32.8145],[64.3298,33.0716],[64.2532,33.0716],[64.3574,33.5859],[64.7448,33.9718],[65.9326,34.4863],[66.37,35.0653],[66.7173,35.902],[66.9026,36.0308],[67.0726,36.4172],[67.8031,36.546],[68.4863,36.4816],[68.5961,36.6105],[69.001,36.6749],[69.5288,36.6105],[70.9775,36.8037],[71.1205,37.3065],[71.9366,37.7486],[73.0713,37.7328],[74.823,37.52],[75.1118,37.3907],[74.991,37.5128],[75.0472,37.7062],[74.8885,37.9643],[74.8868,38.2224],[74.8085,38.2224],[74.8859,38.4806],[74.4152,38.7389],[73.8271,38.6097],[73.6903,39.4496],[73.3953,39.5143],[73.5731,39.5789],[73.8,40.2906],[73.742,40.3554],[73.9214,40.4201],[74.5217,41.2625],[75.2372,41.7167],[75.1933,42.0413],[74.7039,42.2362],[74.5573,42.4962],[74.0102,42.7563],[73.8635,43.0165],[73.4522,43.2118],[73.3621,43.4072],[73.2012,43.4072],[73.0874,43.5375],[73.1348,43.6678],[72.9404,43.7982],[72.931,43.9938],[72.4133,44.1243],[72.2991,44.2548],[71.5376,44.3854],[70.0004,44.3854],[69.5008,43.4072],[68.273,42.3662],[68.1096,42.1063],[66.891,41.2625],[66.6525,41.2625],[66.693,41.1328],[66.2793,40.8088],[65.6867,40.6792],[65.3884,40.744],[65.3511,40.6144],[63.2647,40.2259],[62.7387,40.0317],[62.5018,40.0317],[62.4742,40.2259],[62.3333,40.2906],[62.4027,40.5496],[62.2969,40.744],[62.5266,41.0032],[62.3857,41.068],[62.4578,41.3274],[62.151,41.6518],[62.1877,41.7816],[61.9423,42.0413],[61.7827,42.0413],[61.5556,42.3662],[61.3957,42.3662],[61.1683,42.6912],[61.0081,42.6912],[60.3919,43.3421],[60.3677,43.5375],[59.1235,43.4072],[58.6329,43.6678],[58.4175,43.4723],[58.3371,43.4723],[58.0515,43.0165],[57.957,42.3662],[57.5644,41.7816],[57.4649,41.3922],[56.8274,40.744],[54.3851,40.8088],[54.3701,40.744],[54.3105,40.74],[54.4304,40.7214],[54.3626,40.6879],[54.4036,40.6737],[54.1711,40.7297],[53.721,40.6257],[53.7097,40.6997],[53.4044,40.6792],[53.3794,40.7915],[53.3397,40.744],[52.9433,40.744],[52.9723,40.8736],[52.893,40.8736],[52.8318,40.7097],[52.8631,40.6581],[52.7135,40.3554],[52.7785,40.3554],[52.7877,40.0317],[53.4985,40.0317],[53.5036,39.9747],[53.5745,39.9679],[53.5111,39.8909],[53.5338,39.6376],[53.5335,39.6805],[53.7362,39.5179],[53.1375,39.4496],[53.5176,39.385],[53.9868,38.9972],[53.8298,37.8352],[53.9079,37.8352],[53.9105,37.4483],[54.0947,37.1904],[54.0331,36.8458],[53.9437,36.8056],[53.9192,36.6749],[53.9969,36.6749],[54.0805,36.2884],[54.2238,36.224],[54.0098,35.902],[52.8136,35.7089],[52.5264,35.8377],[52.338,35.6445],[52.0284,35.6445],[51.8292,35.8377],[51.0872,36.0308],[51.0329,35.7089]],[[54.7873,37.6519],[54.8136,37.7186],[54.8234,37.7283],[54.7873,37.6519]],[[55.4474,38.0837],[55.6299,38.1056],[55.511,38.0858],[55.4474,38.0837]],[[55.724,38.1169],[55.7384,38.1186],[55.7688,38.1115],[55.724,38.1169]],[[55.8208,38.0995],[55.8798,38.0858],[55.8541,38.086],[55.8208,38.0995]],[[56.2141,38.0688],[56.3155,38.0895],[56.2997,38.0802],[56.2141,38.0688]],[[57.1814,38.2757],[57.1859,38.2765],[57.2183,38.2651],[57.1814,38.2757]],[[61.1016,35.2353],[61.1038,35.2494],[61.1124,35.202],[61.1016,35.2353]],[[63.1743,26.685],[63.1823,26.8302],[63.1896,26.846],[63.1743,26.685]],[[63.1896,26.846],[63.206,26.8537],[63.2467,26.8595],[63.1896,26.846]],[[64.589,36.5802],[64.5901,36.5947],[64.6105,36.5009],[64.589,36.5802]],[[64.5911,36.6093],[64.592,36.6211],[64.5985,36.6369],[64.5911,36.6093]],[[64.614,36.6746],[64.6214,36.6926],[64.7652,36.9046],[64.614,36.6746]],[[64.7788,37.118],[64.8079,37.1355],[64.9891,37.2137],[64.7788,37.118]],[[66.0797,37.4409],[66.1545,37.3835],[66.1429,37.3851],[66.0797,37.4409]],[[66.3069,38.0804],[66.4204,38.0419],[66.4083,38.0428],[66.3069,38.0804]],[[66.4878,37.3422],[66.5196,37.3642],[66.531,37.3649],[66.4878,37.3422]],[[66.5399,38.028],[66.5542,38.0269],[66.5722,38.0184],[66.5399,38.028]],[[67.7731,37.11],[67.7741,37.1205],[67.7823,37.1029],[67.7731,37.11]],[[67.8003,37.0891],[67.8176,37.0806],[67.808,37.0832],[67.8003,37.0891]],[[68.0169,36.9294],[68.0256,36.9271],[68.0202,36.9257],[68.0169,36.9294]],[[68.0433,36.9316],[68.1864,37.0183],[68.0549,36.9346],[68.0433,36.9316]],[[69.2457,37.1039],[69.3143,37.1189],[69.3121,37.1175],[69.2457,37.1039]],[[69.313,39.9848],[69.314,39.9869],[69.3174,39.9848],[69.313,39.9848]],[[69.4122,39.525],[69.5144,39.5376],[69.4773,39.5304],[69.4122,39.525]],[[69.6528,40.6453],[69.6909,40.63],[69.6601,40.6387],[69.6528,40.6453]],[[70.3579,42.0622],[70.4554,42.0937],[70.4631,42.0897],[70.3579,42.0622]],[[71.0458,42.291],[71.0776,42.2812],[71.2179,42.2064],[71.0458,42.291]],[[71.1435,42.6116],[71.149,42.6779],[71.1481,42.6174],[71.1435,42.6116]],[[71.3298,42.737],[71.3559,42.7504],[71.3476,42.7428],[71.3298,42.737]],[[71.5597,42.7606],[71.573,42.7601],[71.5663,42.7572],[71.5597,42.7606]],[[72.9768,40.7361],[73.118,40.7829],[73.0706,40.7625],[72.9768,40.7361]],[[73.1891,42.5208],[73.2783,42.5134],[73.2872,42.5088],[73.1891,42.5208]],[[73.3676,39.4438],[73.4769,39.4648],[73.4924,39.4642],[73.3676,39.4438]],[[74.8348,38.4561],[74.8358,38.4552],[74.8444,38.4172],[74.8348,38.4561]]],[[[66.3832,25.524],[66.392,25.5178],[66.3885,25.522],[66.3832,25.524]]],[[[66.4362,25.4869],[66.4697,25.4634],[66.4922,25.481],[66.4562,25.496],[66.4362,25.4869]]],[[[66.6602,24.8611],[66.6616,24.8435],[66.6626,24.8628],[66.6602,24.8611]]]]}},{"type":"Feature","properties":{"relationId":"cliopatria-relation-c558cf3593c3","name":"(Alliance between Samanid Empire and Ziyadid dynasty)","name_ko":"사만 왕조–지야드 왕조 동맹","relationKind":"alliance","relation_kind_ko":"동맹","actor_ids":"cliopatria-q486181-5378ec1049;cliopatria-q207017-2fcb9b3777","actor_names_ko":"사만 왕조;지야드 왕조","color":"#4fd1c5","startYear":970,"endYear":979,"source_name":"Cliopatria v0.2.0","source_url":"https://github.com/Seshat-Global-History-Databank/cliopatria","license":"CC BY 4.0","attribution":"Seshat Global History Databank, Cliopatria contributors"},"geometry":{"type":"MultiPolygon","coordinates":[[[[42.2196,17.5189],[42.3152,17.4221],[42.3538,17.129],[42.3567,17.1824],[42.4837,17.129],[42.5535,16.9152],[42.824,16.6147],[42.8348,15.9154],[42.715,15.7258],[42.8091,15.2678],[42.7949,15.2093],[42.738,15.2853],[42.7422,15.2044],[42.864,15.1364],[42.9373,14.9485],[43.0955,14.084],[43.2809,13.7221],[43.2426,13.2326],[43.4732,12.8466],[43.4633,12.6915],[43.6006,12.7563],[43.8689,12.6641],[44.2896,12.639],[44.6106,12.8196],[44.7243,12.7575],[44.916,12.7575],[44.8716,12.8035],[45.0151,12.8587],[45.0352,12.8037],[44.9793,12.7823],[45.0586,12.762],[45.1182,12.9617],[45.403,13.0701],[45.6658,13.342],[46.2345,13.4363],[46.7007,13.4303],[47.3982,13.6549],[47.6457,13.8732],[48.0169,14.0573],[48.1887,13.9691],[48.6958,14.0436],[49.0037,14.3248],[49.0928,14.5196],[49.1819,14.5166],[49.4832,14.6861],[48.0283,14.9432],[47.5284,15.2004],[46.5062,15.329],[46.1494,15.5218],[46.2303,15.6504],[46.3774,15.6504],[46.4697,15.9718],[46.1753,15.9718],[46.0206,15.8433],[45.579,15.8433],[45.3656,15.9718],[45.2147,15.9076],[45.2257,16.1004],[45.0121,16.229],[45.0195,16.3576],[44.6697,16.679],[44.6109,16.9362],[44.5372,16.9362],[44.6222,17.129],[44.4047,17.1933],[44.3422,17.3862],[44.4198,17.4505],[43.8934,18.5434],[43.5051,18.2219],[42.977,18.0291],[42.6635,17.7076],[42.2196,17.5189]],[[43.2301,17.2983],[43.2418,17.2934],[43.2522,17.272],[43.2301,17.2983]],[[43.4129,17.52],[43.4871,17.5175],[43.4962,17.514],[43.4129,17.52]],[[43.529,17.5014],[43.5771,17.483],[43.6195,17.4588],[43.529,17.5014]]],[[[52.7135,40.3554],[52.7785,40.3554],[52.7877,40.0317],[53.4985,40.0317],[53.5036,39.9747],[53.5745,39.9679],[53.5111,39.8909],[53.5338,39.6376],[53.5335,39.6805],[53.7362,39.5179],[53.1375,39.4496],[53.5176,39.385],[53.9868,38.9972],[53.8298,37.8352],[53.9079,37.8352],[53.9105,37.4483],[54.0947,37.1904],[54.0331,36.8458],[53.9437,36.8056],[53.9192,36.6749],[53.9969,36.6749],[54.0805,36.2884],[54.2238,36.224],[54.1108,36.0308],[54.1883,36.0308],[54.2189,35.7733],[54.4395,35.7089],[54.2469,35.0653],[54.3673,34.8723],[54.3224,34.615],[54.4978,34.2933],[54.4537,34.0361],[54.5306,34.0361],[54.5638,33.7789],[54.7065,33.7146],[54.6849,33.5859],[54.8276,33.5217],[54.9719,33.0073],[55.1911,32.943],[55.9618,32.0431],[56.1144,32.0431],[56.1189,31.5933],[56.1951,31.5933],[56.2772,31.1434],[57.1601,30.9506],[57.5002,30.6935],[57.7942,30.6292],[57.8503,30.5007],[58.1441,30.4364],[58.2564,30.1794],[58.4644,30.0508],[58.445,29.9223],[58.5869,29.858],[58.8707,29.2152],[58.913,28.4438],[58.8375,28.4438],[58.4518,27.2223],[57.9386,26.708],[57.7884,26.708],[57.1378,26.2591],[57.2129,26.1662],[57.1668,26.083],[57.1986,25.995],[57.3397,25.7812],[57.7556,25.7427],[57.7717,25.6356],[57.9632,25.6932],[58.0731,25.5636],[58.419,25.612],[58.8252,25.5604],[59.044,25.3996],[59.4539,25.4616],[59.538,25.3998],[59.8446,25.3579],[60.3993,25.3579],[60.4285,25.4196],[60.5497,25.4469],[60.6321,25.3579],[60.6335,25.275],[61.0306,25.2098],[61.2236,25.1124],[61.5074,25.1467],[61.4826,25.1937],[61.5584,25.2005],[61.5545,25.2541],[61.5882,25.2021],[61.7831,25.188],[61.7207,25.0364],[61.8473,25.0379],[61.8811,25.103],[62.0972,25.1071],[62.059,25.1616],[62.1452,25.2184],[62.2542,25.212],[62.3398,25.1302],[62.4894,25.2142],[62.4772,25.2591],[63.5108,25.2293],[63.4695,25.2893],[63.5725,25.365],[64.0727,25.3579],[64.0488,25.4165],[63.9766,25.4128],[64.0454,25.4503],[64.1553,25.4469],[64.0838,25.4267],[64.1,25.3579],[64.225,25.3579],[64.4393,25.2346],[64.5654,25.2703],[64.6111,25.1886],[64.7018,25.1773],[64.6686,25.2551],[64.7444,25.324],[65.1899,25.3135],[65.2323,25.3707],[65.3954,25.3923],[65.6521,25.3445],[66.1813,25.4531],[66.3411,25.5483],[66.0944,25.4748],[66.1672,25.5661],[66.3755,25.6257],[66.531,25.5181],[66.6245,25.306],[66.7102,25.2392],[66.6968,25.0642],[67.0343,25.5535],[67.1566,26.0993],[67.168,27.448],[67.502,28.366],[67.522,29.123],[67.643,29.277],[68.1316,29.3902],[68.693,29.191],[69.638,29.361],[70.003,29.812],[70.2792,29.9543],[70.5759,29.9488],[70.846,32.0431],[71.1728,32.4931],[71.2297,32.7502],[71.5938,33.0073],[71.4845,33.2002],[71.5288,33.3931],[71.9563,33.9075],[72.4639,34.1004],[72.8978,34.615],[73.0852,35.0548],[72.3886,35.4532],[71.6459,35.4764],[71.6207,35.0653],[71.048,34.615],[71.0171,34.4863],[71.202,34.2933],[71.0793,34.1004],[70.7265,33.9075],[69.9876,34.0361],[69.9285,33.7789],[70.2063,33.6502],[70.1771,33.5217],[70.316,33.4574],[70.258,33.2002],[69.5398,33.0716],[69.5462,32.7502],[69.3379,32.4931],[69.2927,31.9146],[69.0874,31.6575],[68.3373,31.3362],[67.5634,31.2719],[67.1658,30.3722],[66.3425,30.4364],[65.6297,30.6935],[64.589,30.822],[64.46,30.9506],[64.3256,31.4647],[64.2494,31.4647],[64.2817,32.0431],[64.2054,32.0431],[64.2156,32.4931],[64.3552,32.8145],[64.2786,32.8145],[64.3298,33.0716],[64.2532,33.0716],[64.3574,33.5859],[64.7448,33.9718],[65.9326,34.4863],[66.37,35.0653],[66.7173,35.902],[66.9026,36.0308],[67.0726,36.4172],[67.8031,36.546],[68.4863,36.4816],[68.5961,36.6105],[69.001,36.6749],[69.5288,36.6105],[70.9775,36.8037],[71.1205,37.3065],[71.9366,37.7486],[73.0713,37.7328],[74.823,37.52],[75.1118,37.3907],[74.991,37.5128],[75.0472,37.7062],[74.8885,37.9643],[74.8868,38.2224],[74.8085,38.2224],[74.8859,38.4806],[74.4152,38.7389],[73.8271,38.6097],[73.6903,39.4496],[73.3953,39.5143],[73.5731,39.5789],[73.8,40.2906],[73.742,40.3554],[73.9214,40.4201],[74.5217,41.2625],[75.2372,41.7167],[75.1933,42.0413],[74.7039,42.2362],[74.5573,42.4962],[74.0102,42.7563],[73.8635,43.0165],[73.4522,43.2118],[73.3621,43.4072],[73.2012,43.4072],[73.0874,43.5375],[73.1348,43.6678],[72.9404,43.7982],[72.931,43.9938],[72.4133,44.1243],[72.2991,44.2548],[71.5376,44.3854],[70.0004,44.3854],[69.5008,43.4072],[68.273,42.3662],[68.1096,42.1063],[66.891,41.2625],[66.6525,41.2625],[66.693,41.1328],[66.2793,40.8088],[65.6867,40.6792],[65.3884,40.744],[65.3511,40.6144],[63.2647,40.2259],[62.7387,40.0317],[62.5018,40.0317],[62.4742,40.2259],[62.3333,40.2906],[62.4027,40.5496],[62.2969,40.744],[62.5266,41.0032],[62.3857,41.068],[62.4578,41.3274],[62.151,41.6518],[62.1877,41.7816],[61.9423,42.0413],[61.7827,42.0413],[61.5556,42.3662],[61.3957,42.3662],[61.1683,42.6912],[61.0081,42.6912],[60.3919,43.3421],[60.3677,43.5375],[59.1235,43.4072],[58.6329,43.6678],[58.4175,43.4723],[58.3371,43.4723],[58.0515,43.0165],[57.957,42.3662],[57.5644,41.7816],[57.4649,41.3922],[56.8274,40.744],[54.3851,40.8088],[54.3701,40.744],[54.3105,40.74],[54.4304,40.7214],[54.3626,40.6879],[54.4036,40.6737],[54.1711,40.7297],[53.721,40.6257],[53.7097,40.6997],[53.4044,40.6792],[53.3794,40.7915],[53.3397,40.744],[52.9433,40.744],[52.9723,40.8736],[52.893,40.8736],[52.8318,40.7097],[52.8631,40.6581],[52.7135,40.3554]],[[54.7873,37.6519],[54.8136,37.7186],[54.8234,37.7283],[54.7873,37.6519]],[[55.4474,38.0837],[55.6299,38.1056],[55.511,38.0858],[55.4474,38.0837]],[[55.724,38.1169],[55.7384,38.1186],[55.7688,38.1115],[55.724,38.1169]],[[55.8208,38.0995],[55.8798,38.0858],[55.8541,38.086],[55.8208,38.0995]],[[56.2141,38.0688],[56.3155,38.0895],[56.2997,38.0802],[56.2141,38.0688]],[[57.1814,38.2757],[57.1859,38.2765],[57.2183,38.2651],[57.1814,38.2757]],[[61.1016,35.2353],[61.1038,35.2494],[61.1124,35.202],[61.1016,35.2353]],[[63.1743,26.685],[63.1823,26.8302],[63.1896,26.846],[63.1743,26.685]],[[63.1896,26.846],[63.206,26.8537],[63.2467,26.8595],[63.1896,26.846]],[[64.589,36.5802],[64.5901,36.5947],[64.6105,36.5009],[64.589,36.5802]],[[64.5911,36.6093],[64.592,36.6211],[64.5985,36.6369],[64.5911,36.6093]],[[64.614,36.6746],[64.6214,36.6926],[64.7652,36.9046],[64.614,36.6746]],[[64.7788,37.118],[64.8079,37.1355],[64.9891,37.2137],[64.7788,37.118]],[[66.0797,37.4409],[66.1545,37.3835],[66.1429,37.3851],[66.0797,37.4409]],[[66.3069,38.0804],[66.4204,38.0419],[66.4083,38.0428],[66.3069,38.0804]],[[66.4878,37.3422],[66.5196,37.3642],[66.531,37.3649],[66.4878,37.3422]],[[66.5399,38.028],[66.5542,38.0269],[66.5722,38.0184],[66.5399,38.028]],[[67.7731,37.11],[67.7741,37.1205],[67.7823,37.1029],[67.7731,37.11]],[[67.8003,37.0891],[67.8176,37.0806],[67.808,37.0832],[67.8003,37.0891]],[[68.0169,36.9294],[68.0256,36.9271],[68.0202,36.9257],[68.0169,36.9294]],[[68.0433,36.9316],[68.1864,37.0183],[68.0549,36.9346],[68.0433,36.9316]],[[69.2457,37.1039],[69.3143,37.1189],[69.3121,37.1175],[69.2457,37.1039]],[[69.313,39.9848],[69.314,39.9869],[69.3174,39.9848],[69.313,39.9848]],[[69.4122,39.525],[69.5144,39.5376],[69.4773,39.5304],[69.4122,39.525]],[[69.6528,40.6453],[69.6909,40.63],[69.6601,40.6387],[69.6528,40.6453]],[[70.3579,42.0622],[70.4554,42.0937],[70.4631,42.0897],[70.3579,42.0622]],[[71.0458,42.291],[71.0776,42.2812],[71.2179,42.2064],[71.0458,42.291]],[[71.1435,42.6116],[71.149,42.6779],[71.1481,42.6174],[71.1435,42.6116]],[[71.3298,42.737],[71.3559,42.7504],[71.3476,42.7428],[71.3298,42.737]],[[71.5597,42.7606],[71.573,42.7601],[71.5663,42.7572],[71.5597,42.7606]],[[72.9768,40.7361],[73.118,40.7829],[73.0706,40.7625],[72.9768,40.7361]],[[73.1891,42.5208],[73.2783,42.5134],[73.2872,42.5088],[73.1891,42.5208]],[[73.3676,39.4438],[73.4769,39.4648],[73.4924,39.4642],[73.3676,39.4438]],[[74.8348,38.4561],[74.8358,38.4552],[74.8444,38.4172],[74.8348,38.4561]]],[[[66.3832,25.524],[66.392,25.5178],[66.3885,25.522],[66.3832,25.524]]],[[[66.4362,25.4869],[66.4697,25.4634],[66.4922,25.481],[66.4562,25.496],[66.4362,25.4869]]],[[[66.6602,24.8611],[66.6616,24.8435],[66.6626,24.8628],[66.6602,24.8611]]]]}},{"type":"Feature","properties":{"relationId":"cliopatria-relation-c558cf3593c3","name":"(Alliance between Samanid Empire and Ziyadid dynasty)","name_ko":"사만 왕조–지야드 왕조 동맹","relationKind":"alliance","relation_kind_ko":"동맹","actor_ids":"cliopatria-q486181-5378ec1049;cliopatria-q207017-2fcb9b3777","actor_names_ko":"사만 왕조;지야드 왕조","color":"#4fd1c5","startYear":980,"endYear":989,"source_name":"Cliopatria v0.2.0","source_url":"https://github.com/Seshat-Global-History-Databank/cliopatria","license":"CC BY 4.0","attribution":"Seshat Global History Databank, Cliopatria contributors"},"geometry":{"type":"MultiPolygon","coordinates":[[[[42.2196,17.5189],[42.3152,17.4221],[42.3538,17.129],[42.3567,17.1824],[42.4837,17.129],[42.5535,16.9152],[42.824,16.6147],[42.8348,15.9154],[42.715,15.7258],[42.8091,15.2678],[42.7949,15.2093],[42.738,15.2853],[42.7422,15.2044],[42.864,15.1364],[42.9373,14.9485],[43.0955,14.084],[43.2809,13.7221],[43.2426,13.2326],[43.4732,12.8466],[43.4633,12.6915],[43.6006,12.7563],[43.8689,12.6641],[44.2896,12.639],[44.6106,12.8196],[44.7243,12.7575],[44.916,12.7575],[44.8716,12.8035],[45.0151,12.8587],[45.0352,12.8037],[44.9793,12.7823],[45.0586,12.762],[45.1182,12.9617],[45.403,13.0701],[45.6658,13.342],[46.2345,13.4363],[46.7007,13.4303],[47.3982,13.6549],[47.6457,13.8732],[48.0169,14.0573],[48.1887,13.9691],[48.6958,14.0436],[49.0037,14.3248],[49.0928,14.5196],[49.1819,14.5166],[49.4832,14.6861],[48.0283,14.9432],[47.5284,15.2004],[46.5062,15.329],[46.1494,15.5218],[46.2303,15.6504],[46.3774,15.6504],[46.4697,15.9718],[46.1753,15.9718],[46.0206,15.8433],[45.579,15.8433],[45.3656,15.9718],[45.2147,15.9076],[45.2257,16.1004],[45.0121,16.229],[45.0195,16.3576],[44.6697,16.679],[44.6109,16.9362],[44.5372,16.9362],[44.6222,17.129],[44.4047,17.1933],[44.3422,17.3862],[44.4198,17.4505],[43.8934,18.5434],[43.5051,18.2219],[42.977,18.0291],[42.6635,17.7076],[42.2196,17.5189]],[[43.2301,17.2983],[43.2418,17.2934],[43.2522,17.272],[43.2301,17.2983]],[[43.4129,17.52],[43.4871,17.5175],[43.4962,17.514],[43.4129,17.52]],[[43.529,17.5014],[43.5771,17.483],[43.6195,17.4588],[43.529,17.5014]]],[[[52.7135,40.3554],[52.7785,40.3554],[52.7877,40.0317],[53.4985,40.0317],[53.5036,39.9747],[53.5745,39.9679],[53.5111,39.8909],[53.5338,39.6376],[53.5335,39.6805],[53.7362,39.5179],[53.1375,39.4496],[53.5176,39.385],[53.9868,38.9972],[53.8298,37.8352],[53.9079,37.8352],[53.9105,37.4483],[54.0947,37.1904],[54.0331,36.8458],[53.9437,36.8056],[53.9192,36.6749],[53.9969,36.6749],[54.0805,36.2884],[54.2238,36.224],[54.1108,36.0308],[54.1883,36.0308],[54.2189,35.7733],[54.4395,35.7089],[54.2469,35.0653],[54.3673,34.8723],[54.366,34.422],[54.4978,34.2933],[54.4537,34.0361],[54.5306,34.0361],[54.5638,33.7789],[54.7065,33.7146],[54.6849,33.5859],[54.8276,33.5217],[54.9719,33.0073],[55.1911,32.943],[55.9618,32.0431],[56.1144,32.0431],[56.1189,31.5933],[56.1951,31.5933],[56.2772,31.1434],[57.1601,30.9506],[57.5002,30.6935],[57.7942,30.6292],[57.8503,30.5007],[58.1441,30.4364],[58.2564,30.1794],[58.4644,30.0508],[58.445,29.9223],[58.5869,29.858],[58.8707,29.2152],[58.913,28.4438],[58.8375,28.4438],[58.4518,27.2223],[57.9386,26.708],[57.7884,26.708],[57.1378,26.2591],[57.2129,26.1662],[57.1668,26.083],[57.1986,25.995],[57.3397,25.7812],[57.7556,25.7427],[57.7717,25.6356],[57.9632,25.6932],[58.0731,25.5636],[58.419,25.612],[58.8252,25.5604],[59.044,25.3996],[59.4539,25.4616],[59.538,25.3998],[59.8446,25.3579],[60.3993,25.3579],[60.4285,25.4196],[60.5497,25.4469],[60.6321,25.3579],[60.6335,25.275],[61.0306,25.2098],[61.2236,25.1124],[61.5074,25.1467],[61.4826,25.1937],[61.5584,25.2005],[61.5545,25.2541],[61.5882,25.2021],[61.7831,25.188],[61.7207,25.0364],[61.8473,25.0379],[61.8811,25.103],[62.0972,25.1071],[62.059,25.1616],[62.1452,25.2184],[62.2542,25.212],[62.3398,25.1302],[62.4894,25.2142],[62.4772,25.2591],[63.4871,25.2856],[63.5848,25.3674],[62.8537,26.9652],[62.9028,27.8652],[62.8274,27.8652],[62.7984,28.1867],[62.657,28.251],[62.5761,29.2152],[62.5005,29.2152],[62.6064,29.4081],[62.6344,30.0508],[63.1368,31.2076],[63.3237,31.4005],[63.3298,31.8503],[63.4784,32.236],[63.9614,32.3645],[64.3171,32.6216],[64.292,33.2645],[64.3574,33.5859],[64.5642,33.8432],[65.9326,34.4863],[66.37,35.0653],[66.7173,35.902],[66.9026,36.0308],[67.0726,36.4172],[67.8031,36.546],[68.4863,36.4816],[68.5961,36.6105],[69.001,36.6749],[69.5288,36.6105],[70.9775,36.8037],[71.1205,37.3065],[71.9366,37.7486],[73.0713,37.7328],[74.823,37.52],[75.1118,37.3907],[74.991,37.5128],[75.0472,37.7062],[74.8885,37.9643],[74.8868,38.2224],[74.8085,38.2224],[74.8859,38.4806],[74.4152,38.7389],[73.8271,38.6097],[73.6903,39.4496],[73.3953,39.5143],[73.5731,39.5789],[73.8,40.2906],[73.742,40.3554],[73.9214,40.4201],[74.5217,41.2625],[75.2372,41.7167],[75.1933,42.0413],[74.7039,42.2362],[74.5573,42.4962],[74.0102,42.7563],[73.8635,43.0165],[73.4522,43.2118],[73.3621,43.4072],[73.2012,43.4072],[73.0874,43.5375],[73.1348,43.6678],[72.9404,43.7982],[72.931,43.9938],[72.4133,44.1243],[72.2991,44.2548],[71.5376,44.3854],[70.0004,44.3854],[69.5008,43.4072],[68.273,42.3662],[68.1096,42.1063],[66.891,41.2625],[66.6525,41.2625],[66.693,41.1328],[66.2793,40.8088],[65.6867,40.6792],[65.3884,40.744],[65.3511,40.6144],[63.2647,40.2259],[62.7387,40.0317],[62.5018,40.0317],[62.4742,40.2259],[62.3333,40.2906],[62.4027,40.5496],[62.2969,40.744],[62.5266,41.0032],[62.3857,41.068],[62.4578,41.3274],[62.151,41.6518],[62.1877,41.7816],[61.9423,42.0413],[61.7827,42.0413],[61.5556,42.3662],[61.3957,42.3662],[61.1683,42.6912],[61.0081,42.6912],[60.3919,43.3421],[60.3677,43.5375],[59.1235,43.4072],[58.6329,43.6678],[58.4175,43.4723],[58.3371,43.4723],[58.0515,43.0165],[57.957,42.3662],[57.5644,41.7816],[57.4649,41.3922],[56.8274,40.744],[54.3851,40.8088],[54.3701,40.744],[54.3105,40.74],[54.4304,40.7214],[54.3626,40.6879],[54.4036,40.6737],[54.1711,40.7297],[53.721,40.6257],[53.7097,40.6997],[53.4044,40.6792],[53.3794,40.7915],[53.3397,40.744],[52.9433,40.744],[52.9723,40.8736],[52.893,40.8736],[52.8318,40.7097],[52.8631,40.6581],[52.7135,40.3554]],[[54.7873,37.6519],[54.8136,37.7186],[54.8234,37.7283],[54.7873,37.6519]],[[55.4474,38.0837],[55.6299,38.1056],[55.511,38.0858],[55.4474,38.0837]],[[55.724,38.1169],[55.7384,38.1186],[55.7688,38.1115],[55.724,38.1169]],[[55.8208,38.0995],[55.8798,38.0858],[55.8541,38.086],[55.8208,38.0995]],[[56.2141,38.0688],[56.3155,38.0895],[56.2997,38.0802],[56.2141,38.0688]],[[57.1814,38.2757],[57.1859,38.2765],[57.2183,38.2651],[57.1814,38.2757]],[[61.1016,35.2353],[61.1038,35.2494],[61.1124,35.202],[61.1016,35.2353]],[[64.589,36.5802],[64.5901,36.5947],[64.6105,36.5009],[64.589,36.5802]],[[64.5911,36.6093],[64.592,36.6211],[64.5985,36.6369],[64.5911,36.6093]],[[64.614,36.6746],[64.6214,36.6926],[64.7652,36.9046],[64.614,36.6746]],[[64.7788,37.118],[64.8079,37.1355],[64.9891,37.2137],[64.7788,37.118]],[[66.0797,37.4409],[66.1545,37.3835],[66.1429,37.3851],[66.0797,37.4409]],[[66.3069,38.0804],[66.4204,38.0419],[66.4083,38.0428],[66.3069,38.0804]],[[66.4878,37.3422],[66.5196,37.3642],[66.531,37.3649],[66.4878,37.3422]],[[66.5399,38.028],[66.5542,38.0269],[66.5722,38.0184],[66.5399,38.028]],[[67.7731,37.11],[67.7741,37.1205],[67.7823,37.1029],[67.7731,37.11]],[[67.8003,37.0891],[67.8176,37.0806],[67.808,37.0832],[67.8003,37.0891]],[[68.0169,36.9294],[68.0256,36.9271],[68.0202,36.9257],[68.0169,36.9294]],[[68.0433,36.9316],[68.1864,37.0183],[68.0549,36.9346],[68.0433,36.9316]],[[69.2457,37.1039],[69.3143,37.1189],[69.3121,37.1175],[69.2457,37.1039]],[[69.313,39.9848],[69.314,39.9869],[69.3174,39.9848],[69.313,39.9848]],[[69.4122,39.525],[69.5144,39.5376],[69.4773,39.5304],[69.4122,39.525]],[[69.6528,40.6453],[69.6909,40.63],[69.6601,40.6387],[69.6528,40.6453]],[[70.3579,42.0622],[70.4554,42.0937],[70.4631,42.0897],[70.3579,42.0622]],[[71.0458,42.291],[71.0776,42.2812],[71.2179,42.2064],[71.0458,42.291]],[[71.1435,42.6116],[71.149,42.6779],[71.1481,42.6174],[71.1435,42.6116]],[[71.3298,42.737],[71.3559,42.7504],[71.3476,42.7428],[71.3298,42.737]],[[71.5597,42.7606],[71.573,42.7601],[71.5663,42.7572],[71.5597,42.7606]],[[72.9768,40.7361],[73.118,40.7829],[73.0706,40.7625],[72.9768,40.7361]],[[73.1891,42.5208],[73.2783,42.5134],[73.2872,42.5088],[73.1891,42.5208]],[[73.3676,39.4438],[73.4769,39.4648],[73.4924,39.4642],[73.3676,39.4438]],[[74.8348,38.4561],[74.8358,38.4552],[74.8444,38.4172],[74.8348,38.4561]]]]}},{"type":"Feature","properties":{"relationId":"cliopatria-relation-c558cf3593c3","name":"(Alliance between Samanid Empire and Ziyadid dynasty)","name_ko":"사만 왕조–지야드 왕조 동맹","relationKind":"alliance","relation_kind_ko":"동맹","actor_ids":"cliopatria-q486181-5378ec1049;cliopatria-q207017-2fcb9b3777","actor_names_ko":"사만 왕조;지야드 왕조","color":"#4fd1c5","startYear":990,"endYear":999,"source_name":"Cliopatria v0.2.0","source_url":"https://github.com/Seshat-Global-History-Databank/cliopatria","license":"CC BY 4.0","attribution":"Seshat Global History Databank, Cliopatria contributors"},"geometry":{"type":"MultiPolygon","coordinates":[[[[42.2196,17.5189],[42.3152,17.4221],[42.3538,17.129],[42.3567,17.1824],[42.4837,17.129],[42.5535,16.9152],[42.824,16.6147],[42.8348,15.9154],[42.715,15.7258],[42.8091,15.2678],[42.7949,15.2093],[42.738,15.2853],[42.7422,15.2044],[42.864,15.1364],[42.9373,14.9485],[43.0955,14.084],[43.2809,13.7221],[43.2426,13.2326],[43.4732,12.8466],[43.4633,12.6915],[43.6006,12.7563],[43.8689,12.6641],[44.2896,12.639],[44.6106,12.8196],[44.7243,12.7575],[44.916,12.7575],[44.8716,12.8035],[45.0151,12.8587],[45.0352,12.8037],[44.9793,12.7823],[45.0586,12.762],[45.1182,12.9617],[45.403,13.0701],[45.6658,13.342],[46.2345,13.4363],[46.7007,13.4303],[47.3982,13.6549],[47.6457,13.8732],[48.0169,14.0573],[48.1887,13.9691],[48.6958,14.0436],[49.0037,14.3248],[49.0928,14.5196],[49.1819,14.5166],[49.4832,14.6861],[48.0283,14.9432],[47.5284,15.2004],[46.5062,15.329],[46.1494,15.5218],[46.2303,15.6504],[46.3774,15.6504],[46.4697,15.9718],[46.1753,15.9718],[46.0206,15.8433],[45.579,15.8433],[45.3656,15.9718],[45.2147,15.9076],[45.2257,16.1004],[45.0121,16.229],[45.0195,16.3576],[44.6697,16.679],[44.6109,16.9362],[44.5372,16.9362],[44.6222,17.129],[44.4047,17.1933],[44.3422,17.3862],[44.4198,17.4505],[43.8934,18.5434],[43.5051,18.2219],[42.977,18.0291],[42.6635,17.7076],[42.2196,17.5189]],[[43.2301,17.2983],[43.2418,17.2934],[43.2522,17.272],[43.2301,17.2983]],[[43.4129,17.52],[43.4871,17.5175],[43.4962,17.514],[43.4129,17.52]],[[43.529,17.5014],[43.5771,17.483],[43.6195,17.4588],[43.529,17.5014]]],[[[52.7135,40.3554],[52.7785,40.3554],[52.7877,40.0317],[53.4985,40.0317],[53.5036,39.9747],[53.5745,39.9679],[53.5111,39.8909],[53.5338,39.6376],[53.5335,39.6805],[53.7362,39.5179],[53.1375,39.4496],[53.5176,39.385],[53.9868,38.9972],[53.8298,37.8352],[53.9079,37.8352],[53.9105,37.4483],[54.0823,37.126],[54.07,37.0615],[54.6558,36.8682],[54.6311,36.7393],[54.8276,36.546],[54.2469,35.0653],[54.3673,34.8723],[54.366,34.422],[54.4978,34.2933],[54.4537,34.0361],[54.5306,34.0361],[54.5638,33.7789],[54.7065,33.7146],[54.6849,33.5859],[54.8276,33.5217],[54.9719,33.0073],[55.1911,32.943],[55.9618,32.0431],[56.1144,32.0431],[56.1189,31.5933],[56.1951,31.5933],[56.2772,31.1434],[57.1601,30.9506],[57.5002,30.6935],[57.7942,30.6292],[57.8503,30.5007],[58.1441,30.4364],[58.2564,30.1794],[58.4644,30.0508],[58.445,29.9223],[58.5869,29.858],[58.8707,29.2152],[58.913,28.4438],[58.8375,28.4438],[58.4518,27.2223],[57.9386,26.708],[57.7884,26.708],[57.1378,26.2591],[57.2129,26.1662],[57.1668,26.083],[57.1986,25.995],[57.3397,25.7812],[57.7556,25.7427],[57.7717,25.6356],[57.9632,25.6932],[58.0731,25.5636],[58.419,25.612],[58.8252,25.5604],[59.044,25.3996],[59.4539,25.4616],[59.538,25.3998],[59.8446,25.3579],[60.3993,25.3579],[60.4285,25.4196],[60.5497,25.4469],[60.6321,25.3579],[60.6335,25.275],[61.0306,25.2098],[61.2236,25.1124],[61.5074,25.1467],[61.4826,25.1937],[61.5584,25.2005],[61.5545,25.2541],[61.5882,25.2021],[61.7831,25.188],[61.7207,25.0364],[61.8473,25.0379],[61.8811,25.103],[62.0972,25.1071],[62.059,25.1616],[62.1452,25.2184],[62.2542,25.212],[62.3398,25.1302],[62.4894,25.2142],[62.4772,25.2591],[63.4871,25.2856],[63.5848,25.3674],[62.8537,26.9652],[62.9028,27.8652],[62.8274,27.8652],[62.7984,28.1867],[62.657,28.251],[62.5761,29.2152],[62.5005,29.2152],[62.6064,29.4081],[62.6344,30.0508],[63.1368,31.2076],[63.3237,31.4005],[63.3298,31.8503],[63.4784,32.236],[63.9614,32.3645],[64.3171,32.6216],[64.292,33.2645],[64.3574,33.5859],[64.5642,33.8432],[65.9326,34.4863],[66.37,35.0653],[66.7173,35.902],[66.9026,36.0308],[67.0726,36.4172],[67.8031,36.546],[68.4863,36.4816],[68.5961,36.6105],[69.001,36.6749],[69.5288,36.6105],[70.9775,36.8037],[71.1205,37.3065],[71.9366,37.7486],[73.0713,37.7328],[74.823,37.52],[75.1118,37.3907],[74.991,37.5128],[75.0472,37.7062],[74.8885,37.9643],[74.8868,38.2224],[74.8085,38.2224],[74.8859,38.4806],[74.4152,38.7389],[73.8271,38.6097],[73.6903,39.4496],[73.3953,39.5143],[73.5731,39.5789],[73.8,40.2906],[73.742,40.3554],[73.9214,40.4201],[74.5217,41.2625],[75.2372,41.7167],[75.1933,42.0413],[74.7039,42.2362],[74.5573,42.4962],[74.0102,42.7563],[73.8635,43.0165],[73.4522,43.2118],[73.3621,43.4072],[73.2012,43.4072],[73.0874,43.5375],[73.1348,43.6678],[72.9404,43.7982],[72.931,43.9938],[72.4133,44.1243],[72.2991,44.2548],[71.5376,44.3854],[70.0004,44.3854],[69.6257,43.5375],[68.5764,42.5612],[68.4964,42.5612],[68.1096,42.1063],[67.4283,41.7167],[67.3881,41.5869],[66.5147,41.068],[66.2793,40.8088],[62.4228,40.0317],[62.457,40.1612],[62.3161,40.2259],[62.4027,40.5496],[62.2969,40.744],[62.4472,41.0032],[62.3679,41.0032],[62.4397,41.2625],[62.2988,41.3274],[62.3351,41.4571],[62.1327,41.5869],[62.1693,41.7167],[62.0282,41.7816],[62.065,41.9114],[61.9423,42.0413],[61.7827,42.0413],[61.5556,42.3662],[61.3957,42.3662],[61.1683,42.6912],[61.0081,42.6912],[60.3919,43.3421],[60.3677,43.5375],[59.1235,43.4072],[58.6329,43.6678],[58.4175,43.4723],[58.3371,43.4723],[58.0515,43.0165],[57.957,42.3662],[57.5644,41.7816],[57.4649,41.3922],[56.8274,40.744],[54.3851,40.8088],[54.3701,40.744],[54.3105,40.74],[54.4304,40.7214],[54.3626,40.6879],[54.4036,40.6737],[54.1711,40.7297],[53.721,40.6257],[53.7097,40.6997],[53.4044,40.6792],[53.3794,40.7915],[53.3397,40.744],[52.9433,40.744],[52.9723,40.8736],[52.893,40.8736],[52.8318,40.7097],[52.8631,40.6581],[52.7135,40.3554]],[[54.7873,37.6519],[54.8136,37.7186],[54.8234,37.7283],[54.7873,37.6519]],[[55.4474,38.0837],[55.6299,38.1056],[55.511,38.0858],[55.4474,38.0837]],[[55.724,38.1169],[55.7384,38.1186],[55.7688,38.1115],[55.724,38.1169]],[[55.8208,38.0995],[55.8798,38.0858],[55.8541,38.086],[55.8208,38.0995]],[[56.2141,38.0688],[56.3155,38.0895],[56.2997,38.0802],[56.2141,38.0688]],[[57.1814,38.2757],[57.1859,38.2765],[57.2183,38.2651],[57.1814,38.2757]],[[61.1016,35.2353],[61.1038,35.2494],[61.1124,35.202],[61.1016,35.2353]],[[64.589,36.5802],[64.5901,36.5947],[64.6105,36.5009],[64.589,36.5802]],[[64.5911,36.6093],[64.592,36.6211],[64.5985,36.6369],[64.5911,36.6093]],[[64.614,36.6746],[64.6214,36.6926],[64.7652,36.9046],[64.614,36.6746]],[[64.7788,37.118],[64.8079,37.1355],[64.9891,37.2137],[64.7788,37.118]],[[66.0797,37.4409],[66.1545,37.3835],[66.1429,37.3851],[66.0797,37.4409]],[[66.3069,38.0804],[66.4204,38.0419],[66.4083,38.0428],[66.3069,38.0804]],[[66.4878,37.3422],[66.5196,37.3642],[66.531,37.3649],[66.4878,37.3422]],[[66.5399,38.028],[66.5542,38.0269],[66.5722,38.0184],[66.5399,38.028]],[[67.7731,37.11],[67.7741,37.1205],[67.7823,37.1029],[67.7731,37.11]],[[67.8003,37.0891],[67.8176,37.0806],[67.808,37.0832],[67.8003,37.0891]],[[68.0169,36.9294],[68.0256,36.9271],[68.0202,36.9257],[68.0169,36.9294]],[[68.0433,36.9316],[68.1864,37.0183],[68.0549,36.9346],[68.0433,36.9316]],[[69.2457,37.1039],[69.3143,37.1189],[69.3121,37.1175],[69.2457,37.1039]],[[69.313,39.9848],[69.314,39.9869],[69.3174,39.9848],[69.313,39.9848]],[[69.4122,39.525],[69.5144,39.5376],[69.4773,39.5304],[69.4122,39.525]],[[69.6528,40.6453],[69.6909,40.63],[69.6601,40.6387],[69.6528,40.6453]],[[70.3579,42.0622],[70.4554,42.0937],[70.4631,42.0897],[70.3579,42.0622]],[[71.0458,42.291],[71.0776,42.2812],[71.2179,42.2064],[71.0458,42.291]],[[71.1435,42.6116],[71.149,42.6779],[71.1481,42.6174],[71.1435,42.6116]],[[71.3298,42.737],[71.3559,42.7504],[71.3476,42.7428],[71.3298,42.737]],[[71.5597,42.7606],[71.573,42.7601],[71.5663,42.7572],[71.5597,42.7606]],[[72.9768,40.7361],[73.118,40.7829],[73.0706,40.7625],[72.9768,40.7361]],[[73.1891,42.5208],[73.2783,42.5134],[73.2872,42.5088],[73.1891,42.5208]],[[73.3676,39.4438],[73.4769,39.4648],[73.4924,39.4642],[73.3676,39.4438]],[[74.8348,38.4561],[74.8358,38.4552],[74.8444,38.4172],[74.8348,38.4561]]]]}}]}
